tree_id,block_id,spc_latin,spc_common,address1,address2,address3,address4,nta_name,latitude,longitude,x_sp,y_sp
121674,109802,Pyrus calleryana,Callery pear,3,CENTRAL,PARK,NORTH,Central Harlem South,40.79685188,-73.9495983,998205.1223,229595.6094
121670,109802,Pyrus calleryana,Callery pear,3,CENTRAL,PARK,NORTH,Central Harlem South,40.79706305,-73.94926814,998296.4919,229672.5988
121676,109802,Pyrus calleryana,Callery pear,3,CENTRAL,PARK,NORTH,Central Harlem South,40.79675812,-73.94953598,998222.3969,229561.4602
121671,109802,Pyrus calleryana,Callery pear,3,CENTRAL,PARK,NORTH,Central Harlem South,40.79706886,-73.94932977,998279.4247,229674.7051
148502,108986,Ginkgo biloba,ginkgo,3,CENTRAL,PARK,NORTH,Central Harlem South,40.79718031,-73.94978629,998153.0024,229715.2381
121673,109802,Pyrus calleryana,Callery pear,3,CENTRAL,PARK,NORTH,Central Harlem South,40.7970521,-73.94944959,998246.2541,229668.5807
121672,109802,Pyrus calleryana,Callery pear,3,CENTRAL,PARK,NORTH,Central Harlem South,40.79706493,-73.9493921,998262.1678,229673.2654
121675,109802,Pyrus calleryana,Callery pear,3,CENTRAL,PARK,NORTH,Central Harlem South,40.79681121,-73.94955939,998215.9018,229580.7988
121677,109802,Ulmus americana,American elm,3,CENTRAL,PARK,NORTH,Central Harlem South,40.79672473,-73.94949835,998232.8214,229549.3008
140813,111816,Ginkgo biloba,ginkgo,3,CENTRAL,PARK,NORTH,Central Harlem South,40.79700902,-73.94981518,998145.0401,229652.8262
118983,109801,Styphnolobium japonicum,Sophora,3,CENTRAL,PARK,NORTH,Central Harlem South,40.79715786,-73.9495533,998217.517,229707.0971
121619,111998,Ulmus americana,American elm,3,CENTRAL,PARK,NORTH,East Harlem South,40.79682978,-73.94970566,998175.4,229587.5392
118982,109801,Styphnolobium japonicum,Sophora,3,CENTRAL,PARK,NORTH,Central Harlem South,40.79719608,-73.94944166,998248.4182,229721.0383
121620,111998,Ulmus americana,American elm,3,CENTRAL,PARK,NORTH,East Harlem South,40.79670439,-73.94965071,998190.6398,229541.8651
140812,111816,Ginkgo biloba,ginkgo,7,CENTRAL,PARK,NORTH,Central Harlem South,40.79705022,-73.94991273,998118.0221,229667.8206
140810,111816,Ginkgo biloba,ginkgo,7,CENTRAL,PARK,NORTH,Central Harlem South,40.79711141,-73.95005763,998077.8887,229690.0938
140811,111816,Ginkgo biloba,ginkgo,7,CENTRAL,PARK,NORTH,Central Harlem South,40.79710541,-73.94997277,998101.385,229687.919
148504,108986,Ginkgo biloba,ginkgo,9,CENTRAL,PARK,NORTH,Central Harlem South,40.79733708,-73.95015633,998050.5157,229772.2971
140809,111816,Ginkgo biloba,ginkgo,9,CENTRAL,PARK,NORTH,Central Harlem South,40.7971678,-73.95012052,998060.4645,229710.6289
140808,111816,Ginkgo biloba,ginkgo,9,CENTRAL,PARK,NORTH,Central Harlem South,40.79717834,-73.95021611,998033.9951,229714.4537
148506,108986,Gleditsia triacanthos var. inermis,honeylocust,15,CENTRAL,PARK,NORTH,Central Harlem South,40.79740123,-73.95030775,998008.5771,229795.6461
148505,108986,Ginkgo biloba,ginkgo,15,CENTRAL,PARK,NORTH,Central Harlem South,40.79736969,-73.9502333,998029.1968,229784.1661
140806,111816,Ginkgo biloba,ginkgo,15,CENTRAL,PARK,NORTH,Central Harlem South,40.79724407,-73.95037175,997990.8885,229738.3769
140807,111816,Ginkgo biloba,ginkgo,15,CENTRAL,PARK,NORTH,Central Harlem South,40.79723527,-73.95028026,998016.2211,229735.183
148507,108986,Ginkgo biloba,ginkgo,21,CENTRAL,PARK,NORTH,Central Harlem South,40.79746539,-73.95045917,997966.6389,229818.9951
140804,111816,Ginkgo biloba,ginkgo,21,CENTRAL,PARK,NORTH,Central Harlem South,40.7973066,-73.95051982,997949.8804,229761.1353
140805,111816,Ginkgo biloba,ginkgo,21,CENTRAL,PARK,NORTH,Central Harlem South,40.79729606,-73.95042422,997976.3498,229757.3102
140803,111816,Ginkgo biloba,ginkgo,21,CENTRAL,PARK,NORTH,Central Harlem South,40.79735886,-73.95057292,997935.1668,229780.1661
140802,111816,Ginkgo biloba,ginkgo,21,CENTRAL,PARK,NORTH,Central Harlem South,40.79736846,-73.9506663,997909.3096,229783.6514
148510,108986,Ginkgo biloba,ginkgo,31,CENTRAL,PARK,NORTH,Central Harlem South,40.79759863,-73.95077369,997879.5295,229867.4927
148509,108986,Ginkgo biloba,ginkgo,31,CENTRAL,PARK,NORTH,Central Harlem South,40.79756562,-73.95069577,997901.1102,229855.478
148511,108986,Ginkgo biloba,ginkgo,31,CENTRAL,PARK,NORTH,Central Harlem South,40.7976291,-73.95084561,997859.6086,229878.5836
148508,108986,Ginkgo biloba,ginkgo,31,CENTRAL,PARK,NORTH,Central Harlem South,40.79753208,-73.95061659,997923.0402,229843.2684
148513,108986,Ginkgo biloba,ginkgo,31,CENTRAL,PARK,NORTH,Central Harlem South,40.79769954,-73.95101186,997813.5641,229904.219
140796,111816,Ginkgo biloba,ginkgo,31,CENTRAL,PARK,NORTH,Central Harlem South,40.79756045,-73.95112091,997783.4001,229853.5285
148512,108986,Ginkgo biloba,ginkgo,31,CENTRAL,PARK,NORTH,Central Harlem South,40.79766639,-73.95093363,997835.2323,229892.1554
140799,111816,Ginkgo biloba,ginkgo,31,CENTRAL,PARK,NORTH,Central Harlem South,40.79749045,-73.95088451,997848.8665,229828.0607
140801,111816,Ginkgo biloba,ginkgo,31,CENTRAL,PARK,NORTH,Central Harlem South,40.79742445,-73.95072824,997892.1479,229804.0408
140800,111816,Ginkgo biloba,ginkgo,31,CENTRAL,PARK,NORTH,Central Harlem South,40.79743379,-73.95082099,997866.4655,229807.4289
140798,111816,Ginkgo biloba,ginkgo,31,CENTRAL,PARK,NORTH,Central Harlem South,40.79749632,-73.95096906,997825.4574,229830.1874
140797,111816,Ginkgo biloba,ginkgo,31,CENTRAL,PARK,NORTH,Central Harlem South,40.79755525,-73.95103795,997806.3718,229851.6443
148516,108986,Gleditsia triacanthos var. inermis,honeylocust,35,CENTRAL,PARK,NORTH,Central Harlem South,40.79781568,-73.951286,997737.638,229946.4903
148515,108986,Gleditsia triacanthos var. inermis,honeylocust,35,CENTRAL,PARK,NORTH,Central Harlem South,40.79776222,-73.95115982,997772.5868,229927.033
140792,111816,Ginkgo biloba,ginkgo,35,CENTRAL,PARK,NORTH,Central Harlem South,40.79769444,-73.95143819,997695.5259,229902.2965
148514,108986,Ginkgo biloba,ginkgo,35,CENTRAL,PARK,NORTH,Central Harlem South,40.79773482,-73.95109515,997790.4978,229917.0609
140794,111816,Ginkgo biloba,ginkgo,35,CENTRAL,PARK,NORTH,Central Harlem South,40.79762738,-73.95127939,997739.5068,229877.8881
148517,108986,Ginkgo biloba,ginkgo,35,CENTRAL,PARK,NORTH,Central Harlem South,40.79785096,-73.95136929,997714.5721,229959.3321
140793,111816,Ginkgo biloba,ginkgo,35,CENTRAL,PARK,NORTH,Central Harlem South,40.7976831,-73.9513407,997722.5196,229898.1807
140795,111816,Ginkgo biloba,ginkgo,35,CENTRAL,PARK,NORTH,Central Harlem South,40.79762204,-73.95119611,997762.5658,229875.9557
148519,108986,Gleditsia triacanthos var. inermis,honeylocust,45,CENTRAL,PARK,NORTH,Central Harlem South,40.79792219,-73.95153743,997668.003,229985.2596
148518,108986,Ginkgo biloba,ginkgo,45,CENTRAL,PARK,NORTH,Central Harlem South,40.79788638,-73.95145289,997691.4186,229972.2232
140791,111816,Ginkgo biloba,ginkgo,45,CENTRAL,PARK,NORTH,Central Harlem South,40.7977479,-73.95149414,997680.0253,229921.764
140787,111816,Ginkgo biloba,ginkgo,45,CENTRAL,PARK,NORTH,Central Harlem South,40.79787989,-73.95180668,997593.4625,229969.8045
140788,111816,Ginkgo biloba,ginkgo,45,CENTRAL,PARK,NORTH,Central Harlem South,40.79782376,-73.95174442,997610.7118,229949.3663
140789,111816,Ginkgo biloba,ginkgo,45,CENTRAL,PARK,NORTH,Central Harlem South,40.79781563,-73.95165451,997635.6074,229946.4148
140790,111816,Ginkgo biloba,ginkgo,45,CENTRAL,PARK,NORTH,Central Harlem South,40.7977595,-73.95159225,997652.8564,229925.9772
140786,111816,Ginkgo biloba,ginkgo,45,CENTRAL,PARK,NORTH,Central Harlem South,40.79788816,-73.95189691,997568.4796,229972.8042
148520,108986,Gleditsia triacanthos var. inermis,honeylocust,45,CENTRAL,PARK,NORTH,Central Harlem South,40.79796229,-73.95163207,997641.7918,229999.8527
148521,108986,Ginkgo biloba,ginkgo,45,CENTRAL,PARK,NORTH,Central Harlem South,40.79799623,-73.9517122,997619.5992,230012.208
140785,111816,Ginkgo biloba,ginkgo,55,CENTRAL,PARK,NORTH,Central Harlem South,40.79794521,-73.95196138,997550.6181,229993.5817
148524,108986,Ginkgo biloba,ginkgo,55,CENTRAL,PARK,NORTH,Central Harlem South,40.79809206,-73.95193839,997556.954,230047.0856
148522,108986,Gleditsia triacanthos var. inermis,honeylocust,55,CENTRAL,PARK,NORTH,Central Harlem South,40.79802925,-73.95179012,997598.0186,230024.2234
148525,108986,Ginkgo biloba,ginkgo,55,CENTRAL,PARK,NORTH,Central Harlem South,40.79812239,-73.95201,997537.1204,230058.1275
148523,108986,Ginkgo biloba,ginkgo,55,CENTRAL,PARK,NORTH,Central Harlem South,40.79805784,-73.95185763,997579.3211,230034.6328
148526,108986,Zelkova serrata,Japanese zelkova,55,CENTRAL,PARK,NORTH,Central Harlem South,40.79815233,-73.95208067,997517.5492,230069.0242
140784,111816,Ginkgo biloba,ginkgo,55,CENTRAL,PARK,NORTH,Central Harlem South,40.79795402,-73.95205287,997525.2858,229996.7759
140783,111816,Ginkgo biloba,ginkgo,55,CENTRAL,PARK,NORTH,Central Harlem South,40.79801214,-73.95211986,997506.7248,230017.9416
140782,111816,Ginkgo biloba,ginkgo,55,CENTRAL,PARK,NORTH,Central Harlem South,40.79802001,-73.95220914,997482.0044,230020.7962
140781,111816,Ginkgo biloba,ginkgo,55,CENTRAL,PARK,NORTH,Central Harlem South,40.79807947,-73.9522793,997462.569,230042.4471
6870,108987,Ginkgo biloba,ginkgo,123,CENTRAL,PARK,NORTH,Central Harlem South,40.79867265,-73.95331519,997175.6438,230258.4086
6869,108987,Ginkgo biloba,ginkgo,123,CENTRAL,PARK,NORTH,Central Harlem South,40.79864093,-73.95324004,997196.4567,230246.8644
6866,108987,Ginkgo biloba,ginkgo,123,CENTRAL,PARK,NORTH,Central Harlem South,40.79848235,-73.95286429,997300.5208,230189.144
6867,108987,Ginkgo biloba,ginkgo,123,CENTRAL,PARK,NORTH,Central Harlem South,40.79851407,-73.95293944,997279.7079,230200.6879
140297,111817,Ginkgo biloba,ginkgo,123,CENTRAL,PARK,NORTH,Central Harlem South,40.79842675,-73.95319708,997208.3907,230168.8366
140299,111817,Ginkgo biloba,ginkgo,123,CENTRAL,PARK,NORTH,Central Harlem South,40.79836301,-73.95304742,997249.8401,230145.6375
140301,111817,Ginkgo biloba,ginkgo,123,CENTRAL,PARK,NORTH,Central Harlem South,40.79829834,-73.95289555,997291.9007,230122.0972
140303,111817,Ginkgo biloba,ginkgo,123,CENTRAL,PARK,NORTH,Central Harlem South,40.79823621,-73.95274968,997332.3029,230099.4841
140300,111817,Ginkgo biloba,ginkgo,123,CENTRAL,PARK,NORTH,Central Harlem South,40.79835503,-73.9529585,997274.4628,230142.7432
140295,111817,Ginkgo biloba,ginkgo,123,CENTRAL,PARK,NORTH,Central Harlem South,40.7984929,-73.95335242,997165.3705,230192.9143
140294,111817,Ginkgo biloba,ginkgo,123,CENTRAL,PARK,NORTH,Central Harlem South,40.79855187,-73.95342071,997146.4496,230214.391
140298,111817,Ginkgo biloba,ginkgo,123,CENTRAL,PARK,NORTH,Central Harlem South,40.79841971,-73.95311036,997232.4025,230166.2841
140302,111817,Ginkgo biloba,ginkgo,123,CENTRAL,PARK,NORTH,Central Harlem South,40.79828902,-73.95280348,997317.3961,230118.714
140296,111817,Ginkgo biloba,ginkgo,123,CENTRAL,PARK,NORTH,Central Harlem South,40.79848385,-73.95326097,997190.6913,230189.6292
6871,108987,Ginkgo biloba,ginkgo,131,CENTRAL,PARK,NORTH,Central Harlem South,40.79870596,-73.95339413,997153.7816,230270.5349
6873,108987,Ginkgo biloba,ginkgo,131,CENTRAL,PARK,NORTH,Central Harlem South,40.79877473,-73.95355705,997108.658,230295.5637
6875,108987,Ginkgo biloba,ginkgo,131,CENTRAL,PARK,NORTH,Central Harlem South,40.79884309,-73.95371904,997063.7972,230320.4466
6874,108987,Ginkgo biloba,ginkgo,131,CENTRAL,PARK,NORTH,Central Harlem South,40.7988135,-73.95364894,997083.2105,230309.6782
6872,108987,Ginkgo biloba,ginkgo,131,CENTRAL,PARK,NORTH,Central Harlem South,40.79873821,-73.95347054,997132.6192,230282.2731
140291,111817,Ginkgo biloba,ginkgo,131,CENTRAL,PARK,NORTH,Central Harlem South,40.79862547,-73.95366372,997079.1554,230241.1678
140293,111817,Ginkgo biloba,ginkgo,131,CENTRAL,PARK,NORTH,Central Harlem South,40.79855757,-73.95350429,997123.3099,230216.455
140289,111817,Ginkgo biloba,ginkgo,131,CENTRAL,PARK,NORTH,Central Harlem South,40.79868813,-73.95381086,997038.4039,230263.9759
140290,111817,Ginkgo biloba,ginkgo,131,CENTRAL,PARK,NORTH,Central Harlem South,40.798678,-73.95371689,997064.4229,230260.3004
140292,111817,Ginkgo biloba,ginkgo,131,CENTRAL,PARK,NORTH,Central Harlem South,40.79861386,-73.95356628,997106.1344,230236.9546
6878,108987,Ginkgo biloba,ginkgo,137,CENTRAL,PARK,NORTH,Central Harlem South,40.7989353,-73.95393754,997003.2822,230354.0118
6880,108987,Ginkgo biloba,ginkgo,137,CENTRAL,PARK,NORTH,Central Harlem South,40.79899873,-73.95408784,996961.6567,230377.1
6876,108987,Ginkgo biloba,ginkgo,137,CENTRAL,PARK,NORTH,Central Harlem South,40.798874,-73.95379229,997043.5089,230331.6995
6877,108987,Ginkgo biloba,ginkgo,137,CENTRAL,PARK,NORTH,Central Harlem South,40.79890305,-73.95386113,997024.4449,230342.2736
6879,108987,Ginkgo biloba,ginkgo,137,CENTRAL,PARK,NORTH,Central Harlem South,40.79896595,-73.95401016,996983.1691,230365.1676
140284,111817,Ginkgo biloba,ginkgo,137,CENTRAL,PARK,NORTH,Central Harlem South,40.7988837,-73.95419991,996930.6498,230335.1713
140285,111817,Ginkgo biloba,ginkgo,137,CENTRAL,PARK,NORTH,Central Harlem South,40.79882888,-73.95414138,996946.8657,230315.2087
140286,111817,Ginkgo biloba,ginkgo,137,CENTRAL,PARK,NORTH,Central Harlem South,40.79881956,-73.9540493,996972.3614,230311.8258
140287,111817,Ginkgo biloba,ginkgo,137,CENTRAL,PARK,NORTH,Central Harlem South,40.79876421,-73.95398951,996988.926,230291.6681
140288,111817,Ginkgo biloba,ginkgo,137,CENTRAL,PARK,NORTH,Central Harlem South,40.79874684,-73.95387853,997019.6572,230285.3551
6881,108987,Ginkgo biloba,ginkgo,141,CENTRAL,PARK,NORTH,Central Harlem South,40.79902139,-73.95414152,996946.7905,230385.346
6882,108987,Ginkgo biloba,ginkgo,141,CENTRAL,PARK,NORTH,Central Harlem South,40.7990627,-73.9542394,996919.6813,230400.3824
6883,108987,Ginkgo biloba,ginkgo,141,CENTRAL,PARK,NORTH,Central Harlem South,40.79909868,-73.95432466,996896.0702,230413.4785
140282,111817,Ginkgo biloba,ginkgo,141,CENTRAL,PARK,NORTH,Central Harlem South,40.79894515,-73.95434422,996890.6837,230357.5397
140281,111817,Ginkgo biloba,ginkgo,141,CENTRAL,PARK,NORTH,Central Harlem South,40.79895058,-73.95442716,996867.7188,230359.5062
140283,111817,Ginkgo biloba,ginkgo,141,CENTRAL,PARK,NORTH,Central Harlem South,40.79889288,-73.95429167,996905.2417,230338.5049
6885,108987,Ginkgo biloba,ginkgo,145,CENTRAL,PARK,NORTH,Central Harlem South,40.79916424,-73.95448001,996853.0453,230437.343
6884,108987,Ginkgo biloba,ginkgo,145,CENTRAL,PARK,NORTH,Central Harlem South,40.79913412,-73.95440865,996872.8091,230426.3811
6887,108987,Ginkgo biloba,ginkgo,145,CENTRAL,PARK,NORTH,Central Harlem South,40.79923327,-73.95464357,996807.7469,230462.4686
6886,108987,Platanus x acerifolia,London planetree,145,CENTRAL,PARK,NORTH,Central Harlem South,40.79920022,-73.95456527,996829.4341,230450.4391
140280,111817,Ginkgo biloba,ginkgo,145,CENTRAL,PARK,NORTH,Central Harlem South,40.7990058,-73.95448663,996851.2415,230379.6154
140279,111817,Ginkgo biloba,ginkgo,145,CENTRAL,PARK,NORTH,Central Harlem South,40.79901378,-73.95457556,996826.6185,230382.5098
140278,111817,Ginkgo biloba,ginkgo,145,CENTRAL,PARK,NORTH,Central Harlem South,40.79907208,-73.95464229,996808.1337,230403.742
140277,111817,Ginkgo biloba,ginkgo,145,CENTRAL,PARK,NORTH,Central Harlem South,40.799081,-73.95473342,996782.9001,230406.9782
6888,108987,Platanus x acerifolia,London planetree,153,CENTRAL,PARK,NORTH,Central Harlem South,40.79933201,-73.95487755,996742.9474,230498.4104
6889,108987,Ginkgo biloba,ginkgo,153,CENTRAL,PARK,NORTH,Central Harlem South,40.79937225,-73.95497291,996716.538,230513.0587
140275,111817,Ginkgo biloba,ginkgo,153,CENTRAL,PARK,NORTH,Central Harlem South,40.799145,-73.95488371,996741.2762,230430.2748
140276,111817,Ginkgo biloba,ginkgo,153,CENTRAL,PARK,NORTH,Central Harlem South,40.7991346,-73.95478912,996767.4697,230426.5011
140273,111817,Ginkgo biloba,ginkgo,153,CENTRAL,PARK,NORTH,Central Harlem South,40.79921021,-73.95503685,996698.8665,230454.0106
140274,111817,Ginkgo biloba,ginkgo,153,CENTRAL,PARK,NORTH,Central Harlem South,40.79920156,-73.95494634,996723.9258,230450.8722
187482,111818,Ginkgo biloba,ginkgo,201,CENTRAL,PARK,NORTH,Central Harlem South,40.79954743,-73.95583742,996477.152,230576.759
412359,109046,Ginkgo biloba,ginkgo,201,CENTRAL,PARK,NORTH,Central Harlem South,40.79968879,-73.95571855,996510.0358,230628.2783
412360,109046,Ginkgo biloba,ginkgo,201,CENTRAL,PARK,NORTH,Central Harlem South,40.79972013,-73.95579315,996489.3758,230639.6858
412357,109046,Ginkgo biloba,ginkgo,201,CENTRAL,PARK,NORTH,Central Harlem South,40.79962425,-73.95556493,996552.581,230604.7865
412358,109046,Ginkgo biloba,ginkgo,201,CENTRAL,PARK,NORTH,Central Harlem South,40.79965532,-73.95563889,996532.0965,230616.0975
187483,111818,Ginkgo biloba,ginkgo,201,CENTRAL,PARK,NORTH,Central Harlem South,40.79953776,-73.95574336,996503.1943,230573.2515
187485,111818,Ginkgo biloba,ginkgo,201,CENTRAL,PARK,NORTH,Central Harlem South,40.79947265,-73.9555881,996546.1942,230549.5488
187484,111818,Ginkgo biloba,ginkgo,201,CENTRAL,PARK,NORTH,Central Harlem South,40.79948045,-73.95567772,996521.378,230552.3805
187481,111818,Ginkgo biloba,ginkgo,201,CENTRAL,PARK,NORTH,Central Harlem South,40.79959585,-73.95588187,996464.8358,230594.3958
412365,109046,Ginkgo biloba,ginkgo,207,CENTRAL,PARK,NORTH,Central Harlem South,40.79988479,-73.95618512,996380.8245,230699.624
412362,109046,Ginkgo biloba,ginkgo,207,CENTRAL,PARK,NORTH,Central Harlem South,40.79978533,-73.95594836,996446.3929,230663.4196
412361,109046,Ginkgo biloba,ginkgo,207,CENTRAL,PARK,NORTH,Central Harlem South,40.79975133,-73.95586744,996468.8036,230651.0453
412364,109046,Ginkgo biloba,ginkgo,207,CENTRAL,PARK,NORTH,Central Harlem South,40.79985146,-73.95610577,996402.7975,230687.4914
412363,109046,Ginkgo biloba,ginkgo,207,CENTRAL,PARK,NORTH,Central Harlem South,40.79981892,-73.95602833,996424.245,230675.6486
412366,109046,Gleditsia triacanthos var. inermis,honeylocust,207,CENTRAL,PARK,NORTH,Central Harlem South,40.79991733,-73.95626256,996359.377,230711.4668
187478,111818,Ginkgo biloba,ginkgo,207,CENTRAL,PARK,NORTH,Central Harlem South,40.79967792,-73.95614858,996390.9767,230624.2606
187480,111818,Ginkgo biloba,ginkgo,207,CENTRAL,PARK,NORTH,Central Harlem South,40.79960989,-73.95598636,996435.9034,230599.4962
187477,111818,Ginkgo biloba,ginkgo,207,CENTRAL,PARK,NORTH,Central Harlem South,40.79973218,-73.95620695,996374.8074,230644.0214
187475,111818,Ginkgo biloba,ginkgo,207,CENTRAL,PARK,NORTH,Central Harlem South,40.79977328,-73.95637595,996328.0096,230658.9695
187479,111818,Ginkgo biloba,ginkgo,207,CENTRAL,PARK,NORTH,Central Harlem South,40.79966495,-73.95604662,996419.2086,230619.5464
187476,111818,Ginkgo biloba,ginkgo,207,CENTRAL,PARK,NORTH,Central Harlem South,40.79974211,-73.95630164,996348.59,230647.625
412368,109046,Ginkgo biloba,ginkgo,217,CENTRAL,PARK,NORTH,Central Harlem South,40.79997841,-73.95640797,996319.1077,230733.7016
412369,109046,Ginkgo biloba,ginkgo,217,CENTRAL,PARK,NORTH,Central Harlem South,40.80001267,-73.95648952,996296.5222,230746.1724
412367,109046,Ginkgo biloba,ginkgo,217,CENTRAL,PARK,NORTH,Central Harlem South,40.799948,-73.95633558,996339.1546,230722.6324
412370,109046,Ginkgo biloba,ginkgo,217,CENTRAL,PARK,NORTH,Central Harlem South,40.80004653,-73.95657013,996274.199,230758.4985
412371,109046,Ginkgo biloba,ginkgo,217,CENTRAL,PARK,NORTH,Central Harlem South,40.800078,-73.95664504,996253.4514,230769.9545
187473,111818,Ginkgo biloba,ginkgo,217,CENTRAL,PARK,NORTH,Central Harlem South,40.79993056,-73.95675099,996224.144,230716.2227
187474,111818,Ginkgo biloba,ginkgo,217,CENTRAL,PARK,NORTH,Central Harlem South,40.79992223,-73.9566601,996249.3106,230713.1981
412373,109046,Ginkgo biloba,ginkgo,225,CENTRAL,PARK,NORTH,Central Harlem South,40.80014134,-73.95679582,996211.6942,230793.0112
412372,109046,Ginkgo biloba,ginkgo,225,CENTRAL,PARK,NORTH,Central Harlem South,40.80010934,-73.95671964,996232.7916,230781.362
412374,109046,Ginkgo biloba,ginkgo,225,CENTRAL,PARK,NORTH,Central Harlem South,40.80017467,-73.95687517,996189.7212,230805.1438
412375,109046,Ginkgo biloba,ginkgo,225,CENTRAL,PARK,NORTH,Central Harlem South,40.80020203,-73.95694028,996171.6878,230815.1014
187471,111818,Ulmus parvifolia,Chinese elm,225,CENTRAL,PARK,NORTH,Central Harlem South,40.79999594,-73.9569069,996180.9689,230740.0218
187472,111818,Ulmus parvifolia,Chinese elm,225,CENTRAL,PARK,NORTH,Central Harlem South,40.79998588,-73.95681189,996207.2736,230736.3696
187470,111818,Ginkgo biloba,ginkgo,225,CENTRAL,PARK,NORTH,Central Harlem South,40.80004994,-73.95696463,996164.9745,230759.6858
412378,109046,Ginkgo biloba,ginkgo,229,CENTRAL,PARK,NORTH,Central Harlem South,40.80030149,-73.95717705,996106.1193,230851.3061
412377,109046,Ginkgo biloba,ginkgo,229,CENTRAL,PARK,NORTH,Central Harlem South,40.80027121,-73.95710497,996126.0786,230840.2851
412376,109046,Ginkgo biloba,ginkgo,229,CENTRAL,PARK,NORTH,Central Harlem South,40.80023602,-73.95702121,996149.2774,230827.4757
187468,111818,Ginkgo biloba,ginkgo,229,CENTRAL,PARK,NORTH,Central Harlem South,40.80011412,-73.95711769,996122.5875,230783.0503
187467,111818,Ginkgo biloba,ginkgo,229,CENTRAL,PARK,NORTH,Central Harlem South,40.80010814,-73.95717443,996106.8792,230780.8617
187469,111818,Ginkgo biloba,ginkgo,229,CENTRAL,PARK,NORTH,Central Harlem South,40.80005788,-73.95705457,996140.0707,230762.5658
187466,111818,Ginkgo biloba,ginkgo,229,CENTRAL,PARK,NORTH,Central Harlem South,40.80016081,-73.957229,996091.7608,230800.043
412379,109046,Ginkgo biloba,ginkgo,235,CENTRAL,PARK,NORTH,Central Harlem South,40.80033482,-73.95725639,996084.1463,230863.4386
187465,111818,Ginkgo biloba,ginkgo,235,CENTRAL,PARK,NORTH,Central Harlem South,40.80017378,-73.95733096,996063.5289,230804.7573
187464,111818,Ginkgo biloba,ginkgo,235,CENTRAL,PARK,NORTH,Central Harlem South,40.80022804,-73.95738933,996047.3593,230824.5181
355187,111996,Ginkgo biloba,ginkgo,241,CENTRAL,PARK,NORTH,Central Harlem South,40.80031591,-73.9579335,995896.6817,230856.4589
355186,111996,Ginkgo biloba,ginkgo,241,CENTRAL,PARK,NORTH,Central Harlem South,40.80029988,-73.95790491,995904.6017,230850.621
355184,111996,Ginkgo biloba,ginkgo,241,CENTRAL,PARK,NORTH,Central Harlem South,40.80035045,-73.95782123,995927.7588,230869.0573
355185,111996,Ginkgo biloba,ginkgo,241,CENTRAL,PARK,NORTH,Central Harlem South,40.80035104,-73.95787538,995912.7667,230869.2647
187463,111818,Ginkgo biloba,ginkgo,241,CENTRAL,PARK,NORTH,Central Harlem South,40.80023823,-73.95748465,996020.9669,230828.2185
187462,111818,Ginkgo biloba,ginkgo,241,CENTRAL,PARK,NORTH,Central Harlem South,40.80029513,-73.95762031,995983.3968,230848.9281
524773,111808,Ginkgo biloba,ginkgo,36,CENTRAL,PARK,SOUTH,Midtown-Midtown South,40.76533894,-73.97518836,991123.0505,218111.3348
524772,111808,Styphnolobium japonicum,Sophora,36,CENTRAL,PARK,SOUTH,Midtown-Midtown South,40.76528919,-73.97506943,991155.9996,218093.2204
524776,111808,Platanus x acerifolia,London planetree,50,CENTRAL,PARK,SOUTH,Midtown-Midtown South,40.76573751,-73.9760701,990878.7584,218256.4809
524775,111808,Platanus x acerifolia,London planetree,50,CENTRAL,PARK,SOUTH,Midtown-Midtown South,40.76570549,-73.97599356,990899.9647,218244.8221
524774,111808,Platanus x acerifolia,London planetree,50,CENTRAL,PARK,SOUTH,Midtown-Midtown South,40.76567268,-73.97591512,990921.6966,218232.8743
242388,111807,Platanus x acerifolia,London planetree,100,CENTRAL,PARK,SOUTH,Midtown-Midtown South,40.7659041,-73.97643615,990777.3455,218317.1487
242389,111807,Platanus x acerifolia,London planetree,100,CENTRAL,PARK,SOUTH,Midtown-Midtown South,40.76587139,-73.97635805,990798.9823,218305.235
524777,111808,Platanus x acerifolia,London planetree,100,CENTRAL,PARK,SOUTH,Midtown-Midtown South,40.76575068,-73.9761016,990870.0317,218261.2781
242387,111807,Platanus x acerifolia,London planetree,106,CENTRAL,PARK,SOUTH,Midtown-Midtown South,40.76593563,-73.9765114,990756.4971,218328.6284
242386,111807,Platanus x acerifolia,London planetree,106,CENTRAL,PARK,SOUTH,Midtown-Midtown South,40.76596649,-73.97658507,990736.0868,218339.8668
242385,111807,Ginkgo biloba,ginkgo,120,CENTRAL,PARK,SOUTH,Midtown-Midtown South,40.76617386,-73.97715115,990579.2587,218415.3762
242384,111807,Ginkgo biloba,ginkgo,128,CENTRAL,PARK,SOUTH,Midtown-Midtown South,40.76623214,-73.97729028,990540.7154,218436.5993
242383,111807,Quercus rubra,northern red oak,150,CENTRAL,PARK,SOUTH,Midtown-Midtown South,40.76640273,-73.97769753,990427.8889,218498.7248
242382,111807,Styphnolobium japonicum,Sophora,150,CENTRAL,PARK,SOUTH,Midtown-Midtown South,40.76645797,-73.97782938,990391.3604,218518.8386
21241,105164,Pyrus calleryana,Callery pear,200,CENTRAL,PARK,SOUTH,Midtown-Midtown South,40.76692958,-73.97948015,989934.048,218690.5518
21240,105164,Ulmus americana,American elm,210,CENTRAL,PARK,SOUTH,Midtown-Midtown South,40.76710155,-73.97989136,989820.128,218753.179
21239,105164,Ulmus americana,American elm,210,CENTRAL,PARK,SOUTH,Midtown-Midtown South,40.76715512,-73.98001947,989784.6372,218772.6901
380211,111806,Ginkgo biloba,ginkgo,220,CENTRAL,PARK,SOUTH,Lincoln Square,40.76743033,-73.9801339,989752.9165,218872.9508
21238,105164,Syringa reticulata,Japanese tree lilac,222,CENTRAL,PARK,SOUTH,Midtown-Midtown South,40.76734587,-73.9804756,989658.2733,218842.1582
21235,105164,Ginkgo biloba,ginkgo,230,CENTRAL,PARK,SOUTH,Midtown-Midtown South,40.76750368,-73.98085297,989553.7295,218899.6305
21236,105164,Ginkgo biloba,ginkgo,230,CENTRAL,PARK,SOUTH,Midtown-Midtown South,40.76745421,-73.98073466,989586.5034,218881.6131
21237,105164,Syringa reticulata,Japanese tree lilac,230,CENTRAL,PARK,SOUTH,Midtown-Midtown South,40.76739733,-73.98059865,989624.1848,218860.898
21234,105164,Ginkgo biloba,ginkgo,240,CENTRAL,PARK,SOUTH,Midtown-Midtown South,40.7676275,-73.98114904,989471.7071,218944.7219
380108,111805,Quercus palustris,pin oak,1,CENTRAL,PARK,WEST,Lincoln Square,40.76880766,-73.98120451,989456.2488,219374.6912
187061,106107,Gleditsia triacanthos var. inermis,honeylocust,25,CENTRAL,PARK,WEST,Lincoln Square,40.77005069,-73.98079175,989570.4834,219827.5922
187060,106107,Gleditsia triacanthos var. inermis,honeylocust,25,CENTRAL,PARK,WEST,Lincoln Square,40.77010513,-73.98092335,989534.0268,219847.4209
187062,106107,Gleditsia triacanthos var. inermis,honeylocust,25,CENTRAL,PARK,WEST,Lincoln Square,40.77001828,-73.98071342,989592.1816,219815.7904
380105,111805,Quercus palustris,pin oak,25,CENTRAL,PARK,WEST,Lincoln Square,40.77005742,-73.98029782,989707.2968,219830.0755
380103,111805,Quercus palustris,pin oak,25,CENTRAL,PARK,WEST,Lincoln Square,40.77028814,-73.98013042,989753.6442,219914.1462
380104,111805,Quercus palustris,pin oak,25,CENTRAL,PARK,WEST,Lincoln Square,40.77017278,-73.98021412,989730.4707,219872.1108
380106,111805,Quercus palustris,pin oak,25,CENTRAL,PARK,WEST,Lincoln Square,40.76993869,-73.98038395,989683.4475,219786.8138
380100,111805,Quercus palustris,pin oak,41,CENTRAL,PARK,WEST,Lincoln Square,40.77126728,-73.97942003,989950.3308,220270.922
380101,111805,Quercus palustris,pin oak,41,CENTRAL,PARK,WEST,Lincoln Square,40.77113894,-73.97951315,989924.55,220224.158
380099,111805,Quercus palustris,pin oak,41,CENTRAL,PARK,WEST,Lincoln Square,40.771386,-73.97933389,989974.1801,220314.1834
236449,106149,Quercus palustris,pin oak,50,CENTRAL,PARK,WEST,Lincoln Square,40.77185153,-73.97950039,989928.0224,220483.7809
380098,111805,Quercus palustris,pin oak,50,CENTRAL,PARK,WEST,Lincoln Square,40.77150857,-73.97924496,989998.8021,220358.8464
380097,111805,Quercus palustris,pin oak,50,CENTRAL,PARK,WEST,Lincoln Square,40.77162874,-73.97915777,990022.9415,220402.6334
53792,106148,Quercus palustris,pin oak,50,CENTRAL,PARK,WEST,Lincoln Square,40.77168615,-73.97939503,989957.2202,220423.5339
303921,111804,Quercus palustris,pin oak,51,CENTRAL,PARK,WEST,Lincoln Square,40.77185548,-73.9789917,990068.9204,220485.254
303922,111804,Quercus palustris,pin oak,51,CENTRAL,PARK,WEST,Lincoln Square,40.77198131,-73.97890006,990094.2908,220531.1026
293930,106131,Ginkgo biloba,ginkgo,55,CENTRAL,PARK,WEST,Lincoln Square,40.77248062,-73.97907532,990045.7039,220713.0051
303923,111804,Quercus palustris,pin oak,55,CENTRAL,PARK,WEST,Lincoln Square,40.77209657,-73.97881612,990117.5309,220573.1019
236220,106143,Pyrus calleryana,Callery pear,65,CENTRAL,PARK,WEST,Lincoln Square,40.77261669,-73.97871508,990145.4728,220762.6054
236221,106143,Pyrus calleryana,Callery pear,65,CENTRAL,PARK,WEST,Lincoln Square,40.77275687,-73.97861431,990173.3707,220813.6834
325239,111803,Quercus palustris,pin oak,65,CENTRAL,PARK,WEST,Lincoln Square,40.77270548,-73.97837445,990239.8118,220794.9778
325238,111803,Quercus palustris,pin oak,65,CENTRAL,PARK,WEST,Lincoln Square,40.77252762,-73.97850495,990203.6823,220730.1682
236412,106144,Gleditsia triacanthos var. inermis,honeylocust,70,CENTRAL,PARK,WEST,Lincoln Square,40.77308286,-73.9785483,990191.6249,220932.4575
236222,106143,Tilia cordata,littleleaf linden,70,CENTRAL,PARK,WEST,Lincoln Square,40.77289656,-73.97851389,990201.1725,220864.5859
236223,106143,Tilia cordata,littleleaf linden,70,CENTRAL,PARK,WEST,Lincoln Square,40.77294522,-73.97847891,990210.8555,220882.3139
325240,111803,Quercus palustris,pin oak,70,CENTRAL,PARK,WEST,Lincoln Square,40.77280903,-73.97829847,990260.8469,220832.7109
141038,111802,Quercus palustris,pin oak,75,CENTRAL,PARK,WEST,Lincoln Square,40.77331037,-73.97792677,990363.7519,221015.391
141037,111802,Quercus palustris,pin oak,75,CENTRAL,PARK,WEST,Lincoln Square,40.77319005,-73.97801434,990339.5101,220971.5466
141036,111802,Quercus palustris,pin oak,75,CENTRAL,PARK,WEST,Lincoln Square,40.77308269,-73.97809246,990317.8816,220932.4279
141041,111802,Quercus palustris,pin oak,80,CENTRAL,PARK,WEST,Lincoln Square,40.7737679,-73.97759383,990455.9279,221182.1062
141040,111802,Quercus palustris,pin oak,80,CENTRAL,PARK,WEST,Lincoln Square,40.77364877,-73.97768052,990431.9282,221138.6988
141042,111802,Quercus palustris,pin oak,80,CENTRAL,PARK,WEST,Lincoln Square,40.77388294,-73.97751011,990479.105,221224.0254
45989,106178,Quercus bicolor,swamp white oak,80,CENTRAL,PARK,WEST,Lincoln Square,40.77392122,-73.97776286,990409.0956,221237.9536
45963,106179,Styphnolobium japonicum,Sophora,88,CENTRAL,PARK,WEST,Lincoln Square,40.7743023,-73.97755919,990465.4718,221376.8083
45988,106178,Pyrus calleryana,Callery pear,88,CENTRAL,PARK,WEST,Lincoln Square,40.77406336,-73.97765857,990437.9683,221289.7501
45987,106178,Ginkgo biloba,ginkgo,88,CENTRAL,PARK,WEST,Lincoln Square,40.77413096,-73.97760897,990451.6985,221314.3819
141045,111802,Quercus palustris,pin oak,88,CENTRAL,PARK,WEST,Lincoln Square,40.77424391,-73.97724742,990551.8296,221355.5593
141043,111802,Quercus palustris,pin oak,88,CENTRAL,PARK,WEST,Lincoln Square,40.77400446,-73.97742167,990503.5885,221268.3075
141044,111802,Quercus palustris,pin oak,88,CENTRAL,PARK,WEST,Lincoln Square,40.77412719,-73.97733236,990528.3139,221313.0272
141046,111802,Quercus palustris,pin oak,91,CENTRAL,PARK,WEST,Lincoln Square,40.77436208,-73.97716142,990575.636,221398.6163
122003,106202,Quercus palustris,pin oak,91,CENTRAL,PARK,WEST,Lincoln Square,40.77450356,-73.9773337,990527.9057,221450.152
122002,106202,Quercus palustris,pin oak,91,CENTRAL,PARK,WEST,Lincoln Square,40.77459176,-73.97726894,990545.8348,221482.289
141049,111802,Quercus palustris,pin oak,99,CENTRAL,PARK,WEST,Lincoln Square,40.77471224,-73.97690659,990646.1834,221526.2119
141051,111802,Quercus palustris,pin oak,99,CENTRAL,PARK,WEST,Lincoln Square,40.77483881,-73.97681448,990671.683,221572.3322
141048,111802,Quercus palustris,pin oak,99,CENTRAL,PARK,WEST,Lincoln Square,40.77458832,-73.97699678,990621.2159,221481.0548
141050,111802,Quercus palustris,pin oak,99,CENTRAL,PARK,WEST,Lincoln Square,40.77472244,-73.97685997,990659.0938,221529.9294
141054,111802,Quercus palustris,pin oak,101,CENTRAL,PARK,WEST,Lincoln Square,40.77521035,-73.97654409,990746.5369,221707.7167
141052,111802,Quercus palustris,pin oak,102,CENTRAL,PARK,WEST,Lincoln Square,40.77496994,-73.97671905,990698.1019,221620.1149
141053,111802,Quercus palustris,pin oak,102,CENTRAL,PARK,WEST,Lincoln Square,40.77508595,-73.97663463,990721.4726,221662.3845
141055,111802,Quercus palustris,pin oak,109,CENTRAL,PARK,WEST,Lincoln Square,40.77532539,-73.97646037,990769.7137,221749.6359
141056,111802,Quercus palustris,pin oak,110,CENTRAL,PARK,WEST,Lincoln Square,40.77545028,-73.97636948,990794.8747,221795.1437
141058,111802,Quercus palustris,pin oak,115,CENTRAL,PARK,WEST,Lincoln Square,40.77579588,-73.97611796,990864.5028,221921.0765
141059,111802,Quercus palustris,pin oak,115,CENTRAL,PARK,WEST,Lincoln Square,40.77593086,-73.97601973,990891.696,221970.2595
141057,111802,Quercus palustris,pin oak,115,CENTRAL,PARK,WEST,Lincoln Square,40.77568661,-73.97619749,990842.4868,221881.2577
107709,111801,Quercus palustris,pin oak,135,CENTRAL,PARK,WEST,Upper West Side,40.77702485,-73.97521843,991113.5141,222368.8988
107708,111801,Quercus palustris,pin oak,135,CENTRAL,PARK,WEST,Upper West Side,40.77714193,-73.97513285,991137.206,222411.5618
107710,111801,Quercus palustris,pin oak,135,CENTRAL,PARK,WEST,Upper West Side,40.77689913,-73.97531033,991088.0746,222323.0885
107707,111801,Quercus palustris,pin oak,135,CENTRAL,PARK,WEST,Upper West Side,40.77727676,-73.97503428,991164.4908,222460.6942
107704,111801,Quercus palustris,pin oak,145,CENTRAL,PARK,WEST,Upper West Side,40.77766135,-73.97475314,991242.3151,222600.835
107705,111801,Quercus palustris,pin oak,145,CENTRAL,PARK,WEST,Upper West Side,40.7775078,-73.97486539,991211.2436,222544.8834
107702,111801,Quercus palustris,pin oak,146,CENTRAL,PARK,WEST,Upper West Side,40.77799531,-73.974509,991309.8953,222722.5293
107703,111801,Quercus palustris,pin oak,146,CENTRAL,PARK,WEST,Upper West Side,40.77787487,-73.97459705,991285.5236,222678.6423
107700,111801,Quercus palustris,pin oak,151,CENTRAL,PARK,WEST,Upper West Side,40.77824387,-73.9743273,991360.1921,222813.1007
107699,111801,Quercus palustris,pin oak,151,CENTRAL,PARK,WEST,Upper West Side,40.77835951,-73.97424276,991383.593,222855.2391
107701,111801,Quercus palustris,pin oak,151,CENTRAL,PARK,WEST,Upper West Side,40.77812631,-73.97441324,991336.4031,222770.2632
107697,111801,Quercus palustris,pin oak,160,CENTRAL,PARK,WEST,Upper West Side,40.77869923,-73.97399441,991452.3386,222979.0318
107698,111801,Quercus palustris,pin oak,160,CENTRAL,PARK,WEST,Upper West Side,40.77856632,-73.97409158,991425.4423,222930.5988
107693,111801,Quercus palustris,pin oak,170,CENTRAL,PARK,WEST,Upper West Side,40.77930766,-73.97354962,991575.4594,223200.7393
107695,111801,Quercus palustris,pin oak,170,CENTRAL,PARK,WEST,Upper West Side,40.77908885,-73.97370958,991531.1823,223121.0085
107694,111801,Quercus palustris,pin oak,170,CENTRAL,PARK,WEST,Upper West Side,40.77920929,-73.97362153,991555.5539,223164.8956
107696,111801,Quercus palustris,pin oak,170,CENTRAL,PARK,WEST,Upper West Side,40.7789617,-73.97380253,991505.4514,223074.6737
107676,111800,Quercus palustris,pin oak,180,CENTRAL,PARK,WEST,Upper West Side,40.78030631,-73.97282508,991776.0066,223564.6418
107674,111800,Quercus palustris,pin oak,180,CENTRAL,PARK,WEST,Upper West Side,40.7804797,-73.97269886,991810.9435,223627.8264
107675,111800,Quercus palustris,pin oak,180,CENTRAL,PARK,WEST,Upper West Side,40.78039901,-73.9727576,991794.685,223598.4216
107677,111800,Quercus palustris,pin oak,180,CENTRAL,PARK,WEST,Upper West Side,40.78017422,-73.97292123,991749.3931,223516.5097
107673,111800,Quercus palustris,pin oak,180,CENTRAL,PARK,WEST,Upper West Side,40.78080872,-73.97245936,991877.2357,223747.7192
107678,111800,Quercus palustris,pin oak,180,CENTRAL,PARK,WEST,Upper West Side,40.78002772,-73.97302787,991719.8758,223463.1266
221990,106405,Platanus x acerifolia,London planetree,200,CENTRAL,PARK,WEST,Upper West Side,40.78157047,-73.97218422,991953.3458,224025.2771
221989,106405,Platanus x acerifolia,London planetree,200,CENTRAL,PARK,WEST,Upper West Side,40.78147435,-73.97225401,991934.0299,223990.2506
221988,106405,Tilia cordata,littleleaf linden,200,CENTRAL,PARK,WEST,Upper West Side,40.78138063,-73.97232205,991915.1966,223956.0991
107670,111800,Quercus palustris,pin oak,200,CENTRAL,PARK,WEST,Upper West Side,40.78139086,-73.97203558,991994.5301,223959.8507
107672,111800,Quercus palustris,pin oak,200,CENTRAL,PARK,WEST,Upper West Side,40.78102582,-73.97230132,991920.9794,223826.8309
107671,111800,Quercus palustris,pin oak,200,CENTRAL,PARK,WEST,Upper West Side,40.78127078,-73.972123,991970.3356,223916.0942
239864,106410,Ulmus americana,American elm,211,CENTRAL,PARK,WEST,Upper West Side,40.78256077,-73.97146296,992152.974,224386.1399
239866,106410,Ulmus americana,American elm,211,CENTRAL,PARK,WEST,Upper West Side,40.78225874,-73.9716846,992091.63,224276.0814
239865,106410,Ulmus americana,American elm,211,CENTRAL,PARK,WEST,Upper West Side,40.78235223,-73.971616,992110.6175,224310.1469
119271,111799,Quercus palustris,pin oak,211,CENTRAL,PARK,WEST,Upper West Side,40.78208815,-73.97152674,992135.3668,224213.944
119270,111799,Quercus palustris,pin oak,211,CENTRAL,PARK,WEST,Upper West Side,40.78231137,-73.97136383,992180.4559,224295.2821
119269,111799,Quercus palustris,pin oak,211,CENTRAL,PARK,WEST,Upper West Side,40.78246977,-73.97124822,992212.4549,224353.0064
119266,111799,Quercus palustris,pin oak,221,CENTRAL,PARK,WEST,Upper West Side,40.78285787,-73.97096496,992290.8523,224494.4303
119267,111799,Quercus palustris,pin oak,221,CENTRAL,PARK,WEST,Upper West Side,40.78273691,-73.97105325,992266.4167,224450.3504
119264,111799,Quercus palustris,pin oak,225,CENTRAL,PARK,WEST,Upper West Side,40.78310029,-73.97078804,992339.8201,224582.7658
119263,111799,Ulmus americana,American elm,225,CENTRAL,PARK,WEST,Upper West Side,40.78309244,-73.97075454,992349.0986,224579.9092
119265,111799,Ulmus americana,American elm,225,CENTRAL,PARK,WEST,Upper West Side,40.78296859,-73.97084493,992324.081,224534.7793
207579,106427,Pyrus calleryana,Callery pear,227,CENTRAL,PARK,WEST,Upper West Side,40.78339728,-73.97104134,992269.6375,224690.9486
119262,111799,Quercus palustris,pin oak,227,CENTRAL,PARK,WEST,Upper West Side,40.78321213,-73.97070641,992362.4132,224623.5223
119260,111799,Quercus palustris,pin oak,230,CENTRAL,PARK,WEST,Upper West Side,40.78346751,-73.97052002,992413.9991,224716.5808
119261,111799,Quercus palustris,pin oak,230,CENTRAL,PARK,WEST,Upper West Side,40.7833211,-73.97062688,992384.4243,224663.2299
119259,111799,Quercus palustris,pin oak,234,CENTRAL,PARK,WEST,Upper West Side,40.78358799,-73.97043208,992438.3379,224760.4862
119258,111799,Quercus palustris,pin oak,234,CENTRAL,PARK,WEST,Upper West Side,40.7836792,-73.97036551,992456.7611,224793.7211
119257,111799,Quercus palustris,pin oak,235,CENTRAL,PARK,WEST,Upper West Side,40.78376944,-73.97029964,992474.9911,224826.6065
207535,106446,Ginkgo biloba,ginkgo,239,CENTRAL,PARK,WEST,Upper West Side,40.78402898,-73.97056979,992400.1471,224921.1401
207537,106446,Fraxinus pennsylvanica,green ash,239,CENTRAL,PARK,WEST,Upper West Side,40.78411082,-73.97076361,992346.4635,224950.9399
207536,106446,Fraxinus pennsylvanica,green ash,239,CENTRAL,PARK,WEST,Upper West Side,40.78406897,-73.97066449,992373.9171,224935.7004
207538,106446,Ginkgo biloba,ginkgo,239,CENTRAL,PARK,WEST,Upper West Side,40.78415134,-73.97085957,992319.8841,224965.6945
207533,106469,Gleditsia triacanthos var. inermis,honeylocust,239,CENTRAL,PARK,WEST,Upper West Side,40.7841664,-73.97063126,992383.1087,224971.2023
119254,111799,Quercus palustris,pin oak,241,CENTRAL,PARK,WEST,Upper West Side,40.78422402,-73.96996785,992566.818,224992.2571
207534,106469,Koelreuteria paniculata,golden raintree,242,CENTRAL,PARK,WEST,Upper West Side,40.78413247,-73.97055031,992405.5296,224958.847
119256,111799,Quercus palustris,pin oak,242,CENTRAL,PARK,WEST,Upper West Side,40.78393841,-73.97017632,992509.1229,224888.1786
119255,111799,Quercus palustris,pin oak,244,CENTRAL,PARK,WEST,Upper West Side,40.78410882,-73.97005194,992543.5461,224950.2759
119253,111799,Quercus palustris,pin oak,247,CENTRAL,PARK,WEST,Upper West Side,40.78434403,-73.96988026,992591.0594,225035.9873
119252,111799,Quercus palustris,pin oak,249,CENTRAL,PARK,WEST,Upper West Side,40.78445203,-73.96980143,992612.877,225075.3448
119251,111798,Quercus palustris,pin oak,251,CENTRAL,PARK,WEST,Upper West Side,40.78466207,-73.9696482,992655.285,225151.8834
119250,111798,Quercus palustris,pin oak,252,CENTRAL,PARK,WEST,Upper West Side,40.78478611,-73.96955826,992680.1754,225197.0834
119249,111798,Quercus palustris,pin oak,255,CENTRAL,PARK,WEST,Upper West Side,40.78492697,-73.96945612,992708.4421,225248.415
119248,111798,Quercus palustris,pin oak,257,CENTRAL,PARK,WEST,Upper West Side,40.78506014,-73.96935956,992735.1658,225296.9438
111316,111797,Quercus palustris,pin oak,262,CENTRAL,PARK,WEST,Upper West Side,40.78556653,-73.96899239,992836.7797,225481.4726
111318,111797,Quercus palustris,pin oak,262,CENTRAL,PARK,WEST,Upper West Side,40.78582573,-73.96880317,992889.1454,225575.9278
111315,111797,Quercus palustris,pin oak,262,CENTRAL,PARK,WEST,Upper West Side,40.78552765,-73.96902077,992828.9251,225467.304
111317,111797,Quercus palustris,pin oak,262,CENTRAL,PARK,WEST,Upper West Side,40.78570093,-73.96889428,992863.9326,225530.4496
111321,111797,Quercus palustris,pin oak,271,CENTRAL,PARK,WEST,Upper West Side,40.78617134,-73.96855088,992958.9665,225701.8682
111320,111797,Quercus palustris,pin oak,271,CENTRAL,PARK,WEST,Upper West Side,40.78606334,-73.96862972,992937.1473,225662.512
111319,111797,Quercus palustris,pin oak,271,CENTRAL,PARK,WEST,Upper West Side,40.78595533,-73.96870856,992915.3285,225623.1554
111322,111797,Quercus palustris,pin oak,275,CENTRAL,PARK,WEST,Upper West Side,40.78647614,-73.96832837,993020.5448,225812.9411
111324,111797,Quercus palustris,pin oak,279,CENTRAL,PARK,WEST,Upper West Side,40.78664733,-73.96816416,993065.9942,225875.3282
111323,111797,Quercus palustris,pin oak,279,CENTRAL,PARK,WEST,Upper West Side,40.78657118,-73.96825899,993039.7455,225847.5746
111325,111797,Quercus palustris,pin oak,279,CENTRAL,PARK,WEST,Upper West Side,40.7867291,-73.9681437,993071.65,225905.1224
111326,111797,Quercus palustris,pin oak,285,CENTRAL,PARK,WEST,Upper West Side,40.78685582,-73.96805119,993097.251,225951.3008
111327,111797,Quercus palustris,pin oak,285,CENTRAL,PARK,WEST,Upper West Side,40.78697583,-73.96796359,993121.4944,225995.03
111328,111797,Quercus palustris,pin oak,285,CENTRAL,PARK,WEST,Upper West Side,40.78709343,-73.96787773,993145.2529,226037.8849
111329,111797,Quercus palustris,pin oak,291,CENTRAL,PARK,WEST,Upper West Side,40.78721679,-73.96778767,993170.1751,226082.8386
111330,111797,Quercus palustris,pin oak,291,CENTRAL,PARK,WEST,Upper West Side,40.78733679,-73.96770007,993194.4185,226126.5681
158002,106570,Gleditsia triacanthos var. inermis,honeylocust,291,CENTRAL,PARK,WEST,Upper West Side,40.78733788,-73.96807171,993091.5036,226126.9277
111331,111797,Quercus palustris,pin oak,292,CENTRAL,PARK,WEST,Upper West Side,40.78745583,-73.96761316,993218.4679,226169.9473
111332,111797,Ulmus americana,American elm,293,CENTRAL,PARK,WEST,Upper West Side,40.78751326,-73.967532,993240.9348,226190.8794
111333,111797,Ulmus americana,American elm,295,CENTRAL,PARK,WEST,Upper West Side,40.78756222,-73.96749626,993250.8258,226208.7209
111566,111789,Quercus palustris,pin oak,300,CENTRAL,PARK,WEST,Upper West Side,40.78807162,-73.9671646,993342.5999,226394.3468
111568,111789,Quercus palustris,pin oak,300,CENTRAL,PARK,WEST,Upper West Side,40.78831249,-73.96698847,993391.34,226482.1222
111567,111789,Quercus palustris,pin oak,300,CENTRAL,PARK,WEST,Upper West Side,40.78819253,-73.96707618,993367.0674,226438.4094
111570,111789,Quercus palustris,pin oak,315,CENTRAL,PARK,WEST,Upper West Side,40.78857207,-73.96679865,993443.8668,226576.7172
111569,111789,Quercus palustris,pin oak,315,CENTRAL,PARK,WEST,Upper West Side,40.78840346,-73.96688269,993420.6175,226515.2783
111571,111789,Quercus palustris,pin oak,315,CENTRAL,PARK,WEST,Upper West Side,40.78867715,-73.96672181,993465.1302,226615.0094
167622,106606,Gleditsia triacanthos var. inermis,honeylocust,315,CENTRAL,PARK,WEST,Upper West Side,40.78861638,-73.96722531,993325.7141,226592.8172
167639,106588,Styphnolobium japonicum,Sophora,315,CENTRAL,PARK,WEST,Upper West Side,40.78850364,-73.96721723,993327.9658,226551.7431
111572,111789,Quercus palustris,pin oak,320,CENTRAL,PARK,WEST,Upper West Side,40.78879471,-73.96663585,993488.9175,226657.8482
111573,111789,Quercus palustris,pin oak,320,CENTRAL,PARK,WEST,Upper West Side,40.78892234,-73.96654252,993514.7443,226704.3586
111574,111789,Ulmus americana,American elm,320,CENTRAL,PARK,WEST,Upper West Side,40.78899748,-73.96644832,993540.8174,226731.7447
164176,106608,Gleditsia triacanthos var. inermis,honeylocust,322,CENTRAL,PARK,WEST,Upper West Side,40.7891607,-73.96682775,993435.7274,226791.1715
164124,106622,Styphnolobium japonicum,Sophora,322,CENTRAL,PARK,WEST,Upper West Side,40.78924824,-73.96678048,993448.8051,226823.0717
111575,111789,Quercus palustris,pin oak,325,CENTRAL,PARK,WEST,Upper West Side,40.7891872,-73.96634884,993568.339,226800.8768
111580,111789,Quercus palustris,pin oak,325,CENTRAL,PARK,WEST,Upper West Side,40.78960109,-73.96600693,993662.9592,226951.7085
111577,111789,Quercus palustris,pin oak,325,CENTRAL,PARK,WEST,Upper West Side,40.78942807,-73.9661727,993617.079,226888.6526
111579,111789,Quercus palustris,pin oak,325,CENTRAL,PARK,WEST,Upper West Side,40.78956098,-73.96607551,993643.9733,226937.0865
111576,111789,Quercus palustris,pin oak,325,CENTRAL,PARK,WEST,Upper West Side,40.78930955,-73.96625937,993593.0974,226845.464
111578,111789,Ulmus americana,American elm,325,CENTRAL,PARK,WEST,Upper West Side,40.7894821,-73.96609394,993638.8802,226908.3451
164420,106624,Gleditsia triacanthos var. inermis,honeylocust,327,CENTRAL,PARK,WEST,Upper West Side,40.78978785,-73.96637247,993561.7104,227019.711
161178,106674,Ginkgo biloba,ginkgo,327,CENTRAL,PARK,WEST,Upper West Side,40.78986202,-73.96630023,993581.7034,227046.7425
111585,111789,Ulmus americana,American elm,333,CENTRAL,PARK,WEST,Upper West Side,40.78996527,-73.96574061,993736.6519,227084.4209
111582,111789,Quercus palustris,pin oak,333,CENTRAL,PARK,WEST,Upper West Side,40.78981384,-73.9658906,993695.1409,227029.2333
111584,111789,Quercus palustris,pin oak,333,CENTRAL,PARK,WEST,Upper West Side,40.78993715,-73.96580042,993720.0939,227074.1702
111583,111789,Quercus palustris,pin oak,333,CENTRAL,PARK,WEST,Upper West Side,40.7898458,-73.96582798,993712.4761,227040.8829
111581,111789,Ulmus americana,American elm,333,CENTRAL,PARK,WEST,Upper West Side,40.78972296,-73.9659178,993687.6205,226996.1205
157321,106672,Acer,maple,336,CENTRAL,PARK,WEST,Upper West Side,40.79041031,-73.9659055,993690.9306,227246.5469
111587,111789,Quercus palustris,pin oak,336,CENTRAL,PARK,WEST,Upper West Side,40.79017946,-73.96562323,993769.125,227162.4703
111586,111789,Ulmus americana,American elm,336,CENTRAL,PARK,WEST,Upper West Side,40.79008667,-73.96565184,993761.2162,227128.6583
111588,111789,Quercus palustris,pin oak,341,CENTRAL,PARK,WEST,Upper West Side,40.79039951,-73.96542307,993824.5202,227242.6617
111590,111789,Ulmus americana,American elm,341,CENTRAL,PARK,WEST,Upper West Side,40.79052762,-73.96532938,993850.4437,227289.347
111589,111789,Quercus palustris,pin oak,341,CENTRAL,PARK,WEST,Upper West Side,40.79050075,-73.96534903,993845.0064,227279.5553
111591,111789,Quercus palustris,pin oak,342,CENTRAL,PARK,WEST,Upper West Side,40.79063529,-73.96528989,993861.3623,227328.5798
111592,111789,Quercus palustris,pin oak,350,CENTRAL,PARK,WEST,Upper West Side,40.79075524,-73.96520217,993885.6356,227372.2924
111594,111789,Quercus palustris,pin oak,350,CENTRAL,PARK,WEST,Upper West Side,40.79087376,-73.9651155,993909.6175,227415.4809
111593,111789,Ulmus americana,American elm,350,CENTRAL,PARK,WEST,Upper West Side,40.79078403,-73.96518112,993891.461,227382.7835
111595,111789,Quercus palustris,pin oak,353,CENTRAL,PARK,WEST,Upper West Side,40.79101674,-73.96501094,993938.5505,227467.5865
111596,111789,Quercus palustris,pin oak,354,CENTRAL,PARK,WEST,Upper West Side,40.79115013,-73.96491339,993965.5422,227516.1956
111597,111789,Quercus palustris,pin oak,355,CENTRAL,PARK,WEST,Upper West Side,40.79126049,-73.96483269,993987.8732,227556.4114
111598,111789,Ulmus americana,American elm,355,CENTRAL,PARK,WEST,Upper West Side,40.79125885,-73.96479463,993998.4119,227555.8209
111599,111789,Quercus palustris,pin oak,360,CENTRAL,PARK,WEST,Upper West Side,40.79136844,-73.96475374,994009.719,227595.7529
111600,111789,Quercus palustris,pin oak,360,CENTRAL,PARK,WEST,Upper West Side,40.79137497,-73.96470971,994021.9083,227598.1351
111601,111789,Quercus palustris,pin oak,360,CENTRAL,PARK,WEST,Upper West Side,40.79147976,-73.96467233,994032.2445,227636.3187
111603,111789,Ulmus americana,American elm,360,CENTRAL,PARK,WEST,Upper West Side,40.79156515,-73.96457063,994060.3924,227667.4407
111347,111788,Ulmus americana,American elm,361,CENTRAL,PARK,WEST,Upper West Side,40.79167443,-73.96449035,994082.6066,227707.2635
111348,111788,Ulmus americana,American elm,361,CENTRAL,PARK,WEST,Upper West Side,40.79177394,-73.96441668,994102.9911,227743.5272
111349,111788,Quercus palustris,pin oak,361,CENTRAL,PARK,WEST,Upper West Side,40.7918561,-73.96439522,994108.9196,227773.4622
111350,111788,Quercus palustris,pin oak,370,CENTRAL,PARK,WEST,Upper West Side,40.79196661,-73.96431341,994131.558,227813.7354
111351,111788,Quercus palustris,pin oak,370,CENTRAL,PARK,WEST,Upper West Side,40.79207521,-73.96423301,994153.8043,227853.3117
111352,111788,Ulmus americana,American elm,370,CENTRAL,PARK,WEST,Upper West Side,40.7921385,-73.96414679,994177.6675,227876.3776
2564,111787,Quercus palustris,pin oak,372,CENTRAL,PARK,WEST,Upper West Side,40.79303244,-73.9635406,994345.3837,228202.1404
2565,111787,Quercus palustris,pin oak,372,CENTRAL,PARK,WEST,Upper West Side,40.79289999,-73.9636374,994318.6016,228153.8728
106085,107081,Zelkova serrata,Japanese zelkova,372,CENTRAL,PARK,WEST,Upper West Side,40.7926776,-73.96458193,994057.0998,228072.744
106082,107081,Gleditsia triacanthos var. inermis,honeylocust,372,CENTRAL,PARK,WEST,Upper West Side,40.7928515,-73.96499354,993943.1004,228136.0549
106084,107081,Zelkova serrata,Japanese zelkova,372,CENTRAL,PARK,WEST,Upper West Side,40.79273788,-73.9647246,994017.5845,228094.6892
106083,107081,Tilia americana,American linden,372,CENTRAL,PARK,WEST,Upper West Side,40.79279602,-73.96486223,993979.4681,228115.8575
106095,107075,Quercus palustris,pin oak,392,CENTRAL,PARK,WEST,Upper West Side,40.79482686,-73.96465175,994037.4506,228855.7838
106094,107075,Acer rubrum,red maple,392,CENTRAL,PARK,WEST,Upper West Side,40.79476532,-73.96453915,994068.6359,228833.3777
106093,107075,Quercus palustris,pin oak,392,CENTRAL,PARK,WEST,Upper West Side,40.79469902,-73.96439599,994108.287,228809.2353
106096,107075,Platanus x acerifolia,London planetree,392,CENTRAL,PARK,WEST,Upper West Side,40.79488871,-73.96476493,994006.1025,228878.3064
106097,107075,Acer rubrum,red maple,392,CENTRAL,PARK,WEST,Upper West Side,40.79495345,-73.96488339,993973.2929,228901.8795
2556,111787,Quercus palustris,pin oak,400,CENTRAL,PARK,WEST,Upper West Side,40.79380128,-73.96293947,994511.7147,228482.3272
2559,111787,Quercus palustris,pin oak,400,CENTRAL,PARK,WEST,Upper West Side,40.79365462,-73.96308591,994471.1915,228428.8752
2561,111787,Quercus palustris,pin oak,400,CENTRAL,PARK,WEST,Upper West Side,40.79339836,-73.96327319,994419.3737,228335.4883
2552,111787,Quercus palustris,pin oak,400,CENTRAL,PARK,WEST,Upper West Side,40.7940086,-73.96278796,994553.6346,228557.8763
2557,111787,Quercus palustris,pin oak,400,CENTRAL,PARK,WEST,Upper West Side,40.79375971,-73.9630091,994492.4424,228467.1747
2560,111787,Quercus palustris,pin oak,400,CENTRAL,PARK,WEST,Upper West Side,40.793538,-73.96317113,994447.6115,228386.3789
2551,111787,Quercus palustris,pin oak,400,CENTRAL,PARK,WEST,Upper West Side,40.79408196,-73.96277359,994557.6024,228584.6082
2562,111787,Quercus palustris,pin oak,400,CENTRAL,PARK,WEST,Upper West Side,40.79328054,-73.96335929,994395.5512,228292.5543
2558,111787,Quercus palustris,pin oak,400,CENTRAL,PARK,WEST,Upper West Side,40.79369043,-73.96302049,994489.2991,228441.9293
2563,111787,Quercus palustris,pin oak,400,CENTRAL,PARK,WEST,Upper West Side,40.79315625,-73.96345012,994370.4191,228247.2601
2553,111787,Quercus palustris,pin oak,400,CENTRAL,PARK,WEST,Upper West Side,40.79396967,-73.96285566,994534.8961,228543.686
2555,111787,Quercus palustris,pin oak,400,CENTRAL,PARK,WEST,Upper West Side,40.79386433,-73.96293264,994513.5966,228505.2989
2554,111787,Quercus palustris,pin oak,400,CENTRAL,PARK,WEST,Upper West Side,40.79390806,-73.96286144,994533.3052,228521.2385
106087,107075,Tilia cordata,littleleaf linden,400,CENTRAL,PARK,WEST,Upper West Side,40.79422003,-73.96325137,994425.2907,228634.8568
244789,111786,Quercus palustris,pin oak,405,CENTRAL,PARK,WEST,Upper West Side,40.79431537,-73.96260444,994604.4019,228669.6674
244790,111786,Quercus palustris,pin oak,407,CENTRAL,PARK,WEST,Upper West Side,40.79444763,-73.96250832,994630.9953,228717.8661
244791,111786,Quercus palustris,pin oak,409,CENTRAL,PARK,WEST,Upper West Side,40.79457565,-73.96241786,994656.0228,228764.5186
244794,111786,Quercus palustris,pin oak,410,CENTRAL,PARK,WEST,Upper West Side,40.79470373,-73.96232261,994682.3768,228811.192
244793,111786,Quercus palustris,pin oak,410,CENTRAL,PARK,WEST,Upper West Side,40.79466079,-73.96231513,994684.4539,228795.5493
244792,111786,Quercus palustris,pin oak,410,CENTRAL,PARK,WEST,Upper West Side,40.79460822,-73.96235423,994673.6369,228776.3926
244795,111786,Quercus palustris,pin oak,415,CENTRAL,PARK,WEST,Upper West Side,40.79483042,-73.96222851,994708.4112,228857.3609
244796,111786,Quercus palustris,pin oak,415,CENTRAL,PARK,WEST,Upper West Side,40.79495141,-73.96213879,994733.2359,228901.4524
244798,111786,Quercus palustris,pin oak,418,CENTRAL,PARK,WEST,Upper West Side,40.79520775,-73.96195013,994785.4317,228994.8682
244797,111786,Quercus palustris,pin oak,418,CENTRAL,PARK,WEST,Upper West Side,40.79507837,-73.96204528,994759.1079,228947.719
244802,111786,Quercus palustris,pin oak,420,CENTRAL,PARK,WEST,Upper West Side,40.79583485,-73.96149437,994911.5256,229223.3976
244801,111786,Quercus palustris,pin oak,420,CENTRAL,PARK,WEST,Upper West Side,40.79558284,-73.96167817,994860.675,229131.5621
244803,111786,Quercus palustris,pin oak,425,CENTRAL,PARK,WEST,Upper West Side,40.79596705,-73.96139848,994938.0541,229271.5766
244804,111786,Quercus palustris,pin oak,435,CENTRAL,PARK,WEST,Upper West Side,40.79610212,-73.96130181,994964.7984,229320.7986
244805,111786,Quercus palustris,pin oak,435,CENTRAL,PARK,WEST,Upper West Side,40.79622269,-73.9612156,994988.6478,229364.7352
244806,111786,Quercus palustris,pin oak,435,CENTRAL,PARK,WEST,Upper West Side,40.79635013,-73.96112343,995014.1481,229411.1771
244809,111786,Ulmus americana,American elm,444,CENTRAL,PARK,WEST,Upper West Side,40.79660696,-73.96089511,995077.3228,229504.7786
244811,111786,Quercus palustris,pin oak,444,CENTRAL,PARK,WEST,Upper West Side,40.79685233,-73.96075413,995116.3175,229594.1951
244810,111786,Quercus palustris,pin oak,444,CENTRAL,PARK,WEST,Upper West Side,40.79673206,-73.96084132,995092.1965,229550.3641
127101,106822,Tilia cordata,littleleaf linden,444,CENTRAL,PARK,WEST,Upper West Side,40.79688067,-73.96119262,994994.906,229604.4644
244812,111786,Quercus palustris,pin oak,446,CENTRAL,PARK,WEST,Upper West Side,40.79697973,-73.96066173,995141.8791,229640.6198
244813,111786,Quercus palustris,pin oak,447,CENTRAL,PARK,WEST,Upper West Side,40.79710705,-73.96056916,995167.4893,229687.0213
244814,111786,Quercus palustris,pin oak,448,CENTRAL,PARK,WEST,Upper West Side,40.79721976,-73.9604867,995190.3016,229728.0928
244818,111786,Quercus palustris,pin oak,451,CENTRAL,PARK,WEST,Upper West Side,40.79760862,-73.96020132,995269.2529,229869.8044
244820,111786,Quercus palustris,pin oak,451,CENTRAL,PARK,WEST,Upper West Side,40.79782774,-73.96004149,995313.4693,229949.6579
244817,111786,Ulmus americana,American elm,451,CENTRAL,PARK,WEST,Upper West Side,40.79757199,-73.96018869,995272.7578,229856.4626
244816,111786,Quercus palustris,pin oak,451,CENTRAL,PARK,WEST,Upper West Side,40.79748359,-73.96029191,995244.1913,229824.2418
244819,111786,Quercus palustris,pin oak,451,CENTRAL,PARK,WEST,Upper West Side,40.79773354,-73.96011059,995294.3526,229915.3299
140319,106879,Platanus x acerifolia,London planetree,461,CENTRAL,PARK,WEST,Morningside Heights,40.79826823,-73.9603409,995230.4977,230110.1081
140318,106879,Platanus x acerifolia,London planetree,461,CENTRAL,PARK,WEST,Morningside Heights,40.79822247,-73.96023223,995260.5935,230093.4464
311729,111997,Quercus palustris,pin oak,462,CENTRAL,PARK,WEST,Morningside Heights,40.79820387,-73.95976732,995389.3186,230086.7318
311730,111997,Quercus palustris,pin oak,463,CENTRAL,PARK,WEST,Morningside Heights,40.79830044,-73.95969857,995408.3353,230121.922
311731,111997,Quercus palustris,pin oak,465,CENTRAL,PARK,WEST,Morningside Heights,40.79835321,-73.95962199,995429.5298,230141.1589
311732,111997,Quercus palustris,pin oak,465,CENTRAL,PARK,WEST,Morningside Heights,40.7984308,-73.95960577,995434.0085,230169.4288
311733,111997,Quercus palustris,pin oak,467,CENTRAL,PARK,WEST,Morningside Heights,40.79848093,-73.95952989,995455.0087,230187.7047
311735,111997,Quercus palustris,pin oak,467,CENTRAL,PARK,WEST,Morningside Heights,40.79860929,-73.95943236,995481.9903,230234.4805
311734,111997,Quercus palustris,pin oak,467,CENTRAL,PARK,WEST,Morningside Heights,40.79856053,-73.95950903,995460.7699,230216.7063
140669,106877,Pyrus calleryana,Callery pear,467,CENTRAL,PARK,WEST,Morningside Heights,40.79875191,-73.95977047,995388.353,230286.4004
140668,106877,Gymnocladus dioicus,Kentucky coffeetree,467,CENTRAL,PARK,WEST,Morningside Heights,40.79878204,-73.959841,995368.8209,230297.3666
311737,111997,Quercus palustris,pin oak,471,CENTRAL,PARK,WEST,Morningside Heights,40.79881463,-73.95932223,995512.4473,230309.3094
311736,111997,Quercus palustris,pin oak,471,CENTRAL,PARK,WEST,Morningside Heights,40.79869439,-73.95940929,995488.3647,230265.4913
158696,106911,Gymnocladus dioicus,Kentucky coffeetree,471,CENTRAL,PARK,WEST,Morningside Heights,40.79886679,-73.95977059,995388.3019,230328.2536
311738,111997,Quercus palustris,pin oak,473,CENTRAL,PARK,WEST,Morningside Heights,40.798942,-73.95922982,995538.0102,230355.727
311739,111997,Quercus palustris,pin oak,475,CENTRAL,PARK,WEST,Morningside Heights,40.79906681,-73.95913869,995563.2198,230401.2082
311740,111997,Quercus palustris,pin oak,476,CENTRAL,PARK,WEST,Morningside Heights,40.79912375,-73.95905788,995585.5862,230421.967
311742,111997,Quercus palustris,pin oak,477,CENTRAL,PARK,WEST,Morningside Heights,40.79932098,-73.95895248,995614.7338,230493.8373
311741,111997,Quercus palustris,pin oak,477,CENTRAL,PARK,WEST,Morningside Heights,40.799194,-73.95904582,995588.9133,230447.5631
158858,106909,Quercus rubra,northern red oak,477,CENTRAL,PARK,WEST,Morningside Heights,40.79939135,-73.9593294,995510.364,230519.4265
140629,106920,Gleditsia triacanthos var. inermis,honeylocust,478,CENTRAL,PARK,WEST,Morningside Heights,40.79950124,-73.95930915,995515.9535,230559.4661
311743,111997,Quercus palustris,pin oak,480,CENTRAL,PARK,WEST,Morningside Heights,40.79944792,-73.95885897,995640.6002,230540.0964
311744,111997,Quercus palustris,pin oak,482,CENTRAL,PARK,WEST,Morningside Heights,40.79969972,-73.95867728,995690.8626,230631.8616
311745,111997,Quercus palustris,pin oak,482,CENTRAL,PARK,WEST,Morningside Heights,40.79982658,-73.95858387,995716.7034,230678.0935
311746,111997,Quercus palustris,pin oak,485,CENTRAL,PARK,WEST,Morningside Heights,40.79995574,-73.95848819,995743.1702,230725.1626
182905,107067,Ginkgo biloba,ginkgo,486,CENTRAL,PARK,WEST,Morningside Heights,40.80057224,-73.95859195,995714.3376,230949.7612
182907,107067,Ginkgo biloba,ginkgo,486,CENTRAL,PARK,WEST,Morningside Heights,40.8005257,-73.95858745,995715.5922,230932.8075
182908,107067,Ginkgo biloba,ginkgo,486,CENTRAL,PARK,WEST,Morningside Heights,40.80050187,-73.95861638,995707.585,230924.1196
182910,107067,Ginkgo biloba,ginkgo,486,CENTRAL,PARK,WEST,Morningside Heights,40.80036662,-73.95853729,995729.5046,230874.8546
182906,107067,Ginkgo biloba,ginkgo,486,CENTRAL,PARK,WEST,Morningside Heights,40.8005539,-73.95862458,995705.3065,230943.0765
182909,107067,Ginkgo biloba,ginkgo,486,CENTRAL,PARK,WEST,Morningside Heights,40.80043047,-73.958583,995716.8393,230898.1111
351676,111995,Ginkgo biloba,ginkgo,486,CENTRAL,PARK,WEST,Morningside Heights,40.8002645,-73.95818652,995826.6389,230837.6932
351675,111995,Ginkgo biloba,ginkgo,486,CENTRAL,PARK,WEST,Morningside Heights,40.80023719,-73.95821337,995819.2088,230827.7412
351677,111995,Ginkgo biloba,ginkgo,486,CENTRAL,PARK,WEST,Morningside Heights,40.80024134,-73.95811962,995845.1645,230829.2638
351678,111995,Ginkgo biloba,ginkgo,486,CENTRAL,PARK,WEST,Morningside Heights,40.80026864,-73.95809277,995852.5939,230839.2165
508334,106945,Ginkgo biloba,ginkgo,486,CENTRAL,PARK,WEST,Morningside Heights,40.80014453,-73.95890008,995629.0996,230793.8908
140261,106947,Ginkgo biloba,ginkgo,486,CENTRAL,PARK,WEST,Morningside Heights,40.80070725,-73.95892184,995622.9809,230998.9062
455473,111810,Platanus x acerifolia,London planetree,781,5,AVENUE,,Upper East Side-Carnegie Hill,40.76461575,-73.97287539,991763.8436,217848.0424
455474,111810,Platanus x acerifolia,London planetree,784,5,AVENUE,,Upper East Side-Carnegie Hill,40.76467038,-73.97283452,991775.1598,217867.9508
455475,111810,Platanus x acerifolia,London planetree,784,5,AVENUE,,Upper East Side-Carnegie Hill,40.76472072,-73.97279686,991785.587,217886.2943
455476,111810,Platanus x acerifolia,London planetree,786,5,AVENUE,,Upper East Side-Carnegie Hill,40.76476843,-73.97276116,991795.4705,217903.682
389259,111762,Ulmus americana,American elm,790,5,AVENUE,,Upper East Side-Carnegie Hill,40.76520268,-73.97245881,991879.1763,218061.9173
389258,111762,Ulmus americana,American elm,790,5,AVENUE,,Upper East Side-Carnegie Hill,40.76516125,-73.97244967,991881.7124,218046.8235
389260,111762,Ulmus americana,American elm,790,5,AVENUE,,Upper East Side-Carnegie Hill,40.7652276,-73.9724016,991895.0211,218071.0029
356,107255,Malus,crab apple,790,5,AVENUE,,Upper East Side-Carnegie Hill,40.76496243,-73.97238566,991899.4647,217974.3932
357,107255,Pyrus calleryana,Callery pear,790,5,AVENUE,,Upper East Side-Carnegie Hill,40.76508192,-73.97230137,991922.8003,218017.9341
389261,111762,Ulmus americana,American elm,795,5,AVENUE,,Upper East Side-Carnegie Hill,40.76535318,-73.97234977,991909.3623,218116.7584
358,107255,Pyrus calleryana,Callery pear,795,5,AVENUE,,Upper East Side-Carnegie Hill,40.76523769,-73.97219149,991953.2218,218074.6958
389262,111762,Ulmus americana,American elm,796,5,AVENUE,,Upper East Side-Carnegie Hill,40.76537666,-73.97229361,991924.9177,218125.3184
359,107255,Pyrus calleryana,Callery pear,796,5,AVENUE,,Upper East Side-Carnegie Hill,40.76532089,-73.97213279,991969.4718,218105.0159
389263,111762,Ulmus americana,American elm,797,5,AVENUE,,Upper East Side-Carnegie Hill,40.7654253,-73.97229752,991923.8281,218143.0401
389264,111762,Ulmus americana,American elm,798,5,AVENUE,,Upper East Side-Carnegie Hill,40.76549502,-73.97224701,991937.812,218168.4459
389265,111762,Ulmus americana,American elm,798,5,AVENUE,,Upper East Side-Carnegie Hill,40.76559159,-73.97213789,991968.0265,218203.6378
389269,111762,Ulmus americana,American elm,800,5,AVENUE,,Upper East Side-Carnegie Hill,40.76572959,-73.97203792,991995.705,218253.9241
389271,111762,Ulmus americana,American elm,800,5,AVENUE,,Upper East Side-Carnegie Hill,40.76580507,-73.97198323,992010.8463,218281.4323
389266,111762,Ulmus americana,American elm,800,5,AVENUE,,Upper East Side-Carnegie Hill,40.76564119,-73.97214111,991967.1302,218221.7103
389270,111762,Ulmus americana,American elm,800,5,AVENUE,,Upper East Side-Carnegie Hill,40.76578304,-73.97203835,991995.58,218273.3978
389268,111762,Ulmus americana,American elm,800,5,AVENUE,,Upper East Side-Carnegie Hill,40.76571572,-73.97208712,991982.0784,218248.868
389267,111762,Ulmus americana,American elm,800,5,AVENUE,,Upper East Side-Carnegie Hill,40.76566708,-73.9720832,991983.1679,218231.1463
389272,111762,Ulmus americana,American elm,800,5,AVENUE,,Upper East Side-Carnegie Hill,40.76585612,-73.9719854,992010.2391,218300.0303
169185,107287,Tilia cordata,littleleaf linden,800,5,AVENUE,,Upper East Side-Carnegie Hill,40.76575152,-73.97181492,992057.4739,218261.9356
169183,107287,Tilia americana,American linden,800,5,AVENUE,,Upper East Side-Carnegie Hill,40.76557417,-73.97194289,992022.0455,218197.3097
389276,111762,Ulmus americana,American elm,805,5,AVENUE,,Upper East Side-Carnegie Hill,40.76606865,-73.97183142,992052.8656,218377.4737
389275,111762,Ulmus americana,American elm,805,5,AVENUE,,Upper East Side-Carnegie Hill,40.76601904,-73.97182821,992053.7623,218359.4013
389274,111762,Ulmus americana,American elm,805,5,AVENUE,,Upper East Side-Carnegie Hill,40.76599797,-73.97188263,992038.6891,218351.7175
389273,111762,Ulmus americana,American elm,805,5,AVENUE,,Upper East Side-Carnegie Hill,40.76592584,-73.97193489,992024.2226,218325.4358
389278,111762,Ulmus americana,American elm,805,5,AVENUE,,Upper East Side-Carnegie Hill,40.76613885,-73.97178056,992066.946,218403.0547
389277,111762,Ulmus americana,American elm,805,5,AVENUE,,Upper East Side-Carnegie Hill,40.7660902,-73.97177665,992068.0355,218385.333
169188,107287,Fraxinus pennsylvanica,green ash,805,5,AVENUE,,Upper East Side-Carnegie Hill,40.76598759,-73.97164458,992104.6319,218347.9574
169186,107287,Tilia cordata,littleleaf linden,805,5,AVENUE,,Upper East Side-Carnegie Hill,40.7658432,-73.97174876,992075.7891,218295.3446
169187,107287,Styphnolobium japonicum,Sophora,805,5,AVENUE,,Upper East Side-Carnegie Hill,40.76592598,-73.97168903,992092.3255,218325.5093
42728,107336,Pyrus calleryana,Callery pear,810,5,AVENUE,,Upper East Side-Carnegie Hill,40.766,-73.97119807,992228.3157,218352.5217
42729,107336,Pyrus calleryana,Callery pear,810,5,AVENUE,,Upper East Side-Carnegie Hill,40.76606904,-73.97136196,992182.91,218377.6594
389279,111762,Ulmus americana,American elm,811,5,AVENUE,,Upper East Side-Carnegie Hill,40.76621338,-73.97172657,992081.8944,218430.2128
389283,111762,Ulmus americana,American elm,811,5,AVENUE,,Upper East Side-Carnegie Hill,40.76637966,-73.97156694,992126.0928,218490.8104
389281,111762,Ulmus americana,American elm,811,5,AVENUE,,Upper East Side-Carnegie Hill,40.76631235,-73.97161571,992112.5909,218466.2806
389280,111762,Ulmus americana,American elm,811,5,AVENUE,,Upper East Side-Carnegie Hill,40.76627925,-73.97167884,992095.1067,218454.2167
389282,111762,Ulmus americana,American elm,811,5,AVENUE,,Upper East Side-Carnegie Hill,40.76635522,-73.9716238,992110.3442,218481.9
42791,107337,Ulmus americana,American elm,811,5,AVENUE,,Upper East Side-Carnegie Hill,40.76623661,-73.97147004,992152.9514,218438.7
389284,111762,Ulmus americana,American elm,812,5,AVENUE,,Upper East Side-Carnegie Hill,40.7664259,-73.97157259,992124.521,218507.6559
389285,111762,Ulmus americana,American elm,812,5,AVENUE,,Upper East Side-Carnegie Hill,40.76649802,-73.97152034,992138.9872,218533.938
389287,111762,Ulmus americana,American elm,815,5,AVENUE,,Upper East Side-Carnegie Hill,40.76659988,-73.97140739,992170.2624,218571.0577
389286,111762,Ulmus americana,American elm,815,5,AVENUE,,Upper East Side-Carnegie Hill,40.76652535,-73.97146139,992155.3142,218543.8996
389291,111762,Ulmus americana,American elm,816,5,AVENUE,,Upper East Side-Carnegie Hill,40.76679998,-73.97130157,992199.5517,218643.9709
389292,111762,Ulmus americana,American elm,816,5,AVENUE,,Upper East Side-Carnegie Hill,40.7668201,-73.97124784,992214.4322,218651.3042
389289,111762,Ulmus americana,American elm,816,5,AVENUE,,Upper East Side-Carnegie Hill,40.76672305,-73.97135731,992184.1213,218615.9368
389288,111762,Ulmus americana,American elm,816,5,AVENUE,,Upper East Side-Carnegie Hill,40.76665093,-73.97140956,992169.6554,218589.6554
389290,111762,Ulmus americana,American elm,816,5,AVENUE,,Upper East Side-Carnegie Hill,40.76675134,-73.97129765,992200.6412,218626.2495
487587,107338,Gleditsia triacanthos var. inermis,honeylocust,817,5,AVENUE,,Upper East Side-Carnegie Hill,40.76662548,-73.97100373,992282.0748,218580.4195
389295,111762,Ulmus americana,American elm,818,5,AVENUE,,Upper East Side-Carnegie Hill,40.76695048,-73.97119253,992229.7376,218698.8123
389296,111762,Ulmus americana,American elm,818,5,AVENUE,,Upper East Side-Carnegie Hill,40.76697396,-73.97113636,992245.2934,218707.3723
389293,111762,Ulmus americana,American elm,818,5,AVENUE,,Upper East Side-Carnegie Hill,40.76687355,-73.97124827,992214.3072,218670.7783
389297,111762,Ulmus americana,American elm,818,5,AVENUE,,Upper East Side-Carnegie Hill,40.76702501,-73.97113853,992244.6858,218725.9701
389294,111762,Ulmus americana,American elm,818,5,AVENUE,,Upper East Side-Carnegie Hill,40.76689943,-73.97119036,992230.3449,218680.2143
389298,111762,Ulmus americana,American elm,820,5,AVENUE,,Upper East Side-Carnegie Hill,40.76704849,-73.97108236,992260.2415,218734.5301
389299,111762,Ulmus americana,American elm,820,5,AVENUE,,Upper East Side-Carnegie Hill,40.76709473,-73.97108802,992258.67,218751.3762
43049,107344,Gleditsia triacanthos var. inermis,honeylocust,820,5,AVENUE,,Upper East Side-Carnegie Hill,40.7670394,-73.97086957,992319.1866,218731.2401
389300,111762,Ulmus americana,American elm,825,5,AVENUE,,Upper East Side-Carnegie Hill,40.76717406,-73.97103054,992274.5824,218780.2859
389301,111762,Ulmus americana,American elm,825,5,AVENUE,,Upper East Side-Carnegie Hill,40.76724859,-73.97097654,992289.5308,218807.4437
389302,111762,Ulmus americana,American elm,827,5,AVENUE,,Upper East Side-Carnegie Hill,40.76727448,-73.97091863,992305.5685,218816.8797
389306,111762,Ulmus americana,American elm,827,5,AVENUE,,Upper East Side-Carnegie Hill,40.76742593,-73.9708089,992335.9474,218872.0712
389305,111762,Ulmus americana,American elm,827,5,AVENUE,,Upper East Side-Carnegie Hill,40.7674039,-73.97086402,992320.681,218864.0371
389303,111762,Ulmus americana,American elm,827,5,AVENUE,,Upper East Side-Carnegie Hill,40.76732312,-73.97092254,992304.4793,218834.6018
389304,111762,Ulmus americana,American elm,827,5,AVENUE,,Upper East Side-Carnegie Hill,40.76735285,-73.97086185,992321.2883,218845.439
389307,111762,Ulmus americana,American elm,827,5,AVENUE,,Upper East Side-Carnegie Hill,40.76749662,-73.97075768,992350.1242,218897.8273
43048,107344,Gleditsia triacanthos var. inermis,honeylocust,827,5,AVENUE,,Upper East Side-Carnegie Hill,40.76720008,-73.97075192,992351.7581,218789.7902
389314,111762,Ulmus americana,American elm,830,5,AVENUE,,Upper East Side-Carnegie Hill,40.76775826,-73.97060727,992391.758,218993.1684
389315,111762,Ulmus americana,American elm,830,5,AVENUE,,Upper East Side-Carnegie Hill,40.76782558,-73.97055849,992405.2596,219017.6982
389309,111762,Ulmus americana,American elm,833,5,AVENUE,,Upper East Side-Carnegie Hill,40.76757355,-73.97070194,992365.5546,218925.8614
389311,111762,Ulmus americana,American elm,833,5,AVENUE,,Upper East Side-Carnegie Hill,40.76763509,-73.97065735,992377.8988,218948.2885
389312,111762,Ulmus americana,American elm,833,5,AVENUE,,Upper East Side-Carnegie Hill,40.76768614,-73.97065952,992377.2915,218966.8866
389310,111762,Ulmus americana,American elm,833,5,AVENUE,,Upper East Side-Carnegie Hill,40.76761738,-73.97070934,992363.5008,218941.8315
389313,111762,Ulmus americana,American elm,833,5,AVENUE,,Upper East Side-Carnegie Hill,40.76770962,-73.97060336,992392.8472,218975.4466
389308,111762,Ulmus americana,American elm,833,5,AVENUE,,Upper East Side-Carnegie Hill,40.76754285,-73.97076334,992348.5524,218914.6734
43013,107384,Ulmus americana,American elm,833,5,AVENUE,,Upper East Side-Carnegie Hill,40.76751131,-73.97053758,992411.0913,218903.2027
43012,107384,Tilia tomentosa,silver linden,833,5,AVENUE,,Upper East Side-Carnegie Hill,40.76759267,-73.9704782,992427.5283,218932.8509
43011,107384,Tilia tomentosa,silver linden,833,5,AVENUE,,Upper East Side-Carnegie Hill,40.76768916,-73.97040779,992447.02,218968.0093
248504,107417,Pyrus calleryana,Callery pear,838,5,AVENUE,,Upper East Side-Carnegie Hill,40.76795202,-73.97000163,992559.4949,219063.8165
389317,111762,Ulmus americana,American elm,838,5,AVENUE,,Upper East Side-Carnegie Hill,40.76795396,-73.97046548,992431.0089,219064.4796
389318,111762,Ulmus americana,American elm,838,5,AVENUE,,Upper East Side-Carnegie Hill,40.76802608,-73.97041322,992445.4751,219090.761
389316,111762,Ulmus americana,American elm,838,5,AVENUE,,Upper East Side-Carnegie Hill,40.76791253,-73.97045634,992433.5453,219049.3861
43009,107384,Tilia tomentosa,silver linden,838,5,AVENUE,,Upper East Side-Carnegie Hill,40.76781156,-73.97031847,992471.748,219012.6135
43008,107384,Tilia tomentosa,silver linden,838,5,AVENUE,,Upper East Side-Carnegie Hill,40.76786124,-73.97028221,992481.7847,219030.7175
43010,107384,Tilia tomentosa,silver linden,838,5,AVENUE,,Upper East Side-Carnegie Hill,40.76775924,-73.97035665,992461.1778,218993.5473
245405,111763,Ulmus americana,American elm,840,5,AVENUE,,Upper East Side-Carnegie Hill,40.7681266,-73.97032863,992468.8956,219127.3918
245409,111763,Ulmus americana,American elm,840,5,AVENUE,,Upper East Side-Carnegie Hill,40.76834112,-73.97017873,992510.389,219205.562
245410,111763,Ulmus americana,American elm,840,5,AVENUE,,Upper East Side-Carnegie Hill,40.76841287,-73.9701286,992524.2669,219231.7069
245407,111763,Ulmus americana,American elm,840,5,AVENUE,,Upper East Side-Carnegie Hill,40.76826888,-73.97022921,992496.4172,219179.2398
245408,111763,Ulmus americana,American elm,840,5,AVENUE,,Upper East Side-Carnegie Hill,40.76829228,-73.97017402,992511.7003,219187.77
245406,111763,Ulmus americana,American elm,840,5,AVENUE,,Upper East Side-Carnegie Hill,40.76819399,-73.97028154,992481.9294,219151.9469
126409,107416,Ginkgo biloba,ginkgo,840,5,AVENUE,,Upper East Side-Carnegie Hill,40.76810504,-73.97010601,992530.5635,219119.5559
126410,107416,Ginkgo biloba,ginkgo,840,5,AVENUE,,Upper East Side-Carnegie Hill,40.76822931,-73.97001517,992555.7091,219164.8432
126411,107416,Styphnolobium japonicum,Sophora,844,5,AVENUE,,Upper East Side-Carnegie Hill,40.76835503,-73.96992328,992581.1457,219210.6551
245411,111763,Ulmus americana,American elm,845,5,AVENUE,,Upper East Side-Carnegie Hill,40.76847831,-73.97008287,992536.9257,219255.5553
245413,111763,Ulmus americana,American elm,845,5,AVENUE,,Upper East Side-Carnegie Hill,40.76856048,-73.97002545,992552.8197,219285.4985
245412,111763,Ulmus americana,American elm,845,5,AVENUE,,Upper East Side-Carnegie Hill,40.76850995,-73.97002193,992553.8029,219267.0884
126412,107416,Styphnolobium japonicum,Sophora,845,5,AVENUE,,Upper East Side-Carnegie Hill,40.7684534,-73.96985139,992601.0486,219246.5002
245415,111763,Ulmus americana,American elm,846,5,AVENUE,,Upper East Side-Carnegie Hill,40.76863102,-73.96997617,992566.4633,219311.2015
245414,111763,Ulmus americana,American elm,846,5,AVENUE,,Upper East Side-Carnegie Hill,40.76857758,-73.96997467,992566.8839,219291.7317
126480,107415,Pyrus calleryana,Callery pear,846,5,AVENUE,,Upper East Side-Carnegie Hill,40.76848771,-73.969607,992668.7394,219259.0254
407369,111770,Ulmus americana,American elm,850,5,AVENUE,,Upper East Side-Carnegie Hill,40.76885213,-73.96980194,992614.6945,219391.7748
407368,111770,Ulmus americana,American elm,850,5,AVENUE,,Upper East Side-Carnegie Hill,40.76880589,-73.96979629,992616.2664,219374.9294
126667,107448,Tilia cordata,littleleaf linden,850,5,AVENUE,,Upper East Side-Carnegie Hill,40.76880212,-73.96960182,992670.1341,219373.5741
126668,107448,Tilia cordata,littleleaf linden,850,5,AVENUE,,Upper East Side-Carnegie Hill,40.76874362,-73.9696447,992658.263,219352.2566
407370,111770,Ulmus americana,American elm,851,5,AVENUE,,Upper East Side-Carnegie Hill,40.76892906,-73.9697462,992630.1253,219419.8086
126666,107448,Tilia cordata,littleleaf linden,851,5,AVENUE,,Upper East Side-Carnegie Hill,40.76886158,-73.96955823,992682.1993,219395.2414
407371,111770,Ulmus americana,American elm,852,5,AVENUE,,Upper East Side-Carnegie Hill,40.76895374,-73.96968916,992645.9218,219428.8066
407372,111770,Ulmus americana,American elm,853,5,AVENUE,,Upper East Side-Carnegie Hill,40.76899757,-73.96969655,992643.868,219444.7764
407373,111770,Ulmus americana,American elm,854,5,AVENUE,,Upper East Side-Carnegie Hill,40.7690745,-73.96964081,992659.2988,219472.8101
126665,107448,Quercus palustris,pin oak,855,5,AVENUE,,Upper East Side-Carnegie Hill,40.76903612,-73.96943029,992717.6169,219458.8449
407376,111770,Ulmus americana,American elm,856,5,AVENUE,,Upper East Side-Carnegie Hill,40.76929664,-73.96947986,992703.8545,219553.7581
407375,111770,Ulmus americana,American elm,856,5,AVENUE,,Upper East Side-Carnegie Hill,40.76922548,-73.96953142,992689.5812,219527.8267
407374,111770,Ulmus americana,American elm,856,5,AVENUE,,Upper East Side-Carnegie Hill,40.76914519,-73.9695896,992673.4756,219498.5663
126664,107448,Quercus palustris,pin oak,856,5,AVENUE,,Upper East Side-Carnegie Hill,40.76909462,-73.96938741,992729.4876,219480.1625
126641,107477,Pyrus calleryana,Callery pear,857,5,AVENUE,,Upper East Side-Carnegie Hill,40.76919963,-73.96908162,992814.1741,219518.4498
126642,107477,Prunus,cherry,857,5,AVENUE,,Upper East Side-Carnegie Hill,40.76923524,-73.96916628,992790.7208,219531.4179
407377,111770,Ulmus americana,American elm,858,5,AVENUE,,Upper East Side-Carnegie Hill,40.76945956,-73.96932265,992747.378,219613.1294
126448,107476,Quercus bicolor,swamp white oak,858,5,AVENUE,,Upper East Side-Carnegie Hill,40.7694013,-73.96916208,992791.8632,219591.9195
126447,107476,Quercus bicolor,swamp white oak,858,5,AVENUE,,Upper East Side-Carnegie Hill,40.76934608,-73.96920231,992780.7257,219571.7958
407378,111770,Ulmus americana,American elm,865,5,AVENUE,,Upper East Side-Carnegie Hill,40.76951397,-73.96932238,992747.4459,219632.9538
407385,111770,Ulmus americana,American elm,865,5,AVENUE,,Upper East Side-Carnegie Hill,40.76980535,-73.96911125,992805.8894,219739.1318
407380,111770,Ulmus americana,American elm,865,5,AVENUE,,Upper East Side-Carnegie Hill,40.7695861,-73.96927012,992761.9121,219659.2353
407379,111770,Ulmus americana,American elm,865,5,AVENUE,,Upper East Side-Carnegie Hill,40.76953505,-73.96926795,992762.5194,219640.6372
407381,111770,Ulmus americana,American elm,865,5,AVENUE,,Upper East Side-Carnegie Hill,40.76965822,-73.96921786,992776.3779,219685.517
407384,111770,Ulmus americana,American elm,865,5,AVENUE,,Upper East Side-Carnegie Hill,40.76975382,-73.96910943,992806.3999,219720.3588
407382,111770,Ulmus americana,American elm,865,5,AVENUE,,Upper East Side-Carnegie Hill,40.76967929,-73.96916343,992791.4517,219693.2011
407383,111770,Ulmus americana,American elm,865,5,AVENUE,,Upper East Side-Carnegie Hill,40.76972794,-73.96916734,992790.3622,219710.9225
126449,107476,Quercus palustris,pin oak,865,5,AVENUE,,Upper East Side-Carnegie Hill,40.76946061,-73.96911887,992803.8241,219613.5303
126453,107476,Quercus velutina,black oak,865,5,AVENUE,,Upper East Side-Carnegie Hill,40.76972736,-73.96892452,992857.6225,219710.7358
126450,107476,Quercus palustris,pin oak,865,5,AVENUE,,Upper East Side-Carnegie Hill,40.76951031,-73.96908266,992813.8477,219631.6415
126451,107476,Quercus rubra,northern red oak,865,5,AVENUE,,Upper East Side-Carnegie Hill,40.76955929,-73.96904697,992823.726,219649.4902
126452,107476,Quercus velutina,black oak,865,5,AVENUE,,Upper East Side-Carnegie Hill,40.76966301,-73.9689714,992844.6449,219687.2874
245418,107508,Pyrus calleryana,Callery pear,870,5,AVENUE,,Upper East Side-Carnegie Hill,40.76976728,-73.96849268,992977.2332,219725.3241
245419,107508,Pyrus calleryana,Callery pear,870,5,AVENUE,,Upper East Side-Carnegie Hill,40.76973346,-73.96841208,992999.5619,219713.0088
407388,111770,Ulmus americana,American elm,871,5,AVENUE,,Upper East Side-Carnegie Hill,40.76995104,-73.96900569,992835.1108,219792.2209
407389,111770,Ulmus americana,American elm,871,5,AVENUE,,Upper East Side-Carnegie Hill,40.76997211,-73.96895126,992850.1842,219799.9049
407387,111770,Ulmus americana,American elm,871,5,AVENUE,,Upper East Side-Carnegie Hill,40.76987891,-73.96905795,992820.6446,219765.9391
407390,111770,Ulmus americana,American elm,871,5,AVENUE,,Upper East Side-Carnegie Hill,40.77002316,-73.96895343,992849.5769,219818.5027
407386,111770,Ulmus americana,American elm,871,5,AVENUE,,Upper East Side-Carnegie Hill,40.76982787,-73.96905578,992821.2519,219747.3414
166077,107509,Pyrus calleryana,Callery pear,871,5,AVENUE,,Upper East Side-Carnegie Hill,40.76998649,-73.96873195,992910.9292,219805.1635
407394,111770,Ulmus americana,American elm,872,5,AVENUE,,Upper East Side-Carnegie Hill,40.77023712,-73.96879839,992892.4932,219896.4717
407392,111770,Ulmus americana,American elm,872,5,AVENUE,,Upper East Side-Carnegie Hill,40.77011876,-73.968845,992879.5985,219853.3445
407393,111770,Ulmus americana,American elm,872,5,AVENUE,,Upper East Side-Carnegie Hill,40.77016981,-73.96884717,992878.9916,219871.9422
166076,107509,Pyrus calleryana,Callery pear,872,5,AVENUE,,Upper East Side-Carnegie Hill,40.77007313,-73.96866947,992928.2238,219836.7372
166075,107509,Pyrus calleryana,Callery pear,872,5,AVENUE,,Upper East Side-Carnegie Hill,40.77015544,-73.96861012,992944.6532,219866.7322
407395,111770,Ulmus americana,American elm,875,5,AVENUE,,Upper East Side-Carnegie Hill,40.77031165,-73.96874439,992907.4417,219923.6298
407398,111770,Ulmus americana,American elm,875,5,AVENUE,,Upper East Side-Carnegie Hill,40.77045685,-73.96863917,992936.5669,219976.5437
407397,111770,Ulmus americana,American elm,875,5,AVENUE,,Upper East Side-Carnegie Hill,40.77038954,-73.96868795,992923.065,219952.0139
407396,111770,Ulmus americana,American elm,875,5,AVENUE,,Upper East Side-Carnegie Hill,40.77033994,-73.96868473,992923.962,219933.9417
166074,107509,Tilia tomentosa,silver linden,875,5,AVENUE,,Upper East Side-Carnegie Hill,40.77026086,-73.9685341,992965.6952,219905.1469
166073,107509,Tilia tomentosa,silver linden,875,5,AVENUE,,Upper East Side-Carnegie Hill,40.7703398,-73.96847718,992981.4523,219933.9142
407407,111770,Ulmus americana,American elm,880,5,AVENUE,,Upper East Side-Carnegie Hill,40.7708496,-73.96831542,993026.1895,220119.6658
407405,111770,Ulmus americana,American elm,880,5,AVENUE,,Upper East Side-Carnegie Hill,40.77075063,-73.96842629,992995.4923,220083.5979
407406,111770,Ulmus americana,American elm,880,5,AVENUE,,Upper East Side-Carnegie Hill,40.77082275,-73.96837403,993009.9585,220109.8794
407403,111770,Ulmus americana,American elm,880,5,AVENUE,,Upper East Side-Carnegie Hill,40.77062602,-73.96847743,992981.3441,220038.1925
407404,111770,Ulmus americana,American elm,880,5,AVENUE,,Upper East Side-Carnegie Hill,40.77067851,-73.96847855,992981.0262,220057.3162
407408,111770,Ulmus americana,American elm,880,5,AVENUE,,Upper East Side-Carnegie Hill,40.77089584,-73.96832107,993024.6176,220136.5119
407402,111770,Ulmus americana,American elm,880,5,AVENUE,,Upper East Side-Carnegie Hill,40.77060254,-73.9685336,992965.7887,220029.6328
166043,107542,Tilia cordata,littleleaf linden,880,5,AVENUE,,Upper East Side-Carnegie Hill,40.77070654,-73.96820986,993055.4486,220067.5537
166044,107542,Ulmus americana,American elm,880,5,AVENUE,,Upper East Side-Carnegie Hill,40.77060827,-73.968282,993035.4785,220031.7463
166042,107542,Ulmus americana,American elm,880,5,AVENUE,,Upper East Side-Carnegie Hill,40.77078802,-73.96815003,993072.0092,220097.2478
264747,107580,Styphnolobium japonicum,Sophora,884,5,AVENUE,,Upper East Side-Carnegie Hill,40.7710845,-73.96773101,993188.0313,220205.3057
264719,107541,Styphnolobium japonicum,Sophora,884,5,AVENUE,,Upper East Side-Carnegie Hill,40.77100549,-73.96780508,993167.5268,220176.5131
407417,111770,Ulmus americana,American elm,884,5,AVENUE,,Upper East Side-Carnegie Hill,40.77128329,-73.96800115,993113.1794,220277.7068
407413,111770,Ulmus americana,American elm,884,5,AVENUE,,Upper East Side-Carnegie Hill,40.77111405,-73.9681238,993079.2317,220216.0324
407415,111770,Ulmus americana,American elm,884,5,AVENUE,,Upper East Side-Carnegie Hill,40.77121021,-73.96805411,993098.5203,220251.0746
407414,111770,Ulmus americana,American elm,884,5,AVENUE,,Upper East Side-Carnegie Hill,40.77118913,-73.96810854,993083.4466,220243.3906
407410,111770,Ulmus americana,American elm,884,5,AVENUE,,Upper East Side-Carnegie Hill,40.77097373,-73.96826463,993040.2413,220164.896
407412,111770,Ulmus americana,American elm,884,5,AVENUE,,Upper East Side-Carnegie Hill,40.77104104,-73.96821585,993053.7429,220189.4258
407416,111770,Ulmus americana,American elm,884,5,AVENUE,,Upper East Side-Carnegie Hill,40.77126222,-73.96805558,993098.106,220270.0228
407409,111770,Ulmus americana,American elm,884,5,AVENUE,,Upper East Side-Carnegie Hill,40.77092028,-73.9682642,993040.3663,220145.422
407418,111770,Ulmus americana,American elm,884,5,AVENUE,,Upper East Side-Carnegie Hill,40.77133434,-73.96800332,993112.5722,220296.3045
407420,111770,Ulmus americana,American elm,884,5,AVENUE,,Upper East Side-Carnegie Hill,40.77142658,-73.96789733,993141.9186,220329.92
407422,111770,Ulmus americana,American elm,884,5,AVENUE,,Upper East Side-Carnegie Hill,40.77150254,-73.96784228,993157.1564,220357.6033
407421,111770,Ulmus americana,American elm,884,5,AVENUE,,Upper East Side-Carnegie Hill,40.77148003,-73.96789775,993141.7936,220349.394
407419,111770,Ulmus americana,American elm,884,5,AVENUE,,Upper East Side-Carnegie Hill,40.77140887,-73.96794932,993127.5203,220323.4623
407411,111770,Ulmus americana,American elm,884,5,AVENUE,,Upper East Side-Carnegie Hill,40.7709948,-73.9682102,993055.3144,220172.5797
166041,107542,Ulmus americana,American elm,884,5,AVENUE,,Upper East Side-Carnegie Hill,40.77086615,-73.96809266,993087.8882,220125.7196
166040,107542,Ulmus americana,American elm,884,5,AVENUE,,Upper East Side-Carnegie Hill,40.77093997,-73.96803847,993102.8901,220152.6188
407426,111770,Ulmus americana,American elm,900,5,AVENUE,,Upper East Side-Carnegie Hill,40.77176996,-73.96768766,993199.9476,220455.0463
407424,111770,Ulmus americana,American elm,900,5,AVENUE,,Upper East Side-Carnegie Hill,40.77157707,-73.96778827,993172.1045,220384.7611
407423,111770,Ulmus americana,American elm,900,5,AVENUE,,Upper East Side-Carnegie Hill,40.77155119,-73.96784619,993156.0668,220375.325
407430,111770,Ulmus americana,American elm,900,5,AVENUE,,Upper East Side-Carnegie Hill,40.77194249,-73.96752347,993245.4,220517.9215
407428,111770,Ulmus americana,American elm,900,5,AVENUE,,Upper East Side-Carnegie Hill,40.77184544,-73.96763295,993215.089,220482.5545
407427,111770,Ulmus americana,American elm,900,5,AVENUE,,Upper East Side-Carnegie Hill,40.7717968,-73.96762905,993216.1783,220464.8327
407425,111770,Ulmus americana,American elm,900,5,AVENUE,,Upper East Side-Carnegie Hill,40.7716516,-73.96773427,993187.053,220411.9188
407429,111770,Ulmus americana,American elm,900,5,AVENUE,,Upper East Side-Carnegie Hill,40.77192141,-73.96757791,993230.3265,220510.2382
166023,107607,Styphnolobium japonicum,Sophora,900,5,AVENUE,,Upper East Side-Carnegie Hill,40.77187426,-73.96735397,993292.3595,220493.081
407433,111770,Ulmus americana,American elm,901,5,AVENUE,,Upper East Side-Carnegie Hill,40.77208913,-73.96741721,993274.8146,220571.3614
407431,111770,Ulmus americana,American elm,901,5,AVENUE,,Upper East Side-Carnegie Hill,40.77199113,-73.96752738,993244.3104,220535.6436
407432,111770,Ulmus americana,American elm,901,5,AVENUE,,Upper East Side-Carnegie Hill,40.77206325,-73.96747512,993258.7766,220561.9254
166022,107607,Styphnolobium japonicum,Sophora,901,5,AVENUE,,Upper East Side-Carnegie Hill,40.77195897,-73.96729285,993309.2771,220523.9494
407439,111770,Ulmus americana,American elm,905,5,AVENUE,,Upper East Side-Carnegie Hill,40.7723055,-73.96726042,993318.2132,220650.2064
407436,111770,Ulmus americana,American elm,905,5,AVENUE,,Upper East Side-Carnegie Hill,40.7722099,-73.96736885,993288.1912,220615.3649
407438,111770,Ulmus americana,American elm,905,5,AVENUE,,Upper East Side-Carnegie Hill,40.77228202,-73.96731659,993302.6574,220641.6467
407434,111770,Ulmus americana,American elm,905,5,AVENUE,,Upper East Side-Carnegie Hill,40.77213297,-73.9674246,993272.7605,220587.3312
407440,111770,Ulmus americana,American elm,905,5,AVENUE,,Upper East Side-Carnegie Hill,40.77235655,-73.96726258,993317.6055,220668.8044
407435,111770,Ulmus americana,American elm,905,5,AVENUE,,Upper East Side-Carnegie Hill,40.77216366,-73.9673632,993289.7631,220598.5192
407437,111770,Ulmus americana,American elm,905,5,AVENUE,,Upper East Side-Carnegie Hill,40.77223097,-73.96731442,993303.2647,220623.0486
407442,111770,Ulmus americana,American elm,905,5,AVENUE,,Upper East Side-Carnegie Hill,40.77243107,-73.96720858,993332.554,220695.9622
407441,111770,Ulmus americana,American elm,905,5,AVENUE,,Upper East Side-Carnegie Hill,40.77238243,-73.96720467,993333.6439,220678.2405
407443,111770,Ulmus americana,American elm,905,5,AVENUE,,Upper East Side-Carnegie Hill,40.77244994,-73.96719491,993336.3378,220702.8365
166021,107607,Styphnolobium japonicum,Sophora,905,5,AVENUE,,Upper East Side-Carnegie Hill,40.77204704,-73.9672293,993326.867,220556.0452
487430,107608,Quercus imbricaria,shingle oak,907,5,AVENUE,,Upper East Side-Carnegie Hill,40.77228945,-73.96687245,993425.6729,220644.398
265395,111771,Ulmus americana,American elm,909,5,AVENUE,,Upper East Side-Carnegie Hill,40.7726525,-73.96702472,993383.4492,220776.6546
265397,111771,Ulmus americana,American elm,909,5,AVENUE,,Upper East Side-Carnegie Hill,40.77273415,-73.96696528,993399.9003,220806.4098
265396,111771,Ulmus americana,American elm,909,5,AVENUE,,Upper East Side-Carnegie Hill,40.7726807,-73.96696499,993399.9886,220786.9358
286309,107644,Quercus rubra,northern red oak,909,5,AVENUE,,Upper East Side-Carnegie Hill,40.772431,-73.96677035,993453.9343,220695.9809
286311,107644,Quercus rubra,northern red oak,910,5,AVENUE,,Upper East Side-Carnegie Hill,40.77229967,-73.96645826,993540.3941,220648.1677
265404,111771,Ulmus americana,American elm,912,5,AVENUE,,Upper East Side-Carnegie Hill,40.77297849,-73.96674823,993459.9862,220895.4546
265399,111771,Ulmus americana,American elm,912,5,AVENUE,,Upper East Side-Carnegie Hill,40.77280908,-73.96691074,993414.9964,220833.7146
265400,111771,Ulmus americana,American elm,912,5,AVENUE,,Upper East Side-Carnegie Hill,40.77282912,-73.96685696,993429.8904,220841.02
265401,111771,Ulmus americana,American elm,912,5,AVENUE,,Upper East Side-Carnegie Hill,40.77288065,-73.96685865,993429.415,220859.7939
265402,111771,Ulmus americana,American elm,912,5,AVENUE,,Upper East Side-Carnegie Hill,40.77290693,-73.96680032,993445.5676,220869.3752
265398,111771,Ulmus americana,American elm,912,5,AVENUE,,Upper East Side-Carnegie Hill,40.77275755,-73.96690905,993415.4718,220814.9406
265403,111771,Ulmus americana,American elm,912,5,AVENUE,,Upper East Side-Carnegie Hill,40.77295798,-73.96680236,993444.9951,220887.9736
265406,111771,Ulmus americana,American elm,912,5,AVENUE,,Upper East Side-Carnegie Hill,40.7730563,-73.96669159,993475.663,220923.8092
265405,111771,Ulmus americana,American elm,912,5,AVENUE,,Upper East Side-Carnegie Hill,40.77303291,-73.96674782,993460.0911,220915.2787
165960,107645,Ulmus americana,American elm,912,5,AVENUE,,Upper East Side-Carnegie Hill,40.77284561,-73.9666452,993488.5419,220847.0525
165959,107645,Ulmus americana,American elm,912,5,AVENUE,,Upper East Side-Carnegie Hill,40.77293111,-73.96658297,993505.7649,220878.2086
165961,107645,Quercus palustris,pin oak,912,5,AVENUE,,Upper East Side-Carnegie Hill,40.77270152,-73.96675007,993459.514,220794.5417
264702,107646,Pyrus calleryana,Callery pear,920,5,AVENUE,,Upper East Side-Carnegie Hill,40.77290459,-73.96613351,993630.2601,220868.5954
278611,107676,Pyrus calleryana,Callery pear,920,5,AVENUE,,Upper East Side-Carnegie Hill,40.77298849,-73.96606803,993648.3838,220899.1675
278610,107676,Pyrus calleryana,Callery pear,920,5,AVENUE,,Upper East Side-Carnegie Hill,40.77301376,-73.96612803,993631.7611,220908.3699
264701,107646,Pyrus calleryana,Callery pear,920,5,AVENUE,,Upper East Side-Carnegie Hill,40.77292932,-73.96619267,993613.8694,220877.5977
265413,111771,Ulmus americana,American elm,923,5,AVENUE,,Upper East Side-Carnegie Hill,40.77333022,-73.9665314,993519.9919,221023.622
265412,111771,Ulmus americana,American elm,923,5,AVENUE,,Upper East Side-Carnegie Hill,40.77328589,-73.96652447,993521.9191,221007.4737
265415,111771,Ulmus americana,American elm,923,5,AVENUE,,Upper East Side-Carnegie Hill,40.77340106,-73.96647984,993534.2655,221049.4392
265414,111771,Ulmus americana,American elm,923,5,AVENUE,,Upper East Side-Carnegie Hill,40.77335434,-73.96647465,993535.7088,221032.4156
265411,111771,Ulmus americana,American elm,923,5,AVENUE,,Upper East Side-Carnegie Hill,40.77325337,-73.96658734,993504.5087,220995.6174
154934,107677,Gleditsia triacanthos var. inermis,honeylocust,923,5,AVENUE,,Upper East Side-Carnegie Hill,40.773231,-73.96636223,993566.8636,220987.4921
154933,107677,Gleditsia triacanthos var. inermis,honeylocust,923,5,AVENUE,,Upper East Side-Carnegie Hill,40.77334688,-73.96627826,993590.1043,221029.7184
265417,111771,Ulmus americana,American elm,925,5,AVENUE,,Upper East Side-Carnegie Hill,40.77347647,-73.96642494,993549.4584,221076.9191
265416,111771,Ulmus americana,American elm,925,5,AVENUE,,Upper East Side-Carnegie Hill,40.77343407,-73.96641661,993551.7727,221061.4703
265419,111771,Ulmus americana,American elm,926,5,AVENUE,,Upper East Side-Carnegie Hill,40.77357432,-73.96631452,993580.0296,221112.5792
265418,111771,Ulmus americana,American elm,926,5,AVENUE,,Upper East Side-Carnegie Hill,40.77355236,-73.9663697,993564.7481,221104.5736
154932,107677,Zelkova serrata,Japanese zelkova,926,5,AVENUE,,Upper East Side-Carnegie Hill,40.77354401,-73.96613541,993629.643,221101.5565
265420,111771,Ulmus americana,American elm,927,5,AVENUE,,Upper East Side-Carnegie Hill,40.77364685,-73.96626173,993594.6417,221139.0086
265421,111771,Ulmus americana,American elm,927,5,AVENUE,,Upper East Side-Carnegie Hill,40.77369742,-73.96626412,993593.9728,221157.4327
265423,111771,Ulmus americana,American elm,928,5,AVENUE,,Upper East Side-Carnegie Hill,40.77384847,-73.96615416,993624.4071,221212.4795
265422,111771,Ulmus americana,American elm,928,5,AVENUE,,Upper East Side-Carnegie Hill,40.77372057,-73.96620806,993609.496,221165.876
286326,107678,Ulmus parvifolia,Chinese elm,928,5,AVENUE,,Upper East Side-Carnegie Hill,40.77364998,-73.96593567,993684.9519,221140.1874
286329,107700,Pyrus calleryana,Callery pear,930,5,AVENUE,,Upper East Side-Carnegie Hill,40.77360293,-73.96556647,993787.2158,221123.0824
265424,111771,Ulmus americana,American elm,931,5,AVENUE,,Upper East Side-Carnegie Hill,40.77394872,-73.96604199,993655.4618,221249.0152
265426,111771,Ulmus americana,American elm,931,5,AVENUE,,Upper East Side-Carnegie Hill,40.77402077,-73.96598954,993669.9775,221275.2698
265425,111771,Ulmus americana,American elm,931,5,AVENUE,,Upper East Side-Carnegie Hill,40.77398728,-73.96605312,993652.3736,221263.0634
154931,107701,Tilia cordata,littleleaf linden,931,5,AVENUE,,Upper East Side-Carnegie Hill,40.77385304,-73.96591013,993691.9949,221214.1685
154930,107701,Tilia cordata,littleleaf linden,931,5,AVENUE,,Upper East Side-Carnegie Hill,40.77393924,-73.9658466,993709.5785,221245.5822
265427,111771,Ulmus americana,American elm,933,5,AVENUE,,Upper East Side-Carnegie Hill,40.77409329,-73.96593675,993684.5897,221301.6992
154929,107701,Pyrus calleryana,Callery pear,933,5,AVENUE,,Upper East Side-Carnegie Hill,40.77402305,-73.96578484,993726.6736,221276.1231
265428,111771,Ulmus americana,American elm,934,5,AVENUE,,Upper East Side-Carnegie Hill,40.77421879,-73.96588459,993699.0169,221347.4278
265432,111771,Ulmus americana,American elm,935,5,AVENUE,,Upper East Side-Carnegie Hill,40.77439349,-73.96571823,993745.0709,221411.093
265431,111771,Ulmus americana,American elm,935,5,AVENUE,,Upper East Side-Carnegie Hill,40.77436913,-73.96577516,993729.3058,221402.2124
265429,111771,Ulmus americana,American elm,935,5,AVENUE,,Upper East Side-Carnegie Hill,40.77429708,-73.9658276,993714.7904,221375.9579
265430,111771,Ulmus americana,American elm,935,5,AVENUE,,Upper East Side-Carnegie Hill,40.77432336,-73.96576927,993730.9426,221385.5386
154928,107701,Pyrus calleryana,Callery pear,935,5,AVENUE,,Upper East Side-Carnegie Hill,40.77419953,-73.96565478,993762.6709,221340.434
290004,107702,Pyrus calleryana,Callery pear,936,5,AVENUE,,Upper East Side-Carnegie Hill,40.77421676,-73.96531342,993857.2163,221346.7503
290003,107702,Pyrus calleryana,Callery pear,936,5,AVENUE,,Upper East Side-Carnegie Hill,40.77426364,-73.96542537,993826.2026,221363.8175
265435,111771,Ulmus americana,American elm,940,5,AVENUE,,Upper East Side-Carnegie Hill,40.7745161,-73.96566817,993758.9177,221455.7714
265434,111771,Ulmus americana,American elm,940,5,AVENUE,,Upper East Side-Carnegie Hill,40.77446745,-73.96566438,993759.9738,221438.0473
265436,111771,Ulmus americana,American elm,940,5,AVENUE,,Upper East Side-Carnegie Hill,40.77458911,-73.96561503,993773.6266,221482.376
265433,111771,Ulmus americana,American elm,940,5,AVENUE,,Upper East Side-Carnegie Hill,40.77443781,-73.96572516,993743.1441,221427.2416
265437,111771,Ulmus americana,American elm,942,5,AVENUE,,Upper East Side-Carnegie Hill,40.77461347,-73.96555809,993789.392,221491.2569
265441,111771,Ulmus americana,American elm,944,5,AVENUE,,Upper East Side-Carnegie Hill,40.77475708,-73.96545355,993818.326,221543.5908
265440,111771,Ulmus americana,American elm,944,5,AVENUE,,Upper East Side-Carnegie Hill,40.77473368,-73.96550979,993802.7542,221535.0599
265439,111771,Ulmus americana,American elm,944,5,AVENUE,,Upper East Side-Carnegie Hill,40.77468167,-73.96550845,993803.1331,221516.1112
265438,111771,Ulmus americana,American elm,944,5,AVENUE,,Upper East Side-Carnegie Hill,40.77466788,-73.96555769,993789.497,221511.081
154927,107749,Platanus x acerifolia,London planetree,944,5,AVENUE,,Upper East Side-Carnegie Hill,40.77464145,-73.9653346,993851.2902,221501.4757
265442,111771,Ulmus americana,American elm,945,5,AVENUE,,Upper East Side-Carnegie Hill,40.77480957,-73.96545454,993818.0442,221562.7147
265443,111771,Ulmus americana,American elm,945,5,AVENUE,,Upper East Side-Carnegie Hill,40.77487681,-73.96540559,993831.592,221587.2193
154926,107749,Gleditsia triacanthos var. inermis,honeylocust,945,5,AVENUE,,Upper East Side-Carnegie Hill,40.774765,-73.96524352,993876.4965,221546.4999
265444,111771,Ulmus americana,American elm,946,5,AVENUE,,Upper East Side-Carnegie Hill,40.77490597,-73.96534516,993848.325,221597.8502
265445,111771,Ulmus americana,American elm,946,5,AVENUE,,Upper East Side-Carnegie Hill,40.7749551,-73.9653486,993847.3656,221615.7491
175734,107779,Ginkgo biloba,ginkgo,950,5,AVENUE,,Upper East Side-Carnegie Hill,40.77491973,-73.96474694,994014.0123,221602.9282
265449,111771,Ulmus americana,American elm,951,5,AVENUE,,Upper East Side-Carnegie Hill,40.7751674,-73.96519406,993890.1379,221693.1121
265450,111771,Ulmus americana,American elm,951,5,AVENUE,,Upper East Side-Carnegie Hill,40.77523944,-73.96514161,993904.6533,221719.3667
265451,111771,Ulmus americana,American elm,951,5,AVENUE,,Upper East Side-Carnegie Hill,40.77526572,-73.96508328,993920.8058,221728.9473
154925,107778,Quercus palustris,pin oak,951,5,AVENUE,,Upper East Side-Carnegie Hill,40.7751285,-73.96498062,993949.2588,221678.9642
265454,111771,Ulmus americana,American elm,953,5,AVENUE,,Upper East Side-Carnegie Hill,40.77539122,-73.96503113,993935.2329,221774.6759
265453,111771,Ulmus americana,American elm,953,5,AVENUE,,Upper East Side-Carnegie Hill,40.77534017,-73.96502909,993935.8051,221756.0769
265452,111771,Ulmus americana,American elm,953,5,AVENUE,,Upper East Side-Carnegie Hill,40.77531437,-73.96508707,993919.7497,221746.6714
154923,107778,Pyrus calleryana,Callery pear,953,5,AVENUE,,Upper East Side-Carnegie Hill,40.77535096,-73.96481743,993994.426,221760.0306
154924,107778,Pyrus calleryana,Callery pear,953,5,AVENUE,,Upper East Side-Carnegie Hill,40.77526418,-73.96488109,993976.807,221728.4076
265456,111771,Ulmus americana,American elm,955,5,AVENUE,,Upper East Side-Carnegie Hill,40.77548858,-73.96492105,993965.7073,221810.1614
265455,111771,Ulmus americana,American elm,955,5,AVENUE,,Upper East Side-Carnegie Hill,40.77541606,-73.96497384,993951.0948,221783.732
154922,107778,Pyrus calleryana,Callery pear,955,5,AVENUE,,Upper East Side-Carnegie Hill,40.77543965,-73.96475236,994012.4345,221792.3524
265459,111771,Ulmus americana,American elm,956,5,AVENUE,,Upper East Side-Carnegie Hill,40.77563316,-73.9648158,993994.8348,221862.8457
265458,111771,Ulmus americana,American elm,956,5,AVENUE,,Upper East Side-Carnegie Hill,40.77561696,-73.96486679,993980.7148,221856.9402
265460,111771,Ulmus americana,American elm,956,5,AVENUE,,Upper East Side-Carnegie Hill,40.77568661,-73.96481609,993994.7466,221882.3194
265457,111771,Ulmus americana,American elm,956,5,AVENUE,,Upper East Side-Carnegie Hill,40.77553963,-73.96492309,993965.1348,221828.7605
265462,111771,Ulmus americana,American elm,956,5,AVENUE,,Upper East Side-Carnegie Hill,40.77575769,-73.96476435,994009.0684,221908.2239
265461,111771,Ulmus americana,American elm,956,5,AVENUE,,Upper East Side-Carnegie Hill,40.77570712,-73.96476196,994009.7374,221889.8004
265466,111771,Ulmus americana,American elm,960,5,AVENUE,,Upper East Side-Carnegie Hill,40.7758989,-73.96466155,994037.5188,221959.6831
265467,111771,Ulmus americana,American elm,960,5,AVENUE,,Upper East Side-Carnegie Hill,40.77596855,-73.96461085,994051.5506,221985.0623
265464,111771,Ulmus americana,American elm,960,5,AVENUE,,Upper East Side-Carnegie Hill,40.77583598,-73.96470735,994024.842,221936.754
265463,111771,Ulmus americana,American elm,960,5,AVENUE,,Upper East Side-Carnegie Hill,40.77577773,-73.96471056,994023.9627,221915.5293
265465,111771,Ulmus americana,American elm,960,5,AVENUE,,Upper East Side-Carnegie Hill,40.77585506,-73.96465427,994039.5427,221943.7094
265468,111771,Ulmus americana,American elm,960,5,AVENUE,,Upper East Side-Carnegie Hill,40.77600011,-73.96454867,994068.7674,221996.5682
154920,107810,Ginkgo biloba,ginkgo,960,5,AVENUE,,Upper East Side-Carnegie Hill,40.77586856,-73.96444386,994097.8159,221948.6526
154921,107810,Quercus phellos,willow oak,960,5,AVENUE,,Upper East Side-Carnegie Hill,40.77579009,-73.96450117,994081.9541,221920.0575
154917,107810,Robinia pseudoacacia,black locust,965,5,AVENUE,,Upper East Side-Carnegie Hill,40.7761426,-73.96424371,994153.2112,222048.5176
265474,111771,Ulmus americana,American elm,965,5,AVENUE,,Upper East Side-Carnegie Hill,40.77630068,-73.96436907,994118.4671,222106.0955
265469,111771,Ulmus americana,American elm,965,5,AVENUE,,Upper East Side-Carnegie Hill,40.77604635,-73.96455421,994067.2274,222013.4169
265473,111771,Ulmus americana,American elm,965,5,AVENUE,,Upper East Side-Carnegie Hill,40.77624842,-73.9643679,994118.7975,222087.0588
265471,111771,Ulmus americana,American elm,965,5,AVENUE,,Upper East Side-Carnegie Hill,40.7761394,-73.96444727,994096.8307,222047.327
265472,111771,Ulmus americana,American elm,965,5,AVENUE,,Upper East Side-Carnegie Hill,40.77619237,-73.96444791,994096.6456,222066.6265
265470,111771,Ulmus americana,American elm,965,5,AVENUE,,Upper East Side-Carnegie Hill,40.77611984,-73.96450071,994082.0331,222040.1967
154918,107810,Ginkgo biloba,ginkgo,965,5,AVENUE,,Upper East Side-Carnegie Hill,40.77609173,-73.96428086,994142.9277,222029.9786
154919,107810,Ginkgo biloba,ginkgo,965,5,AVENUE,,Upper East Side-Carnegie Hill,40.77599814,-73.96434922,994124.0098,221995.8746
167488,107809,Ginkgo biloba,ginkgo,969,5,AVENUE,,Upper East Side-Carnegie Hill,40.77614663,-73.96398509,994224.8377,222050.0146
167489,107809,Ginkgo biloba,ginkgo,969,5,AVENUE,,Upper East Side-Carnegie Hill,40.77611064,-73.96389904,994248.6749,222036.9139
167486,107809,Ginkgo biloba,ginkgo,969,5,AVENUE,,Upper East Side-Carnegie Hill,40.77618261,-73.96407114,994201.0004,222063.115
167487,107809,Ginkgo biloba,ginkgo,969,5,AVENUE,,Upper East Side-Carnegie Hill,40.77616489,-73.96402875,994212.7438,222056.6609
265476,111771,Ulmus americana,American elm,970,5,AVENUE,,Upper East Side-Carnegie Hill,40.7763918,-73.96426353,994147.6836,222139.3054
265480,111771,Ulmus americana,American elm,970,5,AVENUE,,Upper East Side-Carnegie Hill,40.77659414,-73.96415543,994177.5937,222213.0389
265478,111771,Ulmus americana,American elm,970,5,AVENUE,,Upper East Side-Carnegie Hill,40.77651921,-73.96420997,994162.4976,222185.7342
265477,111771,Ulmus americana,American elm,970,5,AVENUE,,Upper East Side-Carnegie Hill,40.77646768,-73.96420828,994162.9729,222166.9602
265481,111771,Ulmus americana,American elm,970,5,AVENUE,,Upper East Side-Carnegie Hill,40.7766161,-73.96410024,994192.8751,222221.0445
265479,111771,Ulmus americana,American elm,970,5,AVENUE,,Upper East Side-Carnegie Hill,40.77654069,-73.96415514,994177.6822,222193.5648
265475,111771,Ulmus americana,American elm,970,5,AVENUE,,Upper East Side-Carnegie Hill,40.77637128,-73.96431767,994132.6925,222131.8251
154916,107838,Platanus x acerifolia,London planetree,970,5,AVENUE,,Upper East Side-Carnegie Hill,40.77642717,-73.96403542,994210.8561,222152.2181
265484,111771,Ulmus americana,American elm,972,5,AVENUE,,Upper East Side-Carnegie Hill,40.77674976,-73.96404214,994208.9473,222269.7484
265482,111771,Ulmus americana,American elm,972,5,AVENUE,,Upper East Side-Carnegie Hill,40.77666378,-73.96410473,994191.6254,222238.4181
265483,111771,Ulmus americana,American elm,972,5,AVENUE,,Upper East Side-Carnegie Hill,40.77668766,-73.96404814,994207.2937,222247.1238
265486,111771,Ulmus americana,American elm,973,5,AVENUE,,Upper East Side-Carnegie Hill,40.77694188,-73.96390227,994247.6552,222339.7604
265485,111771,Ulmus americana,American elm,973,5,AVENUE,,Upper East Side-Carnegie Hill,40.77683861,-73.96397745,994226.8498,222302.1289
242250,111782,Gleditsia triacanthos var. inermis,honeylocust,980,5,AVENUE,,Upper East Side-Carnegie Hill,40.77732282,-73.96362355,994324.7925,222478.5804
242249,111782,Gleditsia triacanthos var. inermis,honeylocust,980,5,AVENUE,,Upper East Side-Carnegie Hill,40.77725256,-73.96363561,994321.4631,222452.984
242251,111782,Gleditsia triacanthos var. inermis,honeylocust,980,5,AVENUE,,Upper East Side-Carnegie Hill,40.77736056,-73.96355677,994343.2836,222492.3398
242248,111782,Gleditsia triacanthos var. inermis,honeylocust,980,5,AVENUE,,Upper East Side-Carnegie Hill,40.77718362,-73.96372518,994296.6679,222427.8551
242253,111782,Gleditsia triacanthos var. inermis,honeylocust,985,5,AVENUE,,Upper East Side-Carnegie Hill,40.77749784,-73.96345655,994371.0198,222542.3653
242254,111782,Gleditsia triacanthos var. inermis,honeylocust,985,5,AVENUE,,Upper East Side-Carnegie Hill,40.77759383,-73.96338646,994390.4161,222577.3479
242252,111782,Gleditsia triacanthos var. inermis,honeylocust,985,5,AVENUE,,Upper East Side-Carnegie Hill,40.77746424,-73.96348108,994364.2311,222530.1213
268281,107878,Pyrus calleryana,Callery pear,988,5,AVENUE,,Upper East Side-Carnegie Hill,40.77750646,-73.96297744,994503.7111,222545.5615
268282,107878,Pyrus calleryana,Callery pear,988,5,AVENUE,,Upper East Side-Carnegie Hill,40.77755402,-73.96309137,994472.1495,222562.8784
266684,107902,Ginkgo biloba,ginkgo,990,5,AVENUE,,Upper East Side-Carnegie Hill,40.77754639,-73.96281275,994549.3167,222560.1297
242258,111782,Tilia cordata,littleleaf linden,991,5,AVENUE,,Upper East Side-Carnegie Hill,40.77783382,-73.96321125,994438.9058,222664.805
242257,111782,Tilia cordata,littleleaf linden,991,5,AVENUE,,Upper East Side-Carnegie Hill,40.77781384,-73.96326507,994424.0029,222657.517
242261,111782,Tilia cordata,littleleaf linden,991,5,AVENUE,,Upper East Side-Carnegie Hill,40.77788727,-73.96321145,994438.8408,222684.2791
242263,111782,Tilia cordata,littleleaf linden,991,5,AVENUE,,Upper East Side-Carnegie Hill,40.77792423,-73.96318447,994446.3083,222697.7476
242260,111782,Tilia cordata,littleleaf linden,991,5,AVENUE,,Upper East Side-Carnegie Hill,40.77787462,-73.96318146,994447.1492,222679.6725
242262,111782,Tilia cordata,littleleaf linden,991,5,AVENUE,,Upper East Side-Carnegie Hill,40.77791158,-73.96315448,994454.6167,222693.1406
242256,111782,Tilia cordata,littleleaf linden,991,5,AVENUE,,Upper East Side-Carnegie Hill,40.77780118,-73.96323508,994432.3113,222652.9107
242255,111782,Gleditsia triacanthos var. inermis,honeylocust,991,5,AVENUE,,Upper East Side-Carnegie Hill,40.77772679,-73.96328939,994417.2795,222625.7992
290319,107903,Pyrus calleryana,Callery pear,991,5,AVENUE,,Upper East Side-Carnegie Hill,40.77779001,-73.96304054,994486.1908,222648.8612
290321,107903,Tilia cordata,littleleaf linden,991,5,AVENUE,,Upper East Side-Carnegie Hill,40.77786876,-73.96298316,994502.0717,222677.5603
242270,111782,Tilia cordata,littleleaf linden,992,5,AVENUE,,Upper East Side-Carnegie Hill,40.77807237,-73.96303708,994487.1052,222751.737
242265,111782,Tilia cordata,littleleaf linden,992,5,AVENUE,,Upper East Side-Carnegie Hill,40.77795975,-73.96315854,994453.4848,222710.6908
242267,111782,Tilia cordata,littleleaf linden,992,5,AVENUE,,Upper East Side-Carnegie Hill,40.77800199,-73.9631277,994462.0189,222726.0835
242271,111782,Tilia cordata,littleleaf linden,992,5,AVENUE,,Upper East Side-Carnegie Hill,40.77808503,-73.96306708,994478.7968,222756.3436
242266,111782,Tilia cordata,littleleaf linden,992,5,AVENUE,,Upper East Side-Carnegie Hill,40.77798934,-73.96309771,994470.3273,222721.4769
242268,111782,Tilia cordata,littleleaf linden,992,5,AVENUE,,Upper East Side-Carnegie Hill,40.77803013,-73.96306792,994478.5707,222736.3446
242264,111782,Tilia cordata,littleleaf linden,992,5,AVENUE,,Upper East Side-Carnegie Hill,40.7779471,-73.96312855,994461.7932,222706.0845
242269,111782,Tilia cordata,littleleaf linden,992,5,AVENUE,,Upper East Side-Carnegie Hill,40.77804279,-73.96309791,994470.2624,222740.9512
290322,107903,Tilia americana,American linden,992,5,AVENUE,,Upper East Side-Carnegie Hill,40.77790045,-73.96296007,994508.4624,222689.1101
290323,107903,Ginkgo biloba,ginkgo,992,5,AVENUE,,Upper East Side-Carnegie Hill,40.77794943,-73.96292438,994518.3394,222706.9598
290324,107903,Tilia cordata,littleleaf linden,992,5,AVENUE,,Upper East Side-Carnegie Hill,40.77799217,-73.96289323,994526.9575,222722.5343
242272,111782,Tilia cordata,littleleaf linden,995,5,AVENUE,,Upper East Side-Carnegie Hill,40.77811413,-73.9630066,994495.5422,222766.9545
242274,111782,Tilia cordata,littleleaf linden,995,5,AVENUE,,Upper East Side-Carnegie Hill,40.77815637,-73.96297576,994504.0766,222782.3468
242276,111782,Tilia cordata,littleleaf linden,995,5,AVENUE,,Upper East Side-Carnegie Hill,40.77819141,-73.96295018,994511.156,222795.1158
242273,111782,Tilia cordata,littleleaf linden,995,5,AVENUE,,Upper East Side-Carnegie Hill,40.77812678,-73.96303659,994487.2338,222771.5607
242275,111782,Tilia cordata,littleleaf linden,995,5,AVENUE,,Upper East Side-Carnegie Hill,40.77816902,-73.96300575,994495.7682,222786.9534
242280,111782,Tilia cordata,littleleaf linden,995,5,AVENUE,,Upper East Side-Carnegie Hill,40.77826244,-73.96289831,994525.509,222821.0029
242278,111782,Tilia cordata,littleleaf linden,995,5,AVENUE,,Upper East Side-Carnegie Hill,40.7782274,-73.9629239,994518.4296,222808.2339
290325,107903,Pyrus calleryana,Callery pear,995,5,AVENUE,,Upper East Side-Carnegie Hill,40.77807525,-73.9628327,994543.7094,222752.8085
290326,107903,Tilia cordata,littleleaf linden,995,5,AVENUE,,Upper East Side-Carnegie Hill,40.77813335,-73.96279036,994555.4262,222773.983
242288,111782,Platanus x acerifolia,London planetree,999,5,AVENUE,,Upper East Side-Carnegie Hill,40.778381,-73.96281176,994549.463,222864.2066
242295,111782,Platanus x acerifolia,London planetree,999,5,AVENUE,,Upper East Side-Carnegie Hill,40.77852085,-73.96274888,994566.8544,222915.1654
242294,111782,Platanus x acerifolia,London planetree,999,5,AVENUE,,Upper East Side-Carnegie Hill,40.77850819,-73.96271889,994575.1627,222910.5585
242296,111782,Platanus x acerifolia,London planetree,999,5,AVENUE,,Upper East Side-Carnegie Hill,40.77852979,-73.96270312,994579.5269,222918.4299
242290,111782,Platanus x acerifolia,London planetree,999,5,AVENUE,,Upper East Side-Carnegie Hill,40.7784026,-73.96279599,994553.8271,222872.0776
242293,111782,Platanus x acerifolia,London planetree,999,5,AVENUE,,Upper East Side-Carnegie Hill,40.77849925,-73.96276465,994562.4905,222907.2944
242292,111782,Platanus x acerifolia,London planetree,999,5,AVENUE,,Upper East Side-Carnegie Hill,40.77848659,-73.96273466,994570.7989,222902.6874
242297,111782,Platanus x acerifolia,London planetree,999,5,AVENUE,,Upper East Side-Carnegie Hill,40.77854245,-73.96273311,994571.2185,222923.0365
290328,107941,Gleditsia triacanthos var. inermis,honeylocust,999,5,AVENUE,,Upper East Side-Carnegie Hill,40.77847636,-73.96253849,994625.1311,222898.9824
290327,107941,Gleditsia triacanthos var. inermis,honeylocust,999,5,AVENUE,,Upper East Side-Carnegie Hill,40.77841806,-73.9625811,994613.3392,222877.7354
242277,111782,Tilia cordata,littleleaf linden,1000,5,AVENUE,,Upper East Side-Carnegie Hill,40.77820406,-73.96298017,994502.8476,222799.7221
242279,111782,Tilia cordata,littleleaf linden,1000,5,AVENUE,,Upper East Side-Carnegie Hill,40.77824006,-73.96295389,994510.1212,222812.8408
242283,111782,Platanus x acerifolia,London planetree,1000,5,AVENUE,,Upper East Side-Carnegie Hill,40.77832886,-73.96288906,994528.0624,222845.1997
242285,111782,Platanus x acerifolia,London planetree,1000,5,AVENUE,,Upper East Side-Carnegie Hill,40.77835045,-73.96287329,994532.4266,222853.0707
242281,111782,Tilia cordata,littleleaf linden,1000,5,AVENUE,,Upper East Side-Carnegie Hill,40.7782751,-73.96292831,994517.2006,222825.6092
242282,111782,Platanus x acerifolia,London planetree,1000,5,AVENUE,,Upper East Side-Carnegie Hill,40.7783162,-73.96285907,994536.3708,222840.5934
242286,111782,Platanus x acerifolia,London planetree,1000,5,AVENUE,,Upper East Side-Carnegie Hill,40.7783594,-73.96282753,994545.0991,222856.3355
242289,111782,Platanus x acerifolia,London planetree,1000,5,AVENUE,,Upper East Side-Carnegie Hill,40.77839365,-73.96284175,994541.1546,222868.8132
242287,111782,Platanus x acerifolia,London planetree,1000,5,AVENUE,,Upper East Side-Carnegie Hill,40.77837205,-73.96285752,994536.7908,222860.9421
242284,111782,Platanus x acerifolia,London planetree,1000,5,AVENUE,,Upper East Side-Carnegie Hill,40.7783378,-73.9628433,994540.735,222848.4645
242291,111782,Platanus x acerifolia,London planetree,1000,5,AVENUE,,Upper East Side-Carnegie Hill,40.77841525,-73.96282598,994545.5188,222876.6842
290331,107941,Ginkgo biloba,ginkgo,1001,5,AVENUE,,Upper East Side-Carnegie Hill,40.77864264,-73.96241697,994658.7597,222959.5761
242300,111782,Platanus x acerifolia,London planetree,1005,5,AVENUE,,Upper East Side-Carnegie Hill,40.77857299,-73.96267158,994588.2552,222934.1723
242299,111782,Platanus x acerifolia,London planetree,1005,5,AVENUE,,Upper East Side-Carnegie Hill,40.77856405,-73.96271735,994575.5824,222930.9075
242301,111782,Platanus x acerifolia,London planetree,1005,5,AVENUE,,Upper East Side-Carnegie Hill,40.77858564,-73.96270157,994579.9468,222938.7786
242298,111782,Platanus x acerifolia,London planetree,1005,5,AVENUE,,Upper East Side-Carnegie Hill,40.77855139,-73.96268735,994583.8911,222926.3012
290330,107941,Ginkgo biloba,ginkgo,1005,5,AVENUE,,Upper East Side-Carnegie Hill,40.77859417,-73.96245239,994648.9572,222941.9137
290329,107941,Gleditsia triacanthos var. inermis,honeylocust,1005,5,AVENUE,,Upper East Side-Carnegie Hill,40.77853634,-73.96249465,994637.2627,222920.8416
290332,107941,Ginkgo biloba,ginkgo,1006,5,AVENUE,,Upper East Side-Carnegie Hill,40.77872853,-73.9623542,994676.132,222990.8785
290333,107941,Ginkgo biloba,ginkgo,1006,5,AVENUE,,Upper East Side-Carnegie Hill,40.77876884,-73.96232474,994684.2846,223005.5678
314678,107940,Ginkgo biloba,ginkgo,1009,5,AVENUE,,Upper East Side-Carnegie Hill,40.77875549,-73.96199933,994774.4084,223000.7414
314679,107940,Ginkgo biloba,ginkgo,1009,5,AVENUE,,Upper East Side-Carnegie Hill,40.7788055,-73.96211809,994741.5105,223018.9487
290372,107967,Gleditsia triacanthos var. inermis,honeylocust,1010,5,AVENUE,,Upper East Side-Carnegie Hill,40.77881261,-73.9618731,994809.3608,223021.5671
290373,107967,Gleditsia triacanthos var. inermis,honeylocust,1010,5,AVENUE,,Upper East Side-Carnegie Hill,40.77885513,-73.9619742,994781.3549,223037.0481
242305,111782,Platanus x acerifolia,London planetree,1015,5,AVENUE,,Upper East Side-Carnegie Hill,40.77942081,-73.96209181,994748.6922,223243.1287
242303,111782,Platanus x acerifolia,London planetree,1015,5,AVENUE,,Upper East Side-Carnegie Hill,40.77939921,-73.96210758,994744.3281,223235.2576
242304,111782,Platanus x acerifolia,London planetree,1015,5,AVENUE,,Upper East Side-Carnegie Hill,40.77940815,-73.96206182,994757.0003,223238.5221
242311,111782,Platanus x acerifolia,London planetree,1015,5,AVENUE,,Upper East Side-Carnegie Hill,40.7794856,-73.9620445,994761.7844,223266.7422
242315,111782,Platanus x acerifolia,London planetree,1015,5,AVENUE,,Upper East Side-Carnegie Hill,40.7795912,-73.9619674,994783.12,223305.2234
242317,111782,Platanus x acerifolia,London planetree,1015,5,AVENUE,,Upper East Side-Carnegie Hill,40.7796128,-73.96195163,994787.4842,223313.0944
242306,111782,Platanus x acerifolia,London planetree,1015,5,AVENUE,,Upper East Side-Carnegie Hill,40.77942975,-73.96204605,994761.3645,223246.3931
242308,111782,Platanus x acerifolia,London planetree,1015,5,AVENUE,,Upper East Side-Carnegie Hill,40.77945135,-73.96203028,994765.7286,223254.2645
242312,111782,Platanus x acerifolia,London planetree,1015,5,AVENUE,,Upper East Side-Carnegie Hill,40.77955694,-73.96195318,994787.0642,223292.7454
242302,111782,Platanus x acerifolia,London planetree,1015,5,AVENUE,,Upper East Side-Carnegie Hill,40.77938655,-73.96207759,994752.6361,223230.651
242309,111782,Platanus x acerifolia,London planetree,1015,5,AVENUE,,Upper East Side-Carnegie Hill,40.779464,-73.96206027,994757.4202,223258.8711
242316,111782,Platanus x acerifolia,London planetree,1015,5,AVENUE,,Upper East Side-Carnegie Hill,40.77960014,-73.96192164,994795.7922,223308.4878
242310,111782,Platanus x acerifolia,London planetree,1015,5,AVENUE,,Upper East Side-Carnegie Hill,40.77947295,-73.96201451,994770.0928,223262.1355
242313,111782,Platanus x acerifolia,London planetree,1015,5,AVENUE,,Upper East Side-Carnegie Hill,40.7795696,-73.96198317,994778.7558,223297.352
242314,111782,Platanus x acerifolia,London planetree,1015,5,AVENUE,,Upper East Side-Carnegie Hill,40.77957854,-73.96193741,994791.4284,223300.6168
242307,111782,Platanus x acerifolia,London planetree,1015,5,AVENUE,,Upper East Side-Carnegie Hill,40.77944241,-73.96207604,994753.0561,223251.0001
290348,107968,Ginkgo biloba,ginkgo,1015,5,AVENUE,,Upper East Side-Carnegie Hill,40.77942736,-73.96184531,994816.9602,223245.5454
290346,107968,Ginkgo biloba,ginkgo,1015,5,AVENUE,,Upper East Side-Carnegie Hill,40.77928762,-73.96194714,994788.7791,223194.6232
290345,107968,Ginkgo biloba,ginkgo,1015,5,AVENUE,,Upper East Side-Carnegie Hill,40.77922088,-73.96199578,994775.3178,223170.2994
290347,107968,Ginkgo biloba,ginkgo,1015,5,AVENUE,,Upper East Side-Carnegie Hill,40.77937886,-73.96188065,994807.179,223227.8712
307705,107969,Ginkgo biloba,ginkgo,1015,5,AVENUE,,Upper East Side-Carnegie Hill,40.77946949,-73.96172997,994848.8961,223260.9111
307706,107969,Ginkgo biloba,ginkgo,1015,5,AVENUE,,Upper East Side-Carnegie Hill,40.77944691,-73.96167626,994863.7753,223252.689
307709,107969,Ginkgo biloba,ginkgo,1016,5,AVENUE,,Upper East Side-Carnegie Hill,40.77932999,-73.96139822,994940.7975,223210.1265
307710,107969,Ginkgo biloba,ginkgo,1016,5,AVENUE,,Upper East Side-Carnegie Hill,40.77928881,-73.96130027,994967.9303,223195.1327
489136,107995,Gleditsia triacanthos var. inermis,honeylocust,1020,5,AVENUE,,Upper East Side-Carnegie Hill,40.77952524,-73.96158239,994889.7582,223281.2379
242331,111782,Tilia cordata,littleleaf linden,1022,5,AVENUE,,Upper East Side-Carnegie Hill,40.77986574,-73.96176695,994838.5927,223405.2737
242323,111782,Tilia cordata,littleleaf linden,1022,5,AVENUE,,Upper East Side-Carnegie Hill,40.77971359,-73.96187804,994807.8499,223349.8263
242325,111782,Tilia cordata,littleleaf linden,1022,5,AVENUE,,Upper East Side-Carnegie Hill,40.77974959,-73.96185175,994815.1232,223362.9447
242329,111782,Tilia cordata,littleleaf linden,1022,5,AVENUE,,Upper East Side-Carnegie Hill,40.77982495,-73.96179673,994830.3489,223390.4063
242327,111782,Tilia cordata,littleleaf linden,1022,5,AVENUE,,Upper East Side-Carnegie Hill,40.77978655,-73.96182477,994822.5907,223376.4132
242330,111782,Tilia cordata,littleleaf linden,1022,5,AVENUE,,Upper East Side-Carnegie Hill,40.77985309,-73.96173695,994846.9007,223400.6674
242319,111782,Platanus x acerifolia,London planetree,1022,5,AVENUE,,Upper East Side-Carnegie Hill,40.7796344,-73.96193586,994791.848,223320.9655
242318,111782,Platanus x acerifolia,London planetree,1022,5,AVENUE,,Upper East Side-Carnegie Hill,40.77962174,-73.96190587,994800.1564,223316.3589
242320,111782,Platanus x acerifolia,London planetree,1022,5,AVENUE,,Upper East Side-Carnegie Hill,40.77964334,-73.9618901,994804.5205,223324.2299
242324,111782,Tilia cordata,littleleaf linden,1022,5,AVENUE,,Upper East Side-Carnegie Hill,40.77973694,-73.96182176,994823.4319,223358.3381
242326,111782,Tilia cordata,littleleaf linden,1022,5,AVENUE,,Upper East Side-Carnegie Hill,40.7797739,-73.96179478,994830.8991,223371.8069
242328,111782,Tilia cordata,littleleaf linden,1022,5,AVENUE,,Upper East Side-Carnegie Hill,40.77981229,-73.96176674,994838.6576,223385.8
242322,111782,Tilia cordata,littleleaf linden,1022,5,AVENUE,,Upper East Side-Carnegie Hill,40.77970094,-73.96184805,994816.1583,223345.2197
242321,111782,Platanus x acerifolia,London planetree,1022,5,AVENUE,,Upper East Side-Carnegie Hill,40.779656,-73.96192009,994796.2122,223328.8369
489133,107995,Gleditsia triacanthos var. inermis,honeylocust,1025,5,AVENUE,,Upper East Side-Carnegie Hill,40.7794195,-73.96133336,994958.7456,223242.7445
242337,111782,Tilia cordata,littleleaf linden,1026,5,AVENUE,,Upper East Side-Carnegie Hill,40.77999054,-73.96167583,994863.8075,223450.7516
242333,111782,Tilia cordata,littleleaf linden,1026,5,AVENUE,,Upper East Side-Carnegie Hill,40.77990798,-73.96173611,994847.1268,223420.6664
242334,111782,Tilia cordata,littleleaf linden,1026,5,AVENUE,,Upper East Side-Carnegie Hill,40.77993613,-73.96167633,994863.6786,223430.9279
242332,111782,Tilia cordata,littleleaf linden,1026,5,AVENUE,,Upper East Side-Carnegie Hill,40.77989533,-73.96170611,994855.4351,223416.0601
242335,111782,Tilia cordata,littleleaf linden,1026,5,AVENUE,,Upper East Side-Carnegie Hill,40.77994878,-73.96170632,994855.3699,223435.5338
242336,111782,Tilia cordata,littleleaf linden,1026,5,AVENUE,,Upper East Side-Carnegie Hill,40.77997788,-73.96164584,994872.1156,223446.145
242340,111782,Tilia cordata,littleleaf linden,1027,5,AVENUE,,Upper East Side-Carnegie Hill,40.78006188,-73.96158451,994889.0873,223476.7549
242338,111782,Tilia cordata,littleleaf linden,1027,5,AVENUE,,Upper East Side-Carnegie Hill,40.78001964,-73.96161535,994880.5529,223461.3625
242343,111782,Tilia cordata,littleleaf linden,1027,5,AVENUE,,Upper East Side-Carnegie Hill,40.78011053,-73.96158822,994888.0522,223494.4799
242339,111782,Platanus x acerifolia,London planetree,1027,5,AVENUE,,Upper East Side-Carnegie Hill,40.7800323,-73.96164534,994872.2445,223465.9691
242347,111782,Tilia cordata,littleleaf linden,1027,5,AVENUE,,Upper East Side-Carnegie Hill,40.78017869,-73.96153845,994901.8232,223519.3181
242345,111782,Tilia cordata,littleleaf linden,1027,5,AVENUE,,Upper East Side-Carnegie Hill,40.78014509,-73.96156298,994895.0348,223507.0737
242342,111782,Tilia cordata,littleleaf linden,1027,5,AVENUE,,Upper East Side-Carnegie Hill,40.78009788,-73.96155822,994896.3606,223489.8733
242344,111782,Tilia cordata,littleleaf linden,1027,5,AVENUE,,Upper East Side-Carnegie Hill,40.78013244,-73.96153299,994903.3432,223502.4674
242346,111782,Tilia cordata,littleleaf linden,1027,5,AVENUE,,Upper East Side-Carnegie Hill,40.78016603,-73.96150846,994910.1319,223514.7112
242341,111782,Tilia cordata,littleleaf linden,1027,5,AVENUE,,Upper East Side-Carnegie Hill,40.78007453,-73.9616145,994880.7786,223481.3615
307127,107997,Gleditsia triacanthos var. inermis,honeylocust,1028,5,AVENUE,,Upper East Side-Carnegie Hill,40.77996161,-73.96093857,995067.9944,223440.3012
195940,108019,Pyrus calleryana,Callery pear,1030,5,AVENUE,,Upper East Side-Carnegie Hill,40.78019073,-73.96118901,994998.5989,223523.7462
195939,108019,Pyrus calleryana,Callery pear,1030,5,AVENUE,,Upper East Side-Carnegie Hill,40.78016225,-73.96112143,995017.3206,223513.3801
290349,108020,Pyrus calleryana,Callery pear,1030,5,AVENUE,,Upper East Side-Carnegie Hill,40.78027715,-73.96122371,994988.9733,223555.2278
290350,108020,Pyrus calleryana,Callery pear,1030,5,AVENUE,,Upper East Side-Carnegie Hill,40.78034477,-73.96117345,995002.8843,223579.8728
311718,111811,Ulmus americana,American elm,1030,5,AVENUE,,Upper East Side-Carnegie Hill,40.78039496,-73.96137739,994946.3956,223598.1336
311721,111811,Ulmus americana,American elm,1033,5,AVENUE,,Upper East Side-Carnegie Hill,40.78054335,-73.96127536,994974.6262,223652.2076
311719,111811,Ginkgo biloba,ginkgo,1033,5,AVENUE,,Upper East Side-Carnegie Hill,40.78042424,-73.96131855,994962.6846,223608.8068
311720,111811,Ulmus americana,American elm,1033,5,AVENUE,,Upper East Side-Carnegie Hill,40.78047037,-73.96132554,994960.7423,223625.6138
290351,108020,Styphnolobium japonicum,Sophora,1033,5,AVENUE,,Upper East Side-Carnegie Hill,40.78042913,-73.96111074,995020.236,223610.6139
290352,108020,Styphnolobium japonicum,Sophora,1033,5,AVENUE,,Upper East Side-Carnegie Hill,40.78050894,-73.96105142,995036.6533,223639.7007
290355,108020,Ginkgo biloba,ginkgo,1034,5,AVENUE,,Upper East Side-Carnegie Hill,40.78072401,-73.96089155,995080.893,223718.0772
290353,108020,Ginkgo biloba,ginkgo,1034,5,AVENUE,,Upper East Side-Carnegie Hill,40.78060118,-73.96098285,995055.6273,223673.3152
311724,111811,Ulmus americana,American elm,1034,5,AVENUE,,Upper East Side-Carnegie Hill,40.7807686,-73.96112049,995017.4804,223734.2947
290354,108020,Styphnolobium japonicum,Sophora,1034,5,AVENUE,,Upper East Side-Carnegie Hill,40.7806614,-73.96093809,995068.0144,223695.261
311725,111811,Ulmus americana,American elm,1034,5,AVENUE,,Upper East Side-Carnegie Hill,40.78083185,-73.96107701,995029.5129,223757.3426
311723,111811,Zelkova serrata,Japanese zelkova,1035,5,AVENUE,,Upper East Side-Carnegie Hill,40.78067617,-73.96118405,994999.8945,223700.6088
311722,111811,Ulmus americana,American elm,1035,5,AVENUE,,Upper East Side-Carnegie Hill,40.78064219,-73.9611687,995004.1507,223688.2341
240391,108048,Styphnolobium japonicum,Sophora,1039,5,AVENUE,,Upper East Side-Carnegie Hill,40.78095073,-73.96073508,995124.1905,223800.6971
285323,111812,Ulmus americana,American elm,1039,5,AVENUE,,Upper East Side-Carnegie Hill,40.78103001,-73.96091182,995075.2283,223829.5583
285324,111812,Ulmus americana,American elm,1039,5,AVENUE,,Upper East Side-Carnegie Hill,40.78109729,-73.96086296,995088.75,223854.0769
285322,111812,Ulmus americana,American elm,1039,5,AVENUE,,Upper East Side-Carnegie Hill,40.78096273,-73.96096069,995061.7067,223805.0396
240392,108048,Styphnolobium japonicum,Sophora,1040,5,AVENUE,,Upper East Side-Carnegie Hill,40.78107169,-73.96064979,995147.7889,223844.7781
285325,111812,Ulmus americana,American elm,1040,5,AVENUE,,Upper East Side-Carnegie Hill,40.78112313,-73.96080501,995104.7955,223863.4998
240393,108048,Styphnolobium japonicum,Sophora,1045,5,AVENUE,,Upper East Side-Carnegie Hill,40.7811404,-73.96060135,995161.1924,223869.8161
285326,111812,Ulmus americana,American elm,1045,5,AVENUE,,Upper East Side-Carnegie Hill,40.78119522,-73.96075265,995119.283,223889.7698
285327,111812,Ulmus americana,American elm,1045,5,AVENUE,,Upper East Side-Carnegie Hill,40.78124626,-73.96075476,995118.6908,223908.3682
285328,111812,Ulmus americana,American elm,1046,5,AVENUE,,Upper East Side-Carnegie Hill,40.78126971,-73.96069855,995134.2535,223916.9154
285329,111812,Ulmus americana,American elm,1046,5,AVENUE,,Upper East Side-Carnegie Hill,40.78131931,-73.96070171,995133.3713,223934.9885
240570,108047,Ginkgo biloba,ginkgo,1048,5,AVENUE,,Upper East Side-Carnegie Hill,40.78133124,-73.96020436,995271.1069,223939.3953
240571,108047,Ginkgo biloba,ginkgo,1048,5,AVENUE,,Upper East Side-Carnegie Hill,40.78131319,-73.96016137,995283.015,223932.8261
240394,108048,Gleditsia triacanthos var. inermis,honeylocust,1048,5,AVENUE,,Upper East Side-Carnegie Hill,40.78129571,-73.96049185,995191.4929,223926.4157
285330,111812,Ulmus americana,American elm,1048,5,AVENUE,,Upper East Side-Carnegie Hill,40.78139524,-73.96064656,995148.6317,223962.6594
285333,111812,Ulmus americana,American elm,1048,5,AVENUE,,Upper East Side-Carnegie Hill,40.78148837,-73.96053974,995178.1989,223996.6013
285331,111812,Ulmus americana,American elm,1048,5,AVENUE,,Upper East Side-Carnegie Hill,40.78141148,-73.96059559,995162.7456,223968.58
285332,111812,Fagus grandifolia,American beech,1048,5,AVENUE,,Upper East Side-Carnegie Hill,40.78146829,-73.96059351,995163.3125,223989.2798
240575,108047,Pyrus calleryana,Callery pear,1049,5,AVENUE,,Upper East Side-Carnegie Hill,40.78113831,-73.95974477,995398.4186,223869.1619
240572,108047,Pyrus calleryana,Callery pear,1049,5,AVENUE,,Upper East Side-Carnegie Hill,40.78123809,-73.95998246,995332.574,223905.4863
240574,108047,Pyrus calleryana,Callery pear,1049,5,AVENUE,,Upper East Side-Carnegie Hill,40.78116511,-73.95980862,995380.7317,223878.9191
240573,108047,Pyrus calleryana,Callery pear,1049,5,AVENUE,,Upper East Side-Carnegie Hill,40.78121155,-73.95991925,995350.0857,223895.8256
285335,111812,Ulmus americana,American elm,1050,5,AVENUE,,Upper East Side-Carnegie Hill,40.78161871,-73.96048426,995193.5431,224044.0966
285337,111812,Ulmus americana,American elm,1050,5,AVENUE,,Upper East Side-Carnegie Hill,40.7816956,-73.96042841,995208.9964,224072.1179
285338,111812,Ulmus americana,American elm,1050,5,AVENUE,,Upper East Side-Carnegie Hill,40.78171568,-73.96037465,995223.8829,224079.439
285336,111812,Ulmus americana,American elm,1050,5,AVENUE,,Upper East Side-Carnegie Hill,40.78163735,-73.96043154,995208.1398,224050.8925
285334,111812,Ulmus americana,American elm,1050,5,AVENUE,,Upper East Side-Carnegie Hill,40.78156286,-73.96048564,995193.1694,224023.7469
482395,108076,Gleditsia triacanthos var. inermis,honeylocust,1050,5,AVENUE,,Upper East Side-Carnegie Hill,40.78145281,-73.95999998,995327.6885,223983.7145
240242,108075,Gleditsia triacanthos var. inermis,honeylocust,1052,5,AVENUE,,Upper East Side-Carnegie Hill,40.78172345,-73.96016918,995280.7834,224082.2957
285339,111812,Ulmus americana,American elm,1052,5,AVENUE,,Upper East Side-Carnegie Hill,40.78179593,-73.96031636,995240.0121,224108.6863
285340,111812,Ulmus americana,American elm,1053,5,AVENUE,,Upper East Side-Carnegie Hill,40.78184362,-73.96032091,995238.7441,224126.059
240243,108075,Gleditsia triacanthos var. inermis,honeylocust,1054,5,AVENUE,,Upper East Side-Carnegie Hill,40.78182401,-73.96009503,995301.3027,224118.9419
285341,111812,Ulmus americana,American elm,1054,5,AVENUE,,Upper East Side-Carnegie Hill,40.7818709,-73.96026191,995255.0794,224136.0072
240244,108075,Pyrus calleryana,Callery pear,1055,5,AVENUE,,Upper East Side-Carnegie Hill,40.78191068,-73.96003112,995318.988,224150.5281
285342,111812,Ulmus americana,American elm,1055,5,AVENUE,,Upper East Side-Carnegie Hill,40.78191474,-73.96026925,995253.0383,224151.9783
285344,111812,Ulmus americana,American elm,1055,5,AVENUE,,Upper East Side-Carnegie Hill,40.7819801,-73.96022178,995266.1738,224175.7968
285343,111812,Ulmus americana,American elm,1055,5,AVENUE,,Upper East Side-Carnegie Hill,40.78193001,-73.96021898,995266.9589,224157.5485
240245,108075,Pyrus calleryana,Callery pear,1056,5,AVENUE,,Upper East Side-Carnegie Hill,40.78202417,-73.95994743,995342.1455,224191.886
285345,111812,Ulmus americana,American elm,1056,5,AVENUE,,Upper East Side-Carnegie Hill,40.78207803,-73.96011147,995296.7066,224211.4896
285346,111812,Ulmus americana,American elm,1056,5,AVENUE,,Upper East Side-Carnegie Hill,40.78212668,-73.96011533,995295.6314,224229.212
285348,111812,Ulmus americana,American elm,1056,5,AVENUE,,Upper East Side-Carnegie Hill,40.78219155,-73.9600682,995308.6705,224252.8554
285349,111812,Ulmus americana,American elm,1056,5,AVENUE,,Upper East Side-Carnegie Hill,40.78222701,-73.96000327,995326.6475,224265.7808
285347,111812,Ulmus americana,American elm,1056,5,AVENUE,,Upper East Side-Carnegie Hill,40.78215252,-73.96005737,995311.6773,224238.6352
285354,111812,Ulmus americana,American elm,1060,5,AVENUE,,Upper East Side-Carnegie Hill,40.78244663,-73.95984376,995370.7861,224345.8165
285355,111812,Ulmus americana,American elm,1060,5,AVENUE,,Upper East Side-Carnegie Hill,40.78249432,-73.95984831,995369.5178,224363.1891
285353,111812,Ulmus americana,American elm,1060,5,AVENUE,,Upper East Side-Carnegie Hill,40.78242079,-73.95990171,995354.7406,224336.3936
285350,111812,Ulmus americana,American elm,1060,5,AVENUE,,Upper East Side-Carnegie Hill,40.78226748,-73.96001306,995323.9306,224280.5259
285352,111812,Ulmus americana,American elm,1060,5,AVENUE,,Upper East Side-Carnegie Hill,40.78237455,-73.95989611,995356.2986,224319.5468
285351,111812,Ulmus americana,American elm,1060,5,AVENUE,,Upper East Side-Carnegie Hill,40.78234534,-73.95995651,995339.5772,224308.8976
58817,108105,Ginkgo biloba,ginkgo,1060,5,AVENUE,,Upper East Side-Carnegie Hill,40.78226289,-73.95977575,995389.6516,224278.8815
58816,108105,Ginkgo biloba,ginkgo,1060,5,AVENUE,,Upper East Side-Carnegie Hill,40.78237996,-73.95969013,995413.3435,224321.5448
58938,108106,Tilia cordata,littleleaf linden,1060,5,AVENUE,,Upper East Side-Carnegie Hill,40.78210649,-73.95957038,995446.5517,224221.9256
58937,108106,Quercus phellos,willow oak,1060,5,AVENUE,,Upper East Side-Carnegie Hill,40.78216342,-73.95970556,995409.105,224242.6516
285358,111812,Ulmus americana,American elm,1067,5,AVENUE,,Upper East Side-Carnegie Hill,40.7826701,-73.95968145,995415.6975,224427.2536
285357,111812,Ulmus americana,American elm,1067,5,AVENUE,,Upper East Side-Carnegie Hill,40.78258263,-73.95974498,995398.1194,224395.379
285356,111812,Ulmus americana,American elm,1067,5,AVENUE,,Upper East Side-Carnegie Hill,40.7825664,-73.95979595,995384.0056,224389.4591
58815,108105,Ginkgo biloba,ginkgo,1067,5,AVENUE,,Upper East Side-Carnegie Hill,40.78247304,-73.95962205,995432.1804,224355.4654
58814,108105,Quercus palustris,pin oak,1067,5,AVENUE,,Upper East Side-Carnegie Hill,40.78257955,-73.95954415,995453.7361,224394.2816
285360,111812,Ulmus americana,American elm,1069,5,AVENUE,,Upper East Side-Carnegie Hill,40.78279948,-73.95962666,995430.8484,224474.3985
285359,111812,Ulmus americana,American elm,1069,5,AVENUE,,Upper East Side-Carnegie Hill,40.78274603,-73.9596263,995430.9576,224454.9245
285363,111812,Ulmus americana,American elm,1070,5,AVENUE,,Upper East Side-Carnegie Hill,40.78304302,-73.95941059,995490.6461,224563.1569
285364,111812,Ulmus americana,American elm,1070,5,AVENUE,,Upper East Side-Carnegie Hill,40.78309407,-73.9594127,995490.054,224581.7553
285362,111812,Ulmus americana,American elm,1070,5,AVENUE,,Upper East Side-Carnegie Hill,40.78302054,-73.9594661,995475.2768,224554.9597
285361,111812,Ulmus americana,American elm,1070,5,AVENUE,,Upper East Side-Carnegie Hill,40.78294846,-73.95951846,995460.7892,224528.6898
285365,111812,Ulmus americana,American elm,1071,5,AVENUE,,Upper East Side-Carnegie Hill,40.78316615,-73.95936034,995504.5415,224608.0252
285371,111812,Ulmus americana,American elm,1072,5,AVENUE,,Upper East Side-Carnegie Hill,40.78339202,-73.95919628,995549.9357,224690.3377
285366,111812,Ulmus americana,American elm,1072,5,AVENUE,,Upper East Side-Carnegie Hill,40.78319296,-73.95930168,995520.7803,224617.7982
285367,111812,Ulmus americana,American elm,1072,5,AVENUE,,Upper East Side-Carnegie Hill,40.78324401,-73.95930379,995520.1881,224636.3969
285368,111812,Ulmus americana,American elm,1072,5,AVENUE,,Upper East Side-Carnegie Hill,40.78326504,-73.95924933,995535.2678,224644.0685
285369,111812,Ulmus americana,American elm,1072,5,AVENUE,,Upper East Side-Carnegie Hill,40.7833233,-73.9592462,995536.1244,224665.2938
285370,111812,Ulmus americana,American elm,1072,5,AVENUE,,Upper East Side-Carnegie Hill,40.78334338,-73.95919243,995551.0109,224672.615
285372,111812,Ulmus americana,American elm,1080,5,AVENUE,,Upper East Side-Carnegie Hill,40.78341546,-73.95914007,995565.4984,224698.8853
285376,111812,Ulmus americana,American elm,1080,5,AVENUE,,Upper East Side-Carnegie Hill,40.78363989,-73.95897706,995610.6029,224780.6722
285373,111812,Ulmus americana,American elm,1080,5,AVENUE,,Upper East Side-Carnegie Hill,40.78346651,-73.95914218,995564.9062,224717.4834
285374,111812,Ulmus americana,American elm,1080,5,AVENUE,,Upper East Side-Carnegie Hill,40.78354436,-73.95908563,995580.5528,224745.855
285375,111812,Fagus grandifolia,American beech,1080,5,AVENUE,,Upper East Side-Carnegie Hill,40.78360385,-73.95900324,995603.3592,224767.5374
285378,111812,Ulmus americana,American elm,1082,5,AVENUE,,Upper East Side-Carnegie Hill,40.7837312,-73.95891074,995628.9539,224813.9477
285377,111812,Ulmus americana,American elm,1082,5,AVENUE,,Upper East Side-Carnegie Hill,40.78369334,-73.95897742,995610.4937,224800.1463
285379,111812,Ulmus americana,American elm,1083,5,AVENUE,,Upper East Side-Carnegie Hill,40.78379367,-73.95886536,995641.5094,224836.7147
285382,111812,Ulmus americana,American elm,1084,5,AVENUE,,Upper East Side-Carnegie Hill,40.78394217,-73.9587575,995671.3538,224890.8311
285381,111812,Ulmus americana,American elm,1085,5,AVENUE,,Upper East Side-Carnegie Hill,40.78391056,-73.95881965,995654.1494,224879.3062
194561,108149,Quercus palustris,pin oak,1086,5,AVENUE,,Upper East Side-Carnegie Hill,40.78388438,-73.95819972,995825.8308,224869.8495
194563,108149,Gleditsia triacanthos var. inermis,honeylocust,1086,5,AVENUE,,Upper East Side-Carnegie Hill,40.78396024,-73.95837974,995775.9668,224897.4633
194562,108149,Quercus velutina,black oak,1086,5,AVENUE,,Upper East Side-Carnegie Hill,40.78392164,-73.95828815,995801.3361,224883.4141
194582,108148,Ulmus americana,American elm,1086,5,AVENUE,,Upper East Side-Carnegie Hill,40.78393829,-73.95854885,995729.1381,224889.4453
285383,111812,Ulmus americana,American elm,1086,5,AVENUE,,Upper East Side-Carnegie Hill,40.78398841,-73.9587631,995669.7957,224907.6782
339801,111813,Ulmus americana,American elm,1086,5,AVENUE,,Upper East Side-Carnegie Hill,40.78429376,-73.95853848,995731.9488,225018.9568
194583,108148,Quercus palustris,pin oak,1087,5,AVENUE,,Upper East Side-Carnegie Hill,40.7838058,-73.95864555,995702.3819,224841.1636
285380,111812,Ulmus americana,American elm,1087,5,AVENUE,,Upper East Side-Carnegie Hill,40.78386672,-73.95881231,995656.1901,224863.3354
339806,111813,Ulmus americana,American elm,1090,5,AVENUE,,Upper East Side-Carnegie Hill,40.78459004,-73.95828245,995802.7997,225126.9373
339803,111813,Ulmus americana,American elm,1090,5,AVENUE,,Upper East Side-Carnegie Hill,40.78441849,-73.95844722,995757.2004,225064.4141
339802,111813,Ulmus americana,American elm,1090,5,AVENUE,,Upper East Side-Carnegie Hill,40.78434585,-73.95846111,995753.3651,225037.9463
339805,111813,Ulmus americana,American elm,1090,5,AVENUE,,Upper East Side-Carnegie Hill,40.78454035,-73.95835806,995781.8696,225108.8221
339804,111813,Ulmus americana,American elm,1090,5,AVENUE,,Upper East Side-Carnegie Hill,40.78446675,-73.95837266,995777.8398,225082.0049
339808,111813,Ulmus americana,American elm,1100,5,AVENUE,,Upper East Side-Carnegie Hill,40.78502394,-73.95800424,995879.7681,225285.056
339807,111813,Ulmus americana,American elm,1100,5,AVENUE,,Upper East Side-Carnegie Hill,40.78494986,-73.95801919,995875.6414,225258.064
482373,108191,Pyrus calleryana,Callery pear,1100,5,AVENUE,,Upper East Side-Carnegie Hill,40.7848395,-73.95789373,995910.4032,225217.8731
482375,108191,Pyrus calleryana,Callery pear,1100,5,AVENUE,,Upper East Side-Carnegie Hill,40.7849573,-73.95780761,995934.2302,225260.8041
482374,108191,Pyrus calleryana,Callery pear,1100,5,AVENUE,,Upper East Side-Carnegie Hill,40.78489948,-73.95784988,995922.535,225239.7323
339811,111813,Ulmus americana,American elm,1106,5,AVENUE,,Upper East Side-Carnegie Hill,40.78518829,-73.95784473,995923.9107,225344.9572
339809,111813,Ulmus americana,American elm,1106,5,AVENUE,,Upper East Side-Carnegie Hill,40.78506979,-73.95793143,995899.9216,225301.7725
339810,111813,Ulmus americana,American elm,1106,5,AVENUE,,Upper East Side-Carnegie Hill,40.78515299,-73.95790981,995905.894,225332.0868
482376,108191,Styphnolobium japonicum,Sophora,1106,5,AVENUE,,Upper East Side-Carnegie Hill,40.78507726,-73.95771992,995958.494,225304.5222
339812,111813,Ulmus americana,American elm,1107,5,AVENUE,,Upper East Side-Carnegie Hill,40.78526573,-73.95782733,995928.7174,225373.173
339814,111813,Ulmus americana,American elm,1107,5,AVENUE,,Upper East Side-Carnegie Hill,40.78538567,-73.95773957,995952.9979,225416.8819
339813,111813,Ulmus americana,American elm,1107,5,AVENUE,,Upper East Side-Carnegie Hill,40.78529959,-73.9577633,995946.4428,225385.5188
482378,108191,Styphnolobium japonicum,Sophora,1107,5,AVENUE,,Upper East Side-Carnegie Hill,40.7852133,-73.95762048,995986.009,225354.0986
482377,108191,Styphnolobium japonicum,Sophora,1107,5,AVENUE,,Upper East Side-Carnegie Hill,40.78514516,-73.95767029,995972.2275,225329.2666
167148,108205,Pyrus calleryana,Callery pear,1109,5,AVENUE,,Upper East Side-Carnegie Hill,40.78527243,-73.95735218,996060.2976,225375.6759
167147,108205,Pyrus calleryana,Callery pear,1109,5,AVENUE,,Upper East Side-Carnegie Hill,40.78521965,-73.95722634,996095.1551,225356.4667
167149,108205,Pyrus calleryana,Callery pear,1109,5,AVENUE,,Upper East Side-Carnegie Hill,40.78530531,-73.95743059,996038.5775,225387.6457
339815,111813,Ulmus americana,American elm,1110,5,AVENUE,,Upper East Side-Carnegie Hill,40.78543056,-73.95766747,995972.9569,225433.249
339816,111813,Ulmus americana,American elm,1110,5,AVENUE,,Upper East Side-Carnegie Hill,40.7855056,-73.95765182,995977.2784,225460.5908
482343,108206,Pyrus calleryana,Callery pear,1110,5,AVENUE,,Upper East Side-Carnegie Hill,40.78544712,-73.95745047,996033.0456,225439.3084
482344,108206,Pyrus calleryana,Callery pear,1110,5,AVENUE,,Upper East Side-Carnegie Hill,40.78538544,-73.95749552,996020.5811,225416.8333
339817,111813,Ulmus americana,American elm,1111,5,AVENUE,,Upper East Side-Carnegie Hill,40.7855529,-73.95757796,995997.7229,225477.8319
482342,108206,Pyrus calleryana,Callery pear,1111,5,AVENUE,,Upper East Side-Carnegie Hill,40.78550879,-73.95740542,996045.5102,225461.7831
339819,111813,Ulmus americana,American elm,1112,5,AVENUE,,Upper East Side-Carnegie Hill,40.78567188,-73.95749091,996021.8095,225521.1907
339818,111813,Ulmus americana,American elm,1112,5,AVENUE,,Upper East Side-Carnegie Hill,40.78562794,-73.95756231,996002.0441,225505.1734
482341,108206,Pyrus calleryana,Callery pear,1112,5,AVENUE,,Upper East Side-Carnegie Hill,40.78557022,-73.95736055,996057.9258,225484.1708
339821,111813,Ulmus americana,American elm,1114,5,AVENUE,,Upper East Side-Carnegie Hill,40.78579037,-73.9574042,996045.7982,225564.3754
339820,111813,Ulmus americana,American elm,1114,5,AVENUE,,Upper East Side-Carnegie Hill,40.78575028,-73.9574728,996026.8104,225549.7566
482340,108206,Pyrus calleryana,Callery pear,1114,5,AVENUE,,Upper East Side-Carnegie Hill,40.78569572,-73.95726887,996083.2913,225529.9079
482339,108206,Prunus,cherry,1114,5,AVENUE,,Upper East Side-Carnegie Hill,40.78578739,-73.95720191,996101.8181,225563.3143
339822,111813,Ulmus americana,American elm,1115,5,AVENUE,,Upper East Side-Carnegie Hill,40.78590791,-73.9573182,996069.5931,225607.2099
339823,111813,Ulmus americana,American elm,1115,5,AVENUE,,Upper East Side-Carnegie Hill,40.78594937,-73.95732712,996067.1158,225622.3136
482338,108207,Pyrus calleryana,Callery pear,1115,5,AVENUE,,Upper East Side-Carnegie Hill,40.78582128,-73.95698228,996162.633,225575.6906
167054,108217,Ginkgo biloba,ginkgo,1115,5,AVENUE,,Upper East Side-Carnegie Hill,40.78591936,-73.95692185,996179.3508,225611.4347
339828,111813,Ulmus americana,American elm,1120,5,AVENUE,,Upper East Side-Carnegie Hill,40.78635955,-73.957027,996150.1547,225771.7972
339825,111813,Ulmus americana,American elm,1120,5,AVENUE,,Upper East Side-Carnegie Hill,40.7861569,-73.95713602,996119.9992,225697.9496
339826,111813,Ulmus americana,American elm,1120,5,AVENUE,,Upper East Side-Carnegie Hill,40.78622954,-73.95712212,996123.8348,225724.417
339824,111813,Ulmus americana,American elm,1120,5,AVENUE,,Upper East Side-Carnegie Hill,40.78613839,-73.95718882,996105.3815,225691.1986
339827,111813,Ulmus americana,American elm,1120,5,AVENUE,,Upper East Side-Carnegie Hill,40.78628403,-73.957043,996145.7364,225744.2805
167035,108218,Pyrus calleryana,Callery pear,1120,5,AVENUE,,Upper East Side-Carnegie Hill,40.7860614,-73.95700519,996156.2472,225663.1731
167032,108218,Pyrus calleryana,Callery pear,1120,5,AVENUE,,Upper East Side-Carnegie Hill,40.7863033,-73.95682854,996205.1224,225751.3314
167034,108218,Pyrus calleryana,Callery pear,1120,5,AVENUE,,Upper East Side-Carnegie Hill,40.7861358,-73.95695086,996171.2783,225690.2852
167033,108218,Pyrus calleryana,Callery pear,1120,5,AVENUE,,Upper East Side-Carnegie Hill,40.78622267,-73.95688742,996188.8308,225721.9453
339830,111813,Ulmus americana,American elm,1125,5,AVENUE,,Upper East Side-Carnegie Hill,40.78651911,-73.95687099,996193.3262,225829.95
339832,111813,Ulmus americana,American elm,1125,5,AVENUE,,Upper East Side-Carnegie Hill,40.78663904,-73.95678324,996217.6066,225873.6589
339829,111813,Ulmus americana,American elm,1125,5,AVENUE,,Upper East Side-Carnegie Hill,40.78647709,-73.95694099,996173.9496,225814.6321
339831,111813,Ulmus americana,American elm,1125,5,AVENUE,,Upper East Side-Carnegie Hill,40.78659415,-73.95685534,996197.6474,225857.2921
167031,108218,Pyrus calleryana,Callery pear,1125,5,AVENUE,,Upper East Side-Carnegie Hill,40.7863885,-73.95676632,996222.3356,225782.3789
109910,108225,Gleditsia triacanthos var. inermis,honeylocust,1130,5,AVENUE,,Upper East Side-Carnegie Hill,40.78649922,-73.95637145,996331.6632,225822.7718
109912,108225,Gleditsia triacanthos var. inermis,honeylocust,1130,5,AVENUE,,Upper East Side-Carnegie Hill,40.7865535,-73.95650114,996295.739,225842.5316
109909,108225,Gleditsia triacanthos var. inermis,honeylocust,1130,5,AVENUE,,Upper East Side-Carnegie Hill,40.78647578,-73.95631546,996347.172,225814.2413
109911,108225,Gleditsia triacanthos var. inermis,honeylocust,1130,5,AVENUE,,Upper East Side-Carnegie Hill,40.78653099,-73.95644737,996310.6343,225834.3384
339834,111813,Ulmus americana,American elm,1133,5,AVENUE,,Upper East Side-Carnegie Hill,40.78683727,-73.95667771,996246.7919,225945.8936
339837,111813,Ulmus americana,American elm,1133,5,AVENUE,,Upper East Side-Carnegie Hill,40.7870034,-73.95651897,996290.7207,226006.4424
339835,111813,Ulmus americana,American elm,1133,5,AVENUE,,Upper East Side-Carnegie Hill,40.78692106,-73.95657827,996274.3152,225976.4343
339836,111813,Ulmus americana,American elm,1133,5,AVENUE,,Upper East Side-Carnegie Hill,40.78699907,-73.9565612,996279.0271,226004.8578
339833,111813,Ulmus americana,American elm,1133,5,AVENUE,,Upper East Side-Carnegie Hill,40.78676138,-73.95669372,996242.3727,225918.2418
109937,108226,Ginkgo biloba,ginkgo,1133,5,AVENUE,,Upper East Side-Carnegie Hill,40.78682863,-73.95644282,996311.8417,225942.7772
109936,108226,Ginkgo biloba,ginkgo,1133,5,AVENUE,,Upper East Side-Carnegie Hill,40.78674479,-73.95650378,996294.9739,225912.2241
109935,108226,Gleditsia triacanthos var. inermis,honeylocust,1133,5,AVENUE,,Upper East Side-Carnegie Hill,40.78667657,-73.95655339,996281.2482,225887.3613
109938,108226,Acer platanoides,Norway maple,1133,5,AVENUE,,Upper East Side-Carnegie Hill,40.78693264,-73.95636718,996332.7688,225980.6842
339838,111813,Ulmus americana,American elm,1136,5,AVENUE,,Upper East Side-Carnegie Hill,40.78708093,-73.95650225,996295.3365,226034.6904
339839,111813,Ulmus americana,American elm,1136,5,AVENUE,,Upper East Side-Carnegie Hill,40.78716134,-73.95640524,996322.1881,226064.0026
339840,111813,Ulmus americana,American elm,1136,5,AVENUE,,Upper East Side-Carnegie Hill,40.78719794,-73.95641799,996318.6494,226077.334
109939,108226,Pyrus calleryana,Callery pear,1136,5,AVENUE,,Upper East Side-Carnegie Hill,40.78707197,-73.95626586,996360.8009,226031.4604
110002,108227,Pyrus calleryana,Callery pear,1136,5,AVENUE,,Upper East Side-Carnegie Hill,40.78709931,-73.95611475,996402.6407,226041.443
339843,111813,Ulmus americana,American elm,1140,5,AVENUE,,Upper East Side-Carnegie Hill,40.78743389,-73.95624807,996365.6592,226163.3227
339841,111813,Ulmus americana,American elm,1140,5,AVENUE,,Upper East Side-Carnegie Hill,40.78727595,-73.95636181,996334.1914,226105.7631
339842,111813,Ulmus americana,American elm,1140,5,AVENUE,,Upper East Side-Carnegie Hill,40.78736118,-73.95626133,996362.0023,226136.8299
110438,108230,Ulmus americana,American elm,1140,5,AVENUE,,Upper East Side-Carnegie Hill,40.78732005,-73.95607585,996413.3717,226121.869
110313,108229,Tilia tomentosa,silver linden,1140,5,AVENUE,,Upper East Side-Carnegie Hill,40.78717331,-73.95602385,996427.7981,226068.4144
339844,111813,Ulmus americana,American elm,1143,5,AVENUE,,Upper East Side-Carnegie Hill,40.78748638,-73.95617117,996386.9462,226182.4565
110439,108230,Ulmus americana,American elm,1143,5,AVENUE,,Upper East Side-Carnegie Hill,40.78740623,-73.9560145,996430.346,226153.2754
110440,108230,Acer saccharinum,silver maple,1143,5,AVENUE,,Upper East Side-Carnegie Hill,40.78746971,-73.9559693,996442.8509,226176.4122
339845,111813,Ulmus americana,American elm,1145,5,AVENUE,,Upper East Side-Carnegie Hill,40.78760676,-73.95608448,996410.9304,226226.3288
339847,111813,Ulmus americana,American elm,1145,5,AVENUE,,Upper East Side-Carnegie Hill,40.78780467,-73.95598106,996439.5311,226298.4484
339846,111813,Ulmus americana,American elm,1145,5,AVENUE,,Upper East Side-Carnegie Hill,40.78768429,-73.95606776,996415.5465,226254.5767
339848,111813,Ulmus americana,American elm,1145,5,AVENUE,,Upper East Side-Carnegie Hill,40.78789014,-73.95591952,996456.5583,226329.5943
110441,108230,Gleditsia triacanthos var. inermis,honeylocust,1145,5,AVENUE,,Upper East Side-Carnegie Hill,40.78755396,-73.95590932,996459.4447,226207.1149
110544,108231,Gleditsia triacanthos var. inermis,honeylocust,1148,5,AVENUE,,Upper East Side-Carnegie Hill,40.78761857,-73.95534695,996615.1623,226230.733
110543,108231,Gleditsia triacanthos var. inermis,honeylocust,1148,5,AVENUE,,Upper East Side-Carnegie Hill,40.78771633,-73.95557789,996551.1936,226266.3165
40604,112043,Ulmus americana,American elm,1150,5,AVENUE,,East Harlem South,40.78821943,-73.95568238,996522.1654,226449.6016
40602,112043,Ulmus americana,American elm,1150,5,AVENUE,,East Harlem South,40.78805764,-73.95575978,996500.7603,226390.6434
40601,112043,Ulmus americana,American elm,1150,5,AVENUE,,East Harlem South,40.78802875,-73.9558197,996484.174,226380.1086
40603,112043,Ulmus americana,American elm,1150,5,AVENUE,,East Harlem South,40.78811591,-73.95575693,996501.5388,226411.8717
40592,109871,Ulmus americana,American elm,1150,5,AVENUE,,East Harlem South,40.78803877,-73.95555581,996557.247,226383.7973
40591,109871,Tilia tomentosa,silver linden,1150,5,AVENUE,,East Harlem South,40.78810707,-73.95550637,996570.9238,226408.6877
40499,109870,Gleditsia triacanthos var. inermis,honeylocust,1150,5,AVENUE,,East Harlem South,40.78784467,-73.95541139,996597.2748,226313.0983
40498,109870,Gleditsia triacanthos var. inermis,honeylocust,1150,5,AVENUE,,East Harlem South,40.78778167,-73.9552608,996638.988,226290.1685
40500,109870,Ulmus americana,American elm,1150,5,AVENUE,,East Harlem South,40.78787854,-73.95549238,996574.8408,226325.4299
215569,111814,Zelkova serrata,Japanese zelkova,1158,5,AVENUE,,East Harlem South,40.78868419,-73.95533451,996618.408,226618.975
40608,112043,Ulmus americana,American elm,1158,5,AVENUE,,East Harlem South,40.7883846,-73.95556343,996555.0722,226509.7941
40605,112043,Ulmus americana,American elm,1158,5,AVENUE,,East Harlem South,40.7882647,-73.95561067,996542.0138,226466.1032
40606,112043,Ulmus americana,American elm,1158,5,AVENUE,,East Harlem South,40.78832634,-73.95560539,996543.4636,226488.5599
40610,112043,Ulmus americana,American elm,1158,5,AVENUE,,East Harlem South,40.78844383,-73.95548167,996577.7024,226531.3846
40609,112043,Ulmus americana,American elm,1158,5,AVENUE,,East Harlem South,40.78843757,-73.95552529,996565.6253,226529.0978
40611,112043,Ulmus americana,American elm,1158,5,AVENUE,,East Harlem South,40.78853195,-73.95545732,996584.4291,226563.4931
40589,109871,Ulmus americana,American elm,1158,5,AVENUE,,East Harlem South,40.78841056,-73.9552867,996631.6973,226519.2904
40590,109871,Ulmus americana,American elm,1158,5,AVENUE,,East Harlem South,40.78830715,-73.95536155,996610.99,226481.6048
40607,112043,Ulmus americana,American elm,1158,5,AVENUE,,East Harlem South,40.78837208,-73.95553334,996563.4078,226505.2367
40531,109872,Pyrus calleryana,Callery pear,1158,5,AVENUE,,East Harlem South,40.7884039,-73.95507997,996688.9456,226516.8918
215575,111814,Zelkova serrata,Japanese zelkova,1160,5,AVENUE,,East Harlem South,40.78901477,-73.95509125,996685.7074,226739.4521
215571,111814,Zelkova serrata,Japanese zelkova,1160,5,AVENUE,,East Harlem South,40.7887848,-73.95526048,996638.8902,226655.6419
215573,111814,Zelkova serrata,Japanese zelkova,1160,5,AVENUE,,East Harlem South,40.78889499,-73.95517939,996661.3239,226695.8006
215570,111814,Zelkova serrata,Japanese zelkova,1160,5,AVENUE,,East Harlem South,40.78871218,-73.9552746,996634.9923,226629.1833
215572,111814,Zelkova serrata,Japanese zelkova,1160,5,AVENUE,,East Harlem South,40.78882717,-73.95518999,996658.401,226671.088
215574,111814,Zelkova serrata,Japanese zelkova,1160,5,AVENUE,,East Harlem South,40.78894215,-73.95510538,996681.8094,226712.9935
110861,109898,Gleditsia triacanthos var. inermis,honeylocust,1160,5,AVENUE,,East Harlem South,40.78874786,-73.95503591,996701.0834,226642.2177
110860,109898,Tilia americana,American linden,1160,5,AVENUE,,East Harlem South,40.78889956,-73.9549252,996731.7119,226697.4997
215577,111814,Zelkova serrata,Japanese zelkova,1165,5,AVENUE,,East Harlem South,40.78912017,-73.95501369,996707.1654,226777.8651
215576,111814,Zelkova serrata,Japanese zelkova,1165,5,AVENUE,,East Harlem South,40.78905714,-73.95502077,996705.2179,226754.8986
215578,111814,Zelkova serrata,Japanese zelkova,1165,5,AVENUE,,East Harlem South,40.7891841,-73.95492734,996731.0649,226801.1688
215579,111814,Zelkova serrata,Japanese zelkova,1165,5,AVENUE,,East Harlem South,40.78923516,-73.95492908,996730.5741,226819.7698
110778,109899,Styphnolobium japonicum,Sophora,1165,5,AVENUE,,East Harlem South,40.78904592,-73.95461931,996816.3879,226750.8704
110859,109898,Styphnolobium japonicum,Sophora,1165,5,AVENUE,,East Harlem South,40.78898092,-73.95486581,996748.1413,226727.1526
215581,111814,Zelkova serrata,Japanese zelkova,1170,5,AVENUE,,East Harlem South,40.78935254,-73.9548427,996754.4704,226862.5483
215580,111814,Zelkova serrata,Japanese zelkova,1170,5,AVENUE,,East Harlem South,40.7892895,-73.95484978,996752.5229,226839.5818
215583,111814,Zelkova serrata,Japanese zelkova,1170,5,AVENUE,,East Harlem South,40.78951468,-73.95468408,996798.3647,226921.6459
215582,111814,Zelkova serrata,Japanese zelkova,1170,5,AVENUE,,East Harlem South,40.7893973,-73.95477045,996774.4684,226878.8675
40546,109958,Ginkgo biloba,ginkgo,1170,5,AVENUE,,East Harlem South,40.78936697,-73.95457206,996829.4102,226867.8455
40547,109958,Ginkgo biloba,ginkgo,1170,5,AVENUE,,East Harlem South,40.78928131,-73.95463391,996812.3,226836.6271
215584,111814,Zelkova serrata,Japanese zelkova,1174,5,AVENUE,,East Harlem South,40.7895873,-73.95466995,996802.2629,226948.1046
215588,111814,Zelkova serrata,Japanese zelkova,1174,5,AVENUE,,East Harlem South,40.78981056,-73.95450566,996847.7146,227029.4699
215586,111814,Zelkova serrata,Japanese zelkova,1174,5,AVENUE,,East Harlem South,40.78970755,-73.95458146,996826.7445,226991.9303
215591,111814,Zelkova serrata,Japanese zelkova,1174,5,AVENUE,,East Harlem South,40.78994204,-73.95436959,996885.3668,227077.393
215590,111814,Zelkova serrata,Japanese zelkova,1174,5,AVENUE,,East Harlem South,40.7899404,-73.95441011,996874.1467,227076.7877
215585,111814,Zelkova serrata,Japanese zelkova,1174,5,AVENUE,,East Harlem South,40.78963494,-73.95459558,996822.8462,226965.4716
215587,111814,Zelkova serrata,Japanese zelkova,1174,5,AVENUE,,East Harlem South,40.78974753,-73.95451273,996845.7671,227006.5034
215589,111814,Zelkova serrata,Japanese zelkova,1174,5,AVENUE,,East Harlem South,40.78986012,-73.95442988,996868.688,227047.5358
40545,109958,Ulmus parvifolia,Chinese elm,1174,5,AVENUE,,East Harlem South,40.78956332,-73.9544303,996868.6286,226939.4028
215597,111814,Zelkova serrata,Japanese zelkova,1180,5,AVENUE,,East Harlem South,40.79034401,-73.95407379,996967.1993,227223.8862
215598,111814,Zelkova serrata,Japanese zelkova,1180,5,AVENUE,,East Harlem South,40.79041641,-73.95405985,996971.0448,227250.2654
215593,111814,Zelkova serrata,Japanese zelkova,1180,5,AVENUE,,East Harlem South,40.79005203,-73.95432797,996896.8727,227117.4707
215595,111814,Zelkova serrata,Japanese zelkova,1180,5,AVENUE,,East Harlem South,40.79023046,-73.95415735,996944.0832,227182.505
215592,111814,Zelkova serrata,Japanese zelkova,1180,5,AVENUE,,East Harlem South,40.79002109,-73.95431142,996901.4602,227106.2027
215596,111814,Zelkova serrata,Japanese zelkova,1180,5,AVENUE,,East Harlem South,40.79030739,-73.95414005,996948.8594,227210.5348
215594,111814,Zelkova serrata,Japanese zelkova,1180,5,AVENUE,,East Harlem South,40.79010446,-73.95425007,996918.4313,227136.5838
215599,111814,Zelkova serrata,Japanese zelkova,1180,5,AVENUE,,East Harlem South,40.7904693,-73.95398251,996992.4512,227269.5491
40542,109958,Ginkgo biloba,ginkgo,1180,5,AVENUE,,East Harlem South,40.79017884,-73.95398589,996991.5706,227163.7216
40541,109958,Ulmus parvifolia,Chinese elm,1180,5,AVENUE,,East Harlem South,40.79025343,-73.95393203,997006.4702,227190.9066
40544,109958,Ulmus parvifolia,Chinese elm,1180,5,AVENUE,,East Harlem South,40.78994591,-73.95415407,996945.0468,227078.8349
40543,109958,Ulmus parvifolia,Chinese elm,1180,5,AVENUE,,East Harlem South,40.79001954,-73.9541009,996959.7541,227105.6689
215600,111814,Zelkova serrata,Japanese zelkova,1190,5,AVENUE,,East Harlem South,40.79053286,-73.95397575,996994.3128,227292.7052
215602,111814,Zelkova serrata,Japanese zelkova,1190,5,AVENUE,,East Harlem South,40.79066279,-73.9538819,997020.2727,227340.0559
215607,111814,Zelkova serrata,Japanese zelkova,1190,5,AVENUE,,East Harlem South,40.7909534,-73.95363287,997089.1764,227445.9733
215605,111814,Zelkova serrata,Japanese zelkova,1190,5,AVENUE,,East Harlem South,40.79083069,-73.95372149,997064.6587,227401.2536
215604,111814,Zelkova serrata,Japanese zelkova,1190,5,AVENUE,,East Harlem South,40.7907855,-73.95379328,997044.7907,227384.7759
215606,111814,Zelkova serrata,Japanese zelkova,1190,5,AVENUE,,East Harlem South,40.7909082,-73.95370465,997069.3087,227429.496
215603,111814,Zelkova serrata,Japanese zelkova,1190,5,AVENUE,,East Harlem South,40.7907152,-73.95380491,997041.583,227359.1641
215601,111814,Zelkova serrata,Japanese zelkova,1190,5,AVENUE,,East Harlem South,40.79059346,-73.95389284,997017.2576,227314.7948
40536,109958,Gleditsia triacanthos var. inermis,honeylocust,1190,5,AVENUE,,East Harlem South,40.79084898,-73.95350204,997125.4231,227407.9465
40537,109958,Gleditsia triacanthos var. inermis,honeylocust,1190,5,AVENUE,,East Harlem South,40.79078449,-73.9535486,997112.5425,227384.4449
40540,109958,Gleditsia triacanthos var. inermis,honeylocust,1190,5,AVENUE,,East Harlem South,40.79053328,-73.95372998,997062.3661,227292.8936
40539,109958,Gleditsia triacanthos var. inermis,honeylocust,1190,5,AVENUE,,East Harlem South,40.79059584,-73.95368481,997074.8621,227315.6934
40538,109958,Gleditsia triacanthos var. inermis,honeylocust,1190,5,AVENUE,,East Harlem South,40.79065888,-73.95363929,997087.4543,227338.6691
215612,111814,Zelkova serrata,Japanese zelkova,1200,5,AVENUE,,East Harlem South,40.79130427,-73.95338001,997159.1251,227573.8448
215611,111814,Zelkova serrata,Japanese zelkova,1200,5,AVENUE,,East Harlem South,40.79126189,-73.95344919,997139.9778,227558.3943
215613,111814,Zelkova serrata,Japanese zelkova,1200,5,AVENUE,,East Harlem South,40.7914282,-73.95329437,997182.8157,227619.0081
215610,111814,Zelkova serrata,Japanese zelkova,1200,5,AVENUE,,East Harlem South,40.79118727,-73.95346395,997135.905,227531.2041
40833,109969,Koelreuteria paniculata,golden raintree,1200,5,AVENUE,,East Harlem South,40.79126089,-73.95320768,997206.8524,227558.0633
40832,109969,Koelreuteria paniculata,golden raintree,1200,5,AVENUE,,East Harlem South,40.79130983,-73.95317189,997216.7529,227575.8996
40834,109969,Koelreuteria paniculata,golden raintree,1200,5,AVENUE,,East Harlem South,40.79120043,-73.95325189,997194.6224,227536.0296
215615,111814,Zelkova serrata,Japanese zelkova,1212,5,AVENUE,,East Harlem South,40.7915497,-73.9532104,997206.042,227663.2865
215614,111814,Zelkova serrata,Japanese zelkova,1212,5,AVENUE,,East Harlem South,40.79150059,-73.95328309,997185.9229,227645.3833
215616,111814,Zelkova serrata,Japanese zelkova,1212,5,AVENUE,,East Harlem South,40.79162014,-73.95320047,997208.7775,227688.9528
40830,109969,Koelreuteria paniculata,golden raintree,1212,5,AVENUE,,East Harlem South,40.7914365,-73.95307926,997242.3775,227622.0648
40829,109969,Koelreuteria paniculata,golden raintree,1212,5,AVENUE,,East Harlem South,40.79155934,-73.95298944,997267.2256,227666.8308
40831,109969,Koelreuteria paniculata,golden raintree,1212,5,AVENUE,,East Harlem South,40.79138516,-73.9531168,997231.9917,227603.3539
120745,111815,Ulmus americana,American elm,1214,5,AVENUE,,East Harlem South,40.79183297,-73.95299252,997266.3175,227766.5232
120747,111815,Ulmus americana,American elm,1214,5,AVENUE,,East Harlem South,40.79191893,-73.9529299,997283.6393,227797.8532
120746,111815,Ulmus americana,American elm,1214,5,AVENUE,,East Harlem South,40.79187633,-73.95300015,997264.1971,227782.3214
125696,109997,Pyrus calleryana,Callery pear,1214,5,AVENUE,,East Harlem South,40.79184089,-73.9527851,997323.7501,227769.4428
125697,109997,Pyrus calleryana,Callery pear,1214,5,AVENUE,,East Harlem South,40.79179167,-73.95282022,997314.0355,227751.5042
125694,109997,Pyrus calleryana,Callery pear,1215,5,AVENUE,,East Harlem South,40.79194899,-73.95270798,997345.0844,227808.8368
125695,109997,Pyrus calleryana,Callery pear,1215,5,AVENUE,,East Harlem South,40.79190001,-73.95274292,997335.4174,227790.9864
120749,111815,Ulmus americana,American elm,1215,5,AVENUE,,East Harlem South,40.79204044,-73.9528414,997308.1225,227842.1359
120748,111815,Ulmus americana,American elm,1215,5,AVENUE,,East Harlem South,40.79199544,-73.95291339,997288.196,227825.7291
125675,110017,Styphnolobium japonicum,Sophora,1216,5,AVENUE,,East Harlem South,40.79227226,-73.95222011,997480.1103,227926.6905
120751,111815,Ulmus americana,American elm,1217,5,AVENUE,,East Harlem South,40.79216051,-73.95275394,997332.3154,227885.893
120750,111815,Ulmus americana,American elm,1217,5,AVENUE,,East Harlem South,40.7921131,-73.95282769,997311.905,227868.6112
120752,111815,Ulmus americana,American elm,1218,5,AVENUE,,East Harlem South,40.79222981,-73.95274268,997335.4203,227911.143
71496,110016,Zelkova serrata,Japanese zelkova,1219,5,AVENUE,,East Harlem South,40.79242085,-73.95237029,997438.4969,227980.8039
120753,111815,Ulmus americana,American elm,1219,5,AVENUE,,East Harlem South,40.79224167,-73.95269482,997348.6693,227915.473
120754,111815,Ulmus americana,American elm,1219,5,AVENUE,,East Harlem South,40.79246946,-73.95256812,997383.709,227998.483
125676,110017,Styphnolobium japonicum,Sophora,1219,5,AVENUE,,East Harlem South,40.79230578,-73.95229931,997458.174,227938.889
71497,110016,Zelkova serrata,Japanese zelkova,1220,5,AVENUE,,East Harlem South,40.79249256,-73.9523163,997453.4309,228006.9377
71500,110016,Quercus palustris,pin oak,1220,5,AVENUE,,East Harlem South,40.79277177,-73.9521061,997511.5785,228108.6961
71498,110016,Zelkova serrata,Japanese zelkova,1220,5,AVENUE,,East Harlem South,40.79257547,-73.95225389,997470.6966,228037.1526
71499,110016,Styphnolobium japonicum,Sophora,1220,5,AVENUE,,East Harlem South,40.79268339,-73.95217264,997493.1717,228076.4842
120755,111815,Ulmus americana,American elm,1220,5,AVENUE,,East Harlem South,40.79252359,-73.95248947,997405.474,228018.2156
120758,111815,Ulmus americana,American elm,1220,5,AVENUE,,East Harlem South,40.79269278,-73.95240545,997428.7076,228079.8716
120760,111815,Ulmus americana,American elm,1220,5,AVENUE,,East Harlem South,40.79295116,-73.95221724,997480.7704,228174.0375
120757,111815,Ulmus americana,American elm,1220,5,AVENUE,,East Harlem South,40.79264029,-73.95240447,997428.9894,228060.7477
120756,111815,Ulmus americana,American elm,1220,5,AVENUE,,East Harlem South,40.79259241,-73.95247856,997408.4825,228043.2907
120759,111815,Ulmus americana,American elm,1220,5,AVENUE,,East Harlem South,40.79283254,-73.95230365,997456.8676,228130.8053
72028,110047,Zelkova serrata,Japanese zelkova,1230,5,AVENUE,,East Harlem South,40.79343345,-73.95132707,997727.1564,228349.8872
72027,110047,Zelkova serrata,Japanese zelkova,1230,5,AVENUE,,East Harlem South,40.79348491,-73.95144644,997694.0932,228368.6175
72029,110047,Zelkova serrata,Japanese zelkova,1230,5,AVENUE,,East Harlem South,40.79336371,-73.95116529,997771.9657,228324.503
71634,110046,Ulmus americana,American elm,1230,5,AVENUE,,East Harlem South,40.79319809,-73.95179937,997596.4274,228264.0639
71635,110046,Platanus x acerifolia,London planetree,1230,5,AVENUE,,East Harlem South,40.79329679,-73.95172601,997616.719,228300.0356
71636,110046,Platanus x acerifolia,London planetree,1230,5,AVENUE,,East Harlem South,40.7933833,-73.95166171,997634.5047,228331.5647
120765,111815,Ulmus americana,American elm,1230,5,AVENUE,,East Harlem South,40.79330992,-73.95195591,997553.058,228304.7849
120764,111815,Ulmus americana,American elm,1230,5,AVENUE,,East Harlem South,40.7932387,-73.95196858,997549.5659,228278.8345
120763,111815,Ulmus americana,American elm,1230,5,AVENUE,,East Harlem South,40.79318265,-73.95204862,997527.4137,228258.4021
120766,111815,Ulmus americana,American elm,1230,5,AVENUE,,East Harlem South,40.79336165,-73.95187902,997574.3395,228323.6425
120768,111815,Ulmus americana,American elm,1230,5,AVENUE,,East Harlem South,40.79372521,-73.95161419,997647.5949,228456.1399
120767,111815,Ulmus parvifolia,Chinese elm,1230,5,AVENUE,,East Harlem South,40.79367924,-73.95168689,997627.4749,228439.3827
71711,110070,Gleditsia triacanthos var. inermis,honeylocust,1249,5,AVENUE,,East Harlem South,40.79369302,-73.95143875,997696.1788,228444.4395
71712,110070,Gleditsia triacanthos var. inermis,honeylocust,1249,5,AVENUE,,East Harlem South,40.79382506,-73.95134247,997722.812,228492.5611
71714,110070,Gleditsia triacanthos var. inermis,honeylocust,1249,5,AVENUE,,East Harlem South,40.79406753,-73.95116566,997771.7203,228580.9294
71713,110070,Gleditsia triacanthos var. inermis,honeylocust,1249,5,AVENUE,,East Harlem South,40.79394125,-73.95125774,997746.2489,228534.9078
120770,111815,Ulmus americana,American elm,1249,5,AVENUE,,East Harlem South,40.79384287,-73.95152848,997671.3039,228499.0221
120774,111815,Ulmus americana,American elm,1249,5,AVENUE,,East Harlem South,40.7941547,-73.95134054,997723.2782,228612.6619
120769,111815,Ulmus americana,American elm,1249,5,AVENUE,,East Harlem South,40.79379691,-73.95160118,997651.1838,228482.2649
120772,111815,Ulmus americana,American elm,1249,5,AVENUE,,East Harlem South,40.79402791,-73.9514329,997697.7306,228566.454
120771,111815,Ulmus americana,American elm,1249,5,AVENUE,,East Harlem South,40.79391457,-73.95151547,997674.8928,228525.147
120773,111815,Ulmus americana,American elm,1249,5,AVENUE,,East Harlem South,40.79407196,-73.9513616,997717.4635,228582.5111
125119,110019,Gleditsia triacanthos var. inermis,honeylocust,1250,5,AVENUE,,East Harlem South,40.79454829,-73.95081486,997868.7526,228756.141
120779,111815,Ulmus americana,American elm,1250,5,AVENUE,,East Harlem South,40.79457047,-73.95099846,997817.9118,228764.1918
120778,111815,Ulmus americana,American elm,1250,5,AVENUE,,East Harlem South,40.79451634,-73.95107711,997796.1468,228744.4596
120780,111815,Ulmus americana,American elm,1250,5,AVENUE,,East Harlem South,40.79464073,-73.9509865,997821.2104,228789.7918
120781,111815,Ulmus americana,American elm,1252,5,AVENUE,,East Harlem South,40.79468477,-73.9509152,997840.9433,228805.8489
71516,110020,Gleditsia triacanthos var. inermis,honeylocust,1254,5,AVENUE,,East Harlem South,40.79478764,-73.95035534,997995.939,228843.4161
125120,110019,Gleditsia triacanthos var. inermis,honeylocust,1254,5,AVENUE,,East Harlem South,40.79469233,-73.95070983,997897.807,228808.6369
120783,111815,Ulmus americana,American elm,1254,5,AVENUE,,East Harlem South,40.79487653,-73.95081472,997868.725,228875.7316
120782,111815,Ulmus americana,American elm,1254,5,AVENUE,,East Harlem South,40.79480771,-73.95082564,997865.7165,228850.6565
125121,110019,Gleditsia triacanthos var. inermis,honeylocust,1254,5,AVENUE,,East Harlem South,40.79476675,-73.95065556,997912.8185,228835.7596
71651,110113,Pyrus calleryana,Callery pear,1255,5,AVENUE,,East Harlem South,40.79488532,-73.95031198,998007.9246,228879.0101
120785,111815,Ulmus americana,American elm,1255,5,AVENUE,,East Harlem South,40.79506369,-73.95063917,997917.2955,228943.9473
120784,111815,Ulmus americana,American elm,1255,5,AVENUE,,East Harlem South,40.794999,-73.95072551,997893.4015,228920.3641
120786,111815,Ulmus americana,American elm,1255,5,AVENUE,,East Harlem South,40.79511522,-73.95064085,997916.8201,228962.7213
120787,111815,Ulmus americana,American elm,1255,5,AVENUE,,East Harlem South,40.79516743,-73.9505636,997938.198,228981.7537
125152,110114,Pyrus calleryana,Callery pear,1255,5,AVENUE,,East Harlem South,40.79507653,-73.95043296,997974.3895,228948.656
120788,111815,Ulmus americana,American elm,1257,5,AVENUE,,East Harlem South,40.79523865,-73.95055093,997941.6901,229007.7041
125153,110114,Pyrus calleryana,Callery pear,1257,5,AVENUE,,East Harlem South,40.79516478,-73.95036684,997992.6789,228980.8196
120789,111815,Ulmus americana,American elm,1260,5,AVENUE,,East Harlem South,40.7952899,-73.95047438,997962.8748,229026.3865
125154,110114,Pyrus calleryana,Callery pear,1260,5,AVENUE,,East Harlem South,40.79528404,-73.95027749,998017.394,229024.2841
71927,110133,Pyrus calleryana,Callery pear,1261,5,AVENUE,,East Harlem South,40.79551178,-73.94986894,998130.4667,229107.3237
71928,110133,Pyrus calleryana,Callery pear,1261,5,AVENUE,,East Harlem South,40.79548291,-73.9498004,998149.4512,229096.8129
71926,110133,Pyrus calleryana,Callery pear,1261,5,AVENUE,,East Harlem South,40.79553933,-73.94993432,998112.3568,229117.3499
120792,111815,Ulmus americana,American elm,1261,5,AVENUE,,East Harlem South,40.79559692,-73.95028994,998013.8813,229138.2757
125155,110114,Pyrus calleryana,Callery pear,1261,5,AVENUE,,East Harlem South,40.79534367,-73.95023281,998029.7516,229046.0164
120791,111815,Ulmus americana,American elm,1261,5,AVENUE,,East Harlem South,40.79553002,-73.95029946,998011.2602,229113.9011
120790,111815,Ulmus americana,American elm,1261,5,AVENUE,,East Harlem South,40.7954759,-73.9503781,997989.4948,229094.1685
71798,110115,Pyrus calleryana,Callery pear,1261,5,AVENUE,,East Harlem South,40.79547062,-73.95002966,998085.9746,229092.2991
125156,110114,Pyrus calleryana,Callery pear,1261,5,AVENUE,,East Harlem South,40.7954033,-73.95018813,998042.1092,229067.7486
71796,110115,Gleditsia triacanthos var. inermis,honeylocust,1261,5,AVENUE,,East Harlem South,40.7954103,-73.94988618,998125.7134,229070.3447
531205,110134,Pyrus calleryana,Callery pear,1270,5,AVENUE,,East Harlem South,40.7956847,-73.94998003,998099.6708,229170.3058
531206,110134,Pyrus calleryana,Callery pear,1270,5,AVENUE,,East Harlem South,40.79576318,-73.94992199,998115.7269,229198.9075
120794,111815,Ulmus americana,American elm,1270,5,AVENUE,,East Harlem South,40.79577496,-73.95012103,998060.6134,229203.166
120797,111815,Ulmus americana,American elm,1270,5,AVENUE,,East Harlem South,40.79596624,-73.9500209,998088.2981,229272.8739
120796,111815,Ulmus americana,American elm,1270,5,AVENUE,,East Harlem South,40.79589358,-73.95003461,998084.5156,229246.3985
120795,111815,Ulmus americana,American elm,1270,5,AVENUE,,East Harlem South,40.79584666,-73.95010801,998064.202,229229.2916
120793,111815,Ulmus americana,American elm,1270,5,AVENUE,,East Harlem South,40.79572323,-73.95019793,998039.332,229184.3087
120799,111815,Ulmus americana,American elm,1274,5,AVENUE,,East Harlem South,40.79607382,-73.94994253,998109.9749,229312.0805
120798,111815,Ulmus americana,American elm,1274,5,AVENUE,,East Harlem South,40.7960098,-73.94994994,998107.9342,229288.7557
542997,110160,Gleditsia triacanthos var. inermis,honeylocust,1275,5,AVENUE,,East Harlem South,40.79641973,-73.9494795,998238.1059,229438.1813
542998,110160,Styphnolobium japonicum,Sophora,1275,5,AVENUE,,East Harlem South,40.79636201,-73.94952051,998226.7627,229417.1446
542999,110160,Gleditsia triacanthos var. inermis,honeylocust,1275,5,AVENUE,,East Harlem South,40.79630984,-73.94955758,998216.5108,229398.1325
120801,111815,Ulmus americana,American elm,1275,5,AVENUE,,East Harlem South,40.79620205,-73.94984911,998135.8128,229358.8133
120800,111815,Ulmus americana,American elm,1275,5,AVENUE,,East Harlem South,40.79613323,-73.94986003,998132.8042,229333.7382
120802,111815,Ulmus americana,American elm,1275,5,AVENUE,,East Harlem South,40.79624753,-73.94977676,998155.8357,229375.3953
120805,111815,Ulmus americana,American elm,1275,5,AVENUE,,East Harlem South,40.79654015,-73.9496028,998203.9396,229482.0342
120803,111815,Ulmus americana,American elm,1275,5,AVENUE,,East Harlem South,40.79644122,-73.94967488,998184.0046,229445.9782
120804,111815,Ulmus americana,American elm,1275,5,AVENUE,,East Harlem South,40.79646556,-73.94961792,998199.7697,229454.8587